store_name,store_contact,full_address,full_long_lat,longitude,latitude
CONVERSE Grand Indonesia,(021) 23581176,"Grand Indonesia Mall Lt. 3, Jl. Mh. Thamrin No. 1","106.82047340,-6.19510543",106.82047340,-6.19510543
CONVERSE Mall Kota Kasablanka,081119310997,"Mall Kota Kasablanka - Lt. 1 Unit L1-66, Jl. Casablanca Raya, Kav. 88, Menteng Dalam, Tebet","106.84244840,-6.22310002",106.84244840,-6.22310002
CONVERSE Senayan City,081119310998,"Senayan City Mall Lt. 3, Jl. Asia Afrika No.19, Gelora, Tanah Abang, ","106.79787850,-6.22676739",106.79787850,-6.22676739
CONVERSE Tunjungan Plaza Surabaya,081132038400,"Tunjungan Plaza Surabaya Lt. UG Unit 03, Jl. Jend. Basuki Rachmat No. 8-12, Kedungdoro, Tegalsari","112.73970030,-7.26328511",112.73970030,-7.26328511
CONVERSE Summarecon Mall Bekasi,081119310992,"Summarecon Mall Bekasi - Lt. 1 Unit 125, Jl. Boulevard Ahmad Yani, Marga Mulya, Bekasi Utara","107.00094760,-6.22544493",107.00094760,-6.22544493
CONVERSE Pondok Indah Mall 3,081119330397,"Pondok Indah Mall 3 Lt. 1, Jl. Metro Pondok Indah,Pondok Indah Mall 3, Kebayoran Lama","106.78278050,-6.26364588",106.78278050,-6.26364588
CONVERSE Trans Studio Mall Bandung,081120008949,"Trans Studio Mall Bandung Lt. 1 Unit 165-167, Jl. Gatot Subroto No. 289, Cibangkong, Batununggal","107.63674380,-6.92458240",107.63674380,-6.92458240
CONVERSE Mall Plaza Senayan,081119358170,"Mall Plaza Senayan Lt. 3 Unit 311A, Jl. Asia Afrika No. 8, Gelora, Tanah Abang","106.79954260,-6.22534134",106.79954260,-6.22534134
CONVERSE Supermal Karawaci,081119310991,"Supermal Karawaci Lt. UG Unit A3/2A, Jl. Boulevard Diponegoro No. 485, Bencongan, Klp. Dua","106.60690000,-6.22680000",106.60690000,-6.22680000
CONVERSE Trans Studio Makassar,085244644443/082293658939,"Trans Studio Makassar Lt.1 Unit 119, Jl. HM. DG Patompo Metro Tanjung Bunga, Maccini Sombala, Makassar","119.42379000,-5.13535990",119.42379000,-5.13535990
CONVERSE Lippo Mall Puri,081119358178,"Lippo Mall Puri Lt. UG Unit 62, Jl. Puri Indah Raya, Kembangan Selatan, Kembangan","106.73911860,-6.18778136",106.73911860,-6.18778136
CONVERSE Mall Kelapa Gading,082112525520,"Mall Kelapa Gading Lt. GF Unit 121, Jl. Boulevard Raya, Kelapa Gading","106.90820000,-6.15850000",106.90820000,-6.15850000
CONVERSE Manado Town Square,081143702316,"Manado Town Square Lt.1, Jl. Piere Tendean Boulevard, Sario Utara, Sario","124.84207900,1.47748300",124.84207900,1.47748300
CONVERSE Gandaria City,081119330393,"Gandaria City Mall Lt. 2 Unit 231, Jl. Sultan Iskandar Muda, Gandaria, Kebayoran Lama","106.78365770,-6.24388050",106.78365770,-6.24388050
CONVERSE Living World Pekanbaru,08116682194,"Living World Pekanbaru Lt. UG Unit 21B, Jl. Soekarno Hatta, Tangkerang Barat, Marpoyan Damai","101.42430130,0.50061892",101.42430130,0.50061892
CONVERSE Plaza Ambarrukmo,08112841419,"Plaza Ambarrukmo Lt. 2 Unit A1, Jl. Laksda Adisucipto No. 80, Ambarukmo, Caturtunggal, Kec. Depok","110.40132900,-7.78228600",110.40132900,-7.78228600
CONVERSE Mall Of Indonesia,081119358072,"Mall Of Indonesia, Lt. GF Unit 7/8, Jl. Boulevard Barat Raya No. 12, Kelapa Gading Barat, Kelapa Gading","106.53290000,-6.15181200",106.53290000,-6.15181200
CONVERSE Supermal Pakuwon Surabaya,081132038401,"Supermal Pakuwon Surabaya Lt. 1 Unit 85B, Jl. Puncak Bukit Lontar No. 2, Babatan, Wiyung","112.67493940,-7.28954398",112.67493940,-7.28954398
CONVERSE Trans Studio Mall Cibubur,081119310995,"Trans Studio Mall Cibubur Lt. 2 Unit 18, Jl. Alternatif Cibubur, No. 230A, Harjamukti, Cimanggis","106.87598400,-6.37351900",106.87598400,-6.37351900
CONVERSE Olympic Garden Malang,81132031500,"Olympic Garden Malang Lt. 1 Unit 44-45, Jl. Kawi No. 24, Kauman, Klojen","112.62379940,-7.97679131",112.62379940,-7.97679131
CONVERSE Cihampelas Walk,081120205079,"Cihampelas Walk - Lt. GF, Jl. Cihampelas No. 160, Cipaganti, Coblong","107.60516810,-6.89396475",107.60516810,-6.89396475
CONVERSE Deli Park Mall Medan,08116703175,"Deli Park Mall Medan Lt. 3 Unit 09, Jl. Putri Hijau Dalam No. 1 Blok OPQ, Kesawan, Medan Barat","98.87957452,3.59438948",98.87957452,3.59438948
CONVERSE Bintaro Lifestyle Mall ,081119310993,"Bintaro Lifestyle Mall Lt. UG Unit 327, Jl. Lkr. BXC Mall, Pd. Jaya, Pd. Aren","106.72794590,-6.28515655",106.72794590,-6.28515655
CONVERSE Mall Sun Plaza,08116057381,"Mall Sun Plaza Lt. 3, Jl. H. Zainul Arifin No. 7, Madras Hulu, Medan Polonia","98.67492258,3.58478578",98.67492258,3.58478578
CONVERSE Cibinong City Mall,(021) 29860096,"Cibinong City Mall, Lt. Gv Unit C14, Jl. Tegar Beriman No. 1, Pakansari, Cibinong","106.84236090,-6.48421710",106.84236090,-6.48421710
CONVERSE Ayani Megamall Pontianak,08115755860,"Ayani Megamall Pontianak Lt. 1 Unit B1-46, Jl. Ahmad Yani, Pontianak","116.85329160,-1.27196310",116.85329160,-1.27196310
CONVERSE Kemang Village,081119358186,"Kemang Village Mall - Lt. UG Unit 21A, Jl. Pangeran Antasari No. 36, Kemang, Mampang Prapatan","106.80822490,-6.25442980",106.80822490,-6.25442980
CONVERSE E-Walk Balikpapan,08115918954,"E-Walk Balikpapan - Lt. UG, Jl. Jend. Sudirman No. 47, Gn. Bahagia, Balikpapan Selatan","116.85951930,-1.27123220",116.85951930,-1.27123220
CONVERSE Big Mall Samarinda,08115918955,"Big Mall Samarinda Lt. 1, Jl. Untung Suropati No. 8, Karang Asam Ulu, Sungai Kunjang","117.11617330,-0.52685050",117.11617330,-0.52685050
CONVERSE Mall Paragon Solo,08112841404,"Mall Paragon Solo Lt. UG, Jl. Yosodipuro No. 133, Mangkubumen, Banjarsari","110.78879700,-7.56237883",110.78879700,-7.56237883
CONVERSE Mal Ciputra,081119358097,"Mal Ciputra - Lt. 1 Unit 1-20, Jl. Arteri S. Parman, Grogol Petamburan","110.42388670,-6.98838072",110.42388670,-6.98838072
CONVERSE Millennium Mall,081119358198,"Millennium Mall Lt. GF Unit 11, Jl. Senen Raya No. 135, Senen","106.82710000,-6.17530000",106.82710000,-6.17530000
CONVERSE Malang Town Square,081130512897,"Malang Town Square Lt. 1, Jl. Veteran No. 2, Penanggungan, Klojen","112.61872120,-7.95693601",112.61872120,-7.95693601
CONVERSE Grand Metropolitan Bekasi,085715080028,"Grand Metropolitan Bekasi Lt. UG Unit No. 5, Jl. K. H. Noer Alie, Pekayon Jaya, Bekasi Selatan","106.98466900,-6.24934100",106.98466900,-6.24934100
CONVERSE Galaxy Mall 3 Surabaya,(031) 5980282,"Galaxy Mall 3 Surabaya Lt. 2 No. 320, Jl. Ir, Soekarno No. 178, Mulyorejo","112.78209840,-7.27622112",112.78209840,-7.27622112
CONVERSE Mall Malioboro,08112840757,"Mall Malioboro Lt. 1, Jl. Malioboro No. 52-58, Suryatmajan, Danurejan","110.36604600,-7.79297100",110.36604600,-7.79297100
CONVERSE Mall Pejaten Village,081119358189,"Mall Pejaten Village Lt. UG, Jl. Warung Jati Barat No 39, Jati Padang, Pasar Minggu","106.82876210,-6.28044924",106.82876210,-6.28044924
CONVERSE Palembang Icon Mall,08117851484,"Palembang Icon Mall Lt. UG No. 35A, Jl. POM IX, Lorok Pakjo,  Ilir Barat I","104.74891260,-2.97802237",104.74891260,-2.97802237
CONVERSE AEON Mall Jakarta Garden City,081119358196,"AEON Mall JGC Lt. 1 Unit 11, Jl. Jkt Garden City Boulevard No. 1, Cakung Timur, Cakung","106.94460000,-6.18210000",106.94460000,-6.18210000
CONVERSE Lippo Plaza Kramat Jati,081119358159,"Lippo Plaza Kramat Jati Lt. GF Unit 26, Jl. Raya Bogor Km.19, Kramat Jati","106.88274400,-6.23070200",106.88274400,-6.23070200
CONVERSE Mall The Park Solo,089518402660,"Mall The Park Solo Lt. 1 Unit FF 21-22, Jl. Ir. Soekarno, Madegondo, Solo Baru","110.81670000,-7.59850000",110.81670000,-7.59850000
CONVERSE Palembang Indah Mall,(0711) 7623254,"Palembang Indah Mall Lt. UG No. 7-9, Jl. Letkol Iskandar, Kel. 24 Ilir, Bukit Kecil","104.75361680,-2.98427733",104.75361680,-2.98427733
CONVERSE Jogja City Mall,08112841409,"Jogja City Mall Lt. UG Unit 2-3, Jl. Magelang Km 6 No.18, Sinduadi, Mlati","110.36089800,-7.75295000",110.36089800,-7.75295000
CONVERSE Galaxy Mall Surabaya,081130512908,"Galaxy Mall Surabaya - Lt. G Unit 05, Jl. Dharmahusada Indah Timur No. 37, Mulyorejo","112.78209840,-7.27622112",112.78209840,-7.27622112
CONVERSE Galeria Mall Yogyakarta,08112840739,"Galeria Mall Yogyakarta Lt. G Unit 13-14, Jl. Jend. Sudirman No 99-101, Terban, Gondokusuman","110.37894000,-7.78269400",110.37894000,-7.78269400
CONVERSE Epicentrum Mall Lombok,081138001886,"Epicentrum Mall Lombok, Jl. Sriwijaya No. 333, Punia, Mataram Timur","116.10458470,-8.59298397",116.10458470,-8.59298397
CONVERSE Mall Alam Sutera,081119358043,"Mall Alam Sutera - Lt. 1, Jl. Jalur Sutera Barat Kav. 16, Panunggangan Timur, Pinang","106.65197300,-6.22222700",106.65197300,-6.22222700
CONVERSE Discovery Shopping Mall,081138005700,"Discovery Shopping Mall - Lt. GF Unit 3MG-12, Jl. Kartika Plaza, Kuta, Kuta","115.16815840,-8.72881005",115.16815840,-8.72881005
CONVERSE Roxy Square,085230749897,"Roxy Square Lt. G, Jl. Hayam Wuruk No. 50 - 58, Sempursari, Kaliwates,","113.66316030,-8.18351737",113.66316030,-8.18351737
CONVERSE Armada Town Square,(0293) 3218984,"Armada Town Square Lt. UG Unit 35, Jl. Mayjend Bambang Soegeng No. 1. Kedungdowo, Mertoyudan","110.22477000,-7.50369000",110.22477000,-7.50369000
CONVERSE Mall Solo Square,08112840847,"Mall Solo Square Lt. GF Unit 70A, Jl. Slamet Riyadi No. 451-455, Pajang, Laweyan","110.80946000,-7.56123000",110.80946000,-7.56123000
CONVERSE Ciputra World Surabaya,081130532531,"Ciputra World Surabaya - Lt. 2 Unit 2B, Jl. Mayjen Sungkono No. 89, Gn. Sari, Dukuhpakis","112.71935220,-7.29320813",112.71935220,-7.29320813
CONVERSE Mall Star Square Manado,(0431) 6002025,"Mall Star Square Manado Lt. 1,  Jl. RW Monginsidi I, Bahu, Malalayang","124.84207900,1.47748300",124.84207900,1.47748300
CONVERSE Lippo Kuta Icon,(0361) 8496140,"Lippo Kuta Icon Lt. UG 30B, Jl. Kartika Plasa Lingkar Segara 371, Kuta","115.16671590,-8.73552232",115.16671590,-8.73552232
CONVERSE Komplek Pertokoan Kuta Suci Arcade,(0361) 762676,"Komplek Pertokoan Kuta Suci Arcade, Jl. Pantai Kuta 18-22, Kuta","115.17268610,-8.72260158",115.17268610,-8.72260158
CONVERSE Mall Palembang Square,08116057387,"Mall Palembang Square Lt. 2 Unit 167-168, Jl. POM IX, Lorok Pakjo, Ilir Barat I","104.74217040,-2.97656550",104.74217040,-2.97656550
CONVERSE Ciputra Seraya Mall Pekanbaru,08117850291,"Ciputra Seraya Mall Pekanbaru Lt. UG, Jl. Riau No. 58, Kp. Baru, Senapelan","101.43019150,0.53620314",101.43019150,0.53620314
CONVERSE Kualanamu Airport,082167930077,"Kualanamu Airport Lt. 2, Angkasa Pura Lt. II, Bandara Kualanamu","98.87906504,3.63584380",98.87906504,3.63584380
CONVERSE Sogo Paris Van Java,081321178269,"Sogo Paris Van Java - Lt. Resort Level (RL), Jl. Sukajadi No. 137-139, Kelurahan Pasteur, Kecamatan Sukajadi","107.59604610,-6.88922124",107.59604610,-6.88922124
CONVERSE Central Department Store - Grand Indonesia,(021) 23518126,"Central Department Store - Grand Indonesia Lt 1, Dept. Central East Mall Grand Indonesia Jl. MH. Thamrin No. 1","106.82047340,-6.19510543",106.82047340,-6.19510543
