store_name,store_contact,full_address,full_long_lat,longitude,latitude
Crocs Manado Town Square,,MANADO TOWN SQAURE LT. 1   UNIT 15 JL.PIERE TENDEAN BOULEVARD MANADO 95114 ,"124.83162680,1.47201181",124.83162680,1.47201181
CROCS TRANS STUDIO CIBUBUR,,"JL. Alternatif Cibubur, No. 230, Harjamukti. Depok","106.90217160,-6.37549473",106.90217160,-6.37549473
Crocs Living World Denpasar Bali,,"Living World Denpasar, Lt.GF Unit G-1C-17, JL. Gatot Subroto Timur, Tonja Denpasar Utara","115.23230250,-8.63460767",115.23230250,-8.63460767
Crocs Big Mall Samarinda,,"JL. UNTUNG SUROPATI NO. 8, BIG MALL SAMARINDA-KALTIM","117.11586640,-0.52501087",117.11586640,-0.52501087
Crocs A Yani Megamal Pontianak,,"JL. AKHMAD YANI, MEGAMALL PONTIANAK , KALBAR","109.34525730,-0.05158309",109.34525730,-0.05158309
Crocs Lippo Mall Puri,,"LIPPO MALL PURI LT.UG UNIT 90 JL. RAYA PURI INDAH, KEMBANGAN SELATAN - JAKARTA BARAT – 11610","106.73902780,-6.18859853",106.73902780,-6.18859853
CROCS AEON MALL BSD CITY,(021) 29915846,"Aeon Mall BSD, Lt.1 Jl. BSD Raya Utama, Desa Pagedangan, Tangerang, Banten","106.64357130,-6.30484567",106.64357130,-6.30484567
CROCS DUTA MALL BANJARMASIN,(0511) 6795569,Duta Mall Banjarmasin  Lantai 2 Blok E Unit 008  DUTA MALL BANJARMASIN  LANTAI 2 BLOK E UNIT 008  JLN. A. YANI KM.2 BANJARMASIN  BANJARMASIN,"114.60317230,-3.32300170",114.60317230,-3.32300170
CROCS SUPERMALL PAKUWON SURABAYA,,PAKUWON MALL LT. 1 UNIT 85A JL. PUNCAK INDAH LONTAR NO. 2 SURABAYA 60123,"112.67600970,-7.28871143",112.67600970,-7.28871143
CROCS TRANS STUDIO MAKASSAR,,"TRANS STUDIO MALL MAKASSAR LT.LG  UNIT 120,   JL.HM DG.PATOMPO-METRO TANJUNG BUNGA  90134 ","119.39445960,-5.15904589",119.39445960,-5.15904589
CROCS TRANS STUDIO MAKASSAR,,"TRANS STUDIO MALL MAKASSAR LT.LG  UNIT 120,   JL.HM DG.PATOMPO-METRO TANJUNG BUNGA  90134 ","119.39445960,-5.15904589",119.39445960,-5.15904589
Crocs Big Mall Samarinda,,"JL. UNTUNG SUROPATI NO. 8, BIG MALL SAMARINDA-KALTIM","117.11586640,-0.52501087",117.11586640,-0.52501087
Crocs A Yani Megamal Pontianak,,"JL. AKHMAD YANI, MEGAMALL PONTIANAK , KALBAR","109.34525730,-0.05158309",109.34525730,-0.05158309
Crocs Lippo Mall Puri,,"LIPPO MALL PURI LT.UG UNIT 90 JL. RAYA PURI INDAH, KEMBANGAN SELATAN - JAKARTA BARAT – 11610","106.73902780,-6.18859853",106.73902780,-6.18859853
Crocs Manado Town Square,,MANADO TOWN SQAURE LT. 1   UNIT 15 JL.PIERE TENDEAN BOULEVARD MANADO 95114 ,"124.83162680,1.47201181",124.83162680,1.47201181
Crocs Outlet Grand East,,"GRAND OUTLET EAST JAKARTA LT 1 UNIT 706 JALAN TRANS HEKSA, WANASARI, KEC TELUK JAMBE, KARAWANG JAWA BARAT JAWA BARAT 41361","107.24274340,-6.35624453",107.24274340,-6.35624453
CROCS PIM 3,(021) 27811439,"PONDOK INDAH MALL 3 Lt.3 #305 Jl. Kartika Utama No. 1 RT.6 RW.3 Kel. Pondok Pinang, Kec Kebayoran Lama","106.78235330,-6.26373047",106.78235330,-6.26373047
CROCS AEON MALL BSD CITY,(021) 29915846,"Aeon Mall BSD, Lt.1 Jl. BSD Raya Utama, Desa Pagedangan, Tangerang, Banten","106.64357130,-6.30484567",106.64357130,-6.30484567
CROCS SUPERMALL PAKUWON SURABAYA,,PAKUWON MALL LT. 1 UNIT 85A JL. PUNCAK INDAH LONTAR NO. 2 SURABAYA 60123,"112.67600970,-7.28871143",112.67600970,-7.28871143
CROCS DUTA MALL BANJARMASIN,(0511) 6795569,Duta Mall Banjarmasin  Lantai 2 Blok E Unit 008  DUTA MALL BANJARMASIN  LANTAI 2 BLOK E UNIT 008  JLN. A. YANI KM.2 BANJARMASIN  BANJARMASIN,"114.60317230,-3.32300170",114.60317230,-3.32300170
CROCS OUTLET SUMMARECON VILLAGGIO,,"Jl. Lingkar Tanjungpura No.1, Kondangjaya, Karawang Timur, Jawa Barat","107.33992810,-6.32354727",107.33992810,-6.32354727
CROCS CIBINONG CITY MALL 2,,"JL.TEGAR BERIMAN, PAKANSARI, CIBINONG, BOGOR","106.84110030,-6.48425757",106.84110030,-6.48425757
CROCS PLAZA INDONESIA,,"Jl.MH Thamrin Kav 28-30 , Jakarta Pusat","106.82170660,-6.19347009",106.82170660,-6.19347009
CROCS MALL OF INDONESIA,,JL.Boulevard Kelapa Gading Jakarta Utara 14240,"106.89189380,-6.15065835",106.89189380,-6.15065835
CROCS RUKO UBUD,,"Jl. Monkey Forest Ubud, Gianyar, Bali","115.36468960,-8.48411698",115.36468960,-8.48411698
CROCS BINTARO EXCHANGE 2,,"MALL BINTARO XCHANGE 2,CBD BINTARO JAYA BLOK O-2, BINTARO JAYA SEKTOR VII TANGERANG 15227","106.72976310,-6.28426741",106.72976310,-6.28426741
CROCS QUEEN CITY SEMARANG,,"QUEEN CITY MALL LT.G UNIT 18B, JL. PEMUDA NO. 29 -33, SEKAYU, KEC. SEMARANG TENGAH, SEMARANG, JAWA TENGAH","110.42038410,-6.97268780",110.42038410,-6.97268780
CROCS MALANG OLYMPIC GARDEN,,JL. KAWI NO. 24 MALANG,"112.62330230,-7.97720498",112.62330230,-7.97720498
CROCS SUMARECON MALL SERPONG,,"SUMMARECON MALL SERPONG JL. BOULEVARD RAYA GADING SERPONG, PAKULONAN BAR., KEC. KLP. DUA","106.62886410,-6.24072207",106.62886410,-6.24072207
CROCS THE PARK SOLO,,"JL.IR.SOEKARNO, MADEGONDO, SOLO BARU , SUKOHARJO","110.81665640,-7.59866224",110.81665640,-7.59866224
CROCS TAMAN ANGGREK MALL,(021) 5639242,"TAMAN ANGGREK MALL GL#E16-17 - Jl. Letjen S. Parman No.28, RT.9/RW.1, Tomang, Grogol petamburan, Kota Jakarta Barat","106.79033500,-6.17850750",106.79033500,-6.17850750
CROCS MALIOBORO MALL,021 57973214 / 021 579732,"MALIOBORO MALL L2#C5 - Jl. Malioboro 52-58, Yogyakarta","110.36595520,7.79332880",110.36595520,7.79332880
CROCS SUPERMAL KARAWACI,(021) 54210303,"Jl. Boulevard Diponegoro No. 105. Bencongan, Kelapa Dua","106.60653930,6.22742910",106.60653930,6.22742910
CROCS DELI PARK MEDAN,(061) 62000751,Jl. Guru Patimpus Blok OPQ No.1 Kesawan Medan,"0.00000000,0.00000000",0.00000000,0.00000000
CROCS PEJATEN VILLAGE,(021)78830739,"Jl. Warung Jati Barat No.39, , Jakarta Selatan ","0.00000000,0.00000000",0.00000000,0.00000000
CROCS AEON MALL SENTUL CITY,021 – 87965914,"AEON Mall Sentul, Lt. 1 #22 - JL. MH. Thamrin, Citaringgul, Kec. Babakan Madang","106.85641230,-6.56638299",106.85641230,-6.56638299
CROCS PONDOK INDAH MALL 1,(021)750 6927,Pondok Indah Mall 1 - Lantai 1 #128 Jl. Metro Pondok Indah Kav. 3/B,"106.78433900,-6.26529181",106.78433900,-6.26529181
Crocs Kota Kasablanka,(021) 29475150,Jl.Casablanka Raya Kav.88 Tebet,"106.86083110,-6.24098997",106.86083110,-6.24098997
CROCS PASKAL 23 BANDUNG,(022) 20591344,23 Paskal Lt. 2 Unit 36-41 Jl. Pasir Kaliki 25-27 Bandung,"107.59364450,-6.91562078",107.59364450,-6.91562078
CROCS TSM BANDUNG,(022) 86012090,Trans Studio Mall Lt. 1 Unit B169 Jl.Gatot Subroto No.289 Bandung,"107.63660490,-6.92610246",107.63660490,-6.92610246
CROCS AEON TANJUNG BARAT,(021) 50919946,"Aeon Mall Tanjung Barat Lt.1 Unit 19A Jl. Raya Tj. Barat, Tanjung Barat, Jagakarsa","106.84037090,-6.30595032",106.84037090,-6.30595032
CROCS PAKUWON YOGYAKARTA,(0274) 5027351,"Pakuwon Yogyakarta L1 #19,20 Jl. Ring Road Utara, Kaliwaru, Condongcatur, Kec. Depok, Kabupaten Sleman, Daerah Istimewa Yogyakarta","110.39919370,-7.75927527",110.39919370,-7.75927527
CROCS E-WALK BALIKPAPAN,(0542) 7570915,E-WALK BSB LT UG UNIT NO 27 JL. JEND SUDIRMAN CROCS E-WALK BSB LT UG UNIT NO 27 ,"116.85939880,-1.27295891",116.85939880,-1.27295891
CROCS GANDARIA CITY,(021) 29007838,"GANDARIA CITY MALL  GANDARIA CITY, LT. 1 UNIT 133","106.78341780,-6.24482702",106.78341780,-6.24482702
CROCS THE PARK SEMARANG,(024) 7615552,"THE PARK MALL LT. G UNIT G-0045 THE PARK MALL LT.G, JL. MADUKORO RAYA BLOK E1 NO. 10 - 11, KEL. TAWANG MAS, SEMARANG BARAT, SEMARANG, JAWA TENGAH 50144","110.39850820,-6.96475705",110.39850820,-6.96475705
CROCS PLAZA ATRIUM SENEN,,MILLENNIUM MALL LT.GF UNIT#50-51,"106.84064070,-6.17670816",106.84064070,-6.17670816
CROCS LIVING WORLD KOTA WISATA,,"LIVING WOLRD KOTA WISATA LT.GF JL. BOULEVARD KOTA WISATA, CIANGSANA, KEC. GN. PUTRI","106.95847890,-6.36905047",106.95847890,-6.36905047
CROCS SANUR ICON BALI,,"SANUR ICON UG-10B, JL.DANAU TAMBLINGAN NO.27 SANUR, DENPASAR SELATAN, DENPASAR","115.26280230,-8.68659402",115.26280230,-8.68659402
CROCS TERMINAL 3 BANDARA SOETTA,,"BANDARA SOETTA Lt. 1 SOEKARNO HATTA AIRPORT (BOARDING LOUNGE TERMINAL 3 DOMESTIK) GATE 12 UNIT SHOP 16 JL. P2 PAJANG, BENDA. KOTA TANGGERANG","106.66652300,-6.11926282",106.66652300,-6.11926282
CROCS SUMMARECON MALL BANDUNG,,"JL Grand Bulevar No.1 Kelurahan Rancabolang,Kecamatan Gedebage","107.69731050,-6.95521830",107.69731050,-6.95521830
CROCS AEON DELTA MAS,," JL GANESHA BOULEVARD , HEGARMUKTI , CIKARANG PUSAT , KABUPATEN BEKASI","107.19576050,-6.35157815",107.19576050,-6.35157815
CROCS BANDUNG INDAH PLAZA,,"Jl Merdeka No.56, Citarum ","107.61101060,-6.90868659",107.61101060,-6.90868659
CROCS BENCOOLEN  MALL,0736 - 7050150,Jl. Pariwisata No 1,"102.26820780,-3.81193840",102.26820780,-3.81193840
CROCS CIPUTRA CIBUBUR,,"Jl.Alternatif Cibubur Rw04, Jatikarya,Jatisampurna","106.92641710,-6.38265872",106.92641710,-6.38265872
CROCS EMPORIUM MALL PLUIT,,"Jl. Pluit Selatan Raya No.1, Penjaringan","106.79096510,-6.12705775",106.79096510,-6.12705775
CROCS GAIA BUMIRAYA PONTIANAK,,"Jl. Arteri Supadio, Kel. Kubu Raya","109.36911550,-0.07657816",109.36911550,-0.07657816
CROCS GAJAH MADA PLAZA,,Jl.GAJAH MADA NO 19-26 PETOJO UTARA KEC GAMBIR,"106.81849140,-6.16080007",106.81849140,-6.16080007
CROCS LIVING WORLD ALAM SUTERA,,"Jl. Alam Sutera Boulevard Kav 21, Pakulonan, Kec. Serpong Utara, Tangerang Selatan, Banten ","106.65325320,-6.24438736",106.65325320,-6.24438736
CROCS MALL ARTHA GADING,,JL. ARTHA GADING SELATAN NO. 1 RT.018/RW.008 KELAPA GADING BARAT,"106.89217200,-6.14558437",106.89217200,-6.14558437
CROCS MALL JAYAPURA,,"Jl.Samratulangi, Jayapura","140.70609550,-2.53514229",140.70609550,-2.53514229
CROCS PAKUWON SOLO,,"Jl. Ir. Soekarno, Madegondo, Grogol, Sukoharjo, Solo","110.81446830,-7.60055191",110.81446830,-7.60055191
CROCS PALEMBANG INDAH MALL,0896-7676-2920,JL. Letkol Iskandar No. 18 24 Ilir ,"104.75367040,-2.98516661",104.75367040,-2.98516661
CROCS Q MALL BANJARBARU,,"Jl. Ahmad Yani Km. 36,8 Kel. Kemuning, Kec. Banjabaru Selatan","114.84884460,-3.43901828",114.84884460,-3.43901828
CROCS RUKO SUBAK SARI CANGGU,0361-9597045,TIBUBENENG BERAWA BADUNG,"115.14772300,-8.66657447",115.14772300,-8.66657447
CROCS GRAND GALAXY PARK,,"JL. GRAND GALAXY BOULEVARD NO.1, JAKA SETIA","106.97229730,-6.27062180",106.97229730,-6.27062180
CROCS TUNJUNGAN PLAZA 5,,Jl. Basuki Rahmat 8 - 12,"112.73932930,-7.26155378",112.73932930,-7.26155378
CROCS KEDIRI TOWN SQUARE,,"Kediri Town Square Lt. 1 Unit FF07, Jl. Hasanudin No. 2, Bolowerti","112.01580080,-7.81277915",112.01580080,-7.81277915
CROCS PAKUWON CITY MALL ,031-99218562,"Pakuwon City Mall 3 Lt. 1 Unit 39, Jl. Raya Laguna Kejawan Putih Tambak No. 2","112.80619060,-7.27683911",112.80619060,-7.27683911
CROCS PAKUWON MALL BEKASI,,"PAKUWON MALL BEKASI LANTAI 2 UNIT 28, JL RAYA PEKAYON NO 002 RT 001 RW 001PEKAYON JAYA","106.98967040,-6.25572508",106.98967040,-6.25572508
CROCS LIVING WORLD PEKANBARU,0761 - 9000501,"Living World Lt. UG Unit 15C, JL. Soekarno - Hatta Tangkerang Barat","101.42012980,0.50043461",101.42012980,0.50043461
CROCS DP MALL SEMARANG,,"DP Mall 1st Floor unit 19, Jl. Pemuda No. 150, Sekayu","110.41227140,-6.98306437",110.41227140,-6.98306437
CROCS CIPUTRA SEMARANG,,"Ciputra Mall Ground Floor, Jl. Simpang Lima No. 1, Pekunden","110.42387690,-6.98876507",110.42387690,-6.98876507
CROCS CIHAMPELAS WALK,,"Mall Ciwalk Lantai GF Unit 26, Jl. Cihampelas No.160, Cipaganti","107.60534880,-6.89336003",107.60534880,-6.89336003
CROCS CIPUTRA WORLD SURABAYA,,"Ciputra World  Lt. 1 Unit 38 - 43, Jl. Mayjend Sungkono No. 89","112.72005150,-7.29240364",112.72005150,-7.29240364
CROCS PARIS VAN JAVA,,"Mall PVJ Lantai GL-B-15A , Jl Sukajadi No 131-139, Cipedes","107.59597890,-6.88865216",107.59597890,-6.88865216
