storeCode,storeName,orgCode,imageLink,storePhone,storeMobile,managerUserCode,taxCode,bankName,bankAccount,bankAccountName,countryCode,countryName,stateCode,stateName,cityCode,cityName,districtCode,districtName,address1,zipCode,latitude,longitude,openStatus,status,defaultScheduleList,__typename
1024120207559,SMIGGLE BALI GALERIA,10008530,,081138206258,,,,,,,1,Indonesia,20002217,Bali,30002217,Kab. Badung,40002220,Kuta,"Extension Mall Bali Galeria Lt. 2 Unit 2E-18, Jl. Bypass Ngurah Rai, Kuta, Kec. Kuta, Kabupaten Badung, Bali 80361",80361,-8.723210763880918,115.18434204336646,1,1,"[{'scheduleStartHour': '0900', 'scheduleEndHour': '1700', '__typename': 'DefaultSchedule'}, {'scheduleStartHour': '0900', 'scheduleEndHour': '1700', '__typename': 'DefaultSchedule'}, {'scheduleStartHour': '0900', 'scheduleEndHour': '1700', '__typename': 'DefaultSchedule'}]",Store
1024112907557,KIDZ STATION BALI GALERIA,10008528,,081119651530,,,,,,,1,Indonesia,20002217,Bali,30002217,Kab. Badung,40002220,Kuta,"Extension Mall Bali Galeria Lt. 2 Unit 2E-18, Jl. Bypass Ngurah Rai, Kuta, Kec. Kuta, Kabupaten Badung, Bali 80361",80361,-8.723210763880918,115.18434204336646,1,1,"[{'scheduleStartHour': '0900', 'scheduleEndHour': '1700', '__typename': 'DefaultSchedule'}, {'scheduleStartHour': '0900', 'scheduleEndHour': '1700', '__typename': 'DefaultSchedule'}, {'scheduleStartHour': '0900', 'scheduleEndHour': '1700', '__typename': 'DefaultSchedule'}]",Store
1024112907556,KIDZ STATION GANDARIA CITY,10008527,,081119628896,,,,,,,1,Indonesia,20001388,DKI Jakarta,30001414,Kota Jakarta Selatan,40001421,Kebayoran Lama,"Gandaria City Mall Lt. 2, Jl. Sultan Iskandar Muda, Gandaria, Kec. Kby. Lama, Kota Jakarta Selatan, Daerah Khusus Ibukota Jakarta 12240",12240,-6.244298130716297,106.78293561600665,1,1,"[{'scheduleStartHour': '0900', 'scheduleEndHour': '1700', '__typename': 'DefaultSchedule'}, {'scheduleStartHour': '0900', 'scheduleEndHour': '1700', '__typename': 'DefaultSchedule'}, {'scheduleStartHour': '0900', 'scheduleEndHour': '1700', '__typename': 'DefaultSchedule'}]",Store
1024112207537,KIDZ STATION PLAZA AMBARRUKMO,10008506,,02744331361,,,,,,,1,Indonesia,20002429,DI Yogyakarta,30002459,Kab. Sleman,40002461,Depok,"Plaza Ambarrukmo Yogyakarta Lt. 1 Unit A32 - A34, Jl. Laksda Adisucipto No.80, Ambarukmo, Caturtunggal, Kec. Depok, Kabupaten Sleman, Daerah Istimewa Yogyakarta 55281",55281,-7.7825663706375865,110.40109109112403,1,1,"[{'scheduleStartHour': '0900', 'scheduleEndHour': '1700', '__typename': 'DefaultSchedule'}, {'scheduleStartHour': '0900', 'scheduleEndHour': '1700', '__typename': 'DefaultSchedule'}, {'scheduleStartHour': '0900', 'scheduleEndHour': '1700', '__typename': 'DefaultSchedule'}]",Store
1024102507502,KIDZ STATION TRANSPARK MALL BINTARO,10008455,,02139710119,,,,,,,1,Indonesia,20001432,Banten,30006153,Kota Tangerang Selatan,40006173,Pondok Aren,"Transpark Mall Bintaro Lt 1 Unit 11-12, Jl. HR Rasuna Said No.5, Pd. Jaya, Kec. Pd. Aren, Kota Tangerang Selatan, Banten 15220",15220,-6.277518037394517,106.71957591783564,1,1,"[{'scheduleStartHour': '0900', 'scheduleEndHour': '1700', '__typename': 'DefaultSchedule'}, {'scheduleStartHour': '0900', 'scheduleEndHour': '1700', '__typename': 'DefaultSchedule'}, {'scheduleStartHour': '0900', 'scheduleEndHour': '1700', '__typename': 'DefaultSchedule'}]",Store
1024100207427,KIDZ STATION OUTLET SUNTER MALL,10008375,,021658333599,,,,,bcjm-1,Staff,1,Indonesia,20001388,DKI Jakarta,30001400,Kota Jakarta Utara,40001401,Tanjung Priok,"Sunter Mall Lt. 2, Jl. Danau Sunter Utara Kav. II Blok G7, RT.1/RW.13, Sunter Agung, Kec. Tj. Priok, Jakarta Utara, Daerah Khusus Ibukota Jakarta 14350",14350,-6.137965741504792,106.87086479046734,1,1,"[{'scheduleStartHour': '0900', 'scheduleEndHour': '1700', '__typename': 'DefaultSchedule'}, {'scheduleStartHour': '0900', 'scheduleEndHour': '1700', '__typename': 'DefaultSchedule'}, {'scheduleStartHour': '0900', 'scheduleEndHour': '1700', '__typename': 'DefaultSchedule'}]",Store
1024093007376,KIDZ STATION EMPORIUM PLUIT,10008324,,02166676603,,,,,,,1,Indonesia,20001388,DKI Jakarta,30001400,Kota Jakarta Utara,40001402,Penjaringan,"Emporium Pluit Mall Lantai 2 Unit 10-10A, Jl. Pluit Selatan Raya No.1, Penjaringan, Kec. Penjaringan, Jkt Utara, Daerah Khusus Ibukota Jakarta 14440",14440,-6.127255751482731,106.79097440611362,1,1,"[{'scheduleStartHour': '0900', 'scheduleEndHour': '1700', '__typename': 'DefaultSchedule'}, {'scheduleStartHour': '0900', 'scheduleEndHour': '1700', '__typename': 'DefaultSchedule'}, {'scheduleStartHour': '0900', 'scheduleEndHour': '1700', '__typename': 'DefaultSchedule'}]",Store
1024092507234,SMIGGLE EMPORIUM PLUIT,10008182,,081117063547,,,,,,,1,Indonesia,20001388,DKI Jakarta,30001400,Kota Jakarta Utara,40001402,Penjaringan,"Emporium Pluit Mall Lt. 2, Jl. Pluit Selatan Raya No.1, Penjaringan, Kec. Penjaringan, Jkt Utara, Daerah Khusus Ibukota Jakarta 14440",14440,-6.127261132413066,106.79097508689235,1,1,"[{'scheduleStartHour': '0900', 'scheduleEndHour': '1700', '__typename': 'DefaultSchedule'}, {'scheduleStartHour': '0900', 'scheduleEndHour': '1700', '__typename': 'DefaultSchedule'}, {'scheduleStartHour': '0900', 'scheduleEndHour': '1700', '__typename': 'DefaultSchedule'}]",Store
1024091007220,SMIGGLE SUMMARECON BANDUNG,10008165,,081120056659,,,,,,,1,Indonesia,20000422,Jawa Barat,30000619,Kota Bandung,40000621,Gedebage,"Summarecon Mall Bandung Lantai GF unit 893, Jl. Grand Bulevar no. 1, Kelurahan Rancabolang, Kec. Gedebage, Kota Bandung, Jawa Barat 40295",40294,-6.9558443752845545,107.69389889474627,1,1,"[{'scheduleStartHour': '0900', 'scheduleEndHour': '1700', '__typename': 'DefaultSchedule'}, {'scheduleStartHour': '0900', 'scheduleEndHour': '1700', '__typename': 'DefaultSchedule'}, {'scheduleStartHour': '0900', 'scheduleEndHour': '1700', '__typename': 'DefaultSchedule'}]",Store
1024082907129,SMIGGLE KIOSK TRANS STUDIO MALL BANDUNG,10008074,,081120041208,,,,,,,1,Indonesia,20000422,Jawa Barat,30000619,Kota Bandung,40000635,Batununggal,"Mall TSM Bandung Lantai 1 RK 01-02, Jl. Gatot Subroto No.289, Cibangkong, Kec. Batununggal, Kota Bandung, Jawa Barat 40273",40273,-6.925529468144846,107.63666531372432,1,1,"[{'scheduleStartHour': '0900', 'scheduleEndHour': '1700', '__typename': 'DefaultSchedule'}, {'scheduleStartHour': '0900', 'scheduleEndHour': '1700', '__typename': 'DefaultSchedule'}, {'scheduleStartHour': '0900', 'scheduleEndHour': '1700', '__typename': 'DefaultSchedule'}]",Store
1024073107073,SMIGGLE CENTRAL PARK,10008008,,081386077657,,,,,,,1,Indonesia,20001388,DKI Jakarta,30001424,Kota Jakarta Barat,40001431,Grogol Petamburan,"Central Park Lt 2, Jl. Letjen S. Parman No.Kav. 28, Tj. Duren Utara, Kec. Grogol petamburan, Kota Jakarta Barat, Daerah Khusus Ibukota Jakarta 11470",11470,-6.177126507325081,106.790973158286,1,1,"[{'scheduleStartHour': '0900', 'scheduleEndHour': '1700', '__typename': 'DefaultSchedule'}, {'scheduleStartHour': '0900', 'scheduleEndHour': '1700', '__typename': 'DefaultSchedule'}, {'scheduleStartHour': '0900', 'scheduleEndHour': '1700', '__typename': 'DefaultSchedule'}]",Store
1024070506912,SMIGGLE CENTRE POINT MEDAN,10007799,,06180510733,,,,,,,1,Indonesia,20003336,Sumatera Utara,30003751,Kota Medan,40003754,Medan Timur,"Mall CENTER POINT LT. 1 JL. TIMOR BLOK H1, Komp. Center Point No.8, Gg. Buntu, Kec. Medan Tim., Kota Medan, Sumatera Utara 20232",20232,3.591958494948720,98.68109371250180,1,1,"[{'scheduleStartHour': '0900', 'scheduleEndHour': '1700', '__typename': 'DefaultSchedule'}, {'scheduleStartHour': '0900', 'scheduleEndHour': '1700', '__typename': 'DefaultSchedule'}, {'scheduleStartHour': '0900', 'scheduleEndHour': '1700', '__typename': 'DefaultSchedule'}]",Store
1024070406910,KIDZ STATION SANUR ICON,10007797,,0361753450,,,,,,,1,Indonesia,20002217,Bali,30002270,Kota Denpasar,40002272,Denpasar Selatan,"Sanur Icon 1F-24 & 25, Jl.Danau Tamblingan No.27 Sanur, Denpasar Selatan, Denpasar, Bali 80228",80228,-8.686635824776538,115.26279188514762,1,1,"[{'scheduleStartHour': '0900', 'scheduleEndHour': '1700', '__typename': 'DefaultSchedule'}, {'scheduleStartHour': '0900', 'scheduleEndHour': '1700', '__typename': 'DefaultSchedule'}, {'scheduleStartHour': '0900', 'scheduleEndHour': '1700', '__typename': 'DefaultSchedule'}]",Store
1024062406744,BABY STATION KOTA KASABLANKA JAKARTA,10007631,,02129465004,,,,,,,1,Indonesia,20001388,DKI Jakarta,30001414,Kota Jakarta Selatan,40001415,Tebet,"Mall Kota Kasablanka Lantai 2 Unit 240, Jl. Raya Casablanca No.88, Menteng Dalam, Kec. Tebet, Kota Jakarta Selatan, Daerah Khusus Ibukota Jakarta 12870",12870,-6.224022241789465,106.84259530129303,1,1,"[{'scheduleStartHour': '0900', 'scheduleEndHour': '1700', '__typename': 'DefaultSchedule'}, {'scheduleStartHour': '0900', 'scheduleEndHour': '1700', '__typename': 'DefaultSchedule'}, {'scheduleStartHour': '0900', 'scheduleEndHour': '1700', '__typename': 'DefaultSchedule'}]",Store
1024061906688,KIDZ STATION AYANI MEGAMALL PONTIANAK,10007575,,0561762562,,,,,,,1,Indonesia,20004954,Kalimantan Barat,30005122,Kota Pontianak,40005125,Pontianak Selatan,"Ayani Megamall Lt. 2 Unit B2 46-47, Jl. Jenderal Ahmad Yani No.4, Parit Tokaya, Pontianak Sel., Kota Pontianak, Kalimantan Barat 78113",78113,-0.051720119075213275,109.34596055332814,1,1,"[{'scheduleStartHour': '0900', 'scheduleEndHour': '1700', '__typename': 'DefaultSchedule'}, {'scheduleStartHour': '0900', 'scheduleEndHour': '1700', '__typename': 'DefaultSchedule'}, {'scheduleStartHour': '0900', 'scheduleEndHour': '1700', '__typename': 'DefaultSchedule'}]",Store
1024060706671,SMIGGLE GANDARIA CITY JAKARTA,10007558,,02129007949,,,,,,,1,Indonesia,20001388,DKI Jakarta,30001414,Kota Jakarta Selatan,40001421,Kebayoran Lama,"MALL GANDARIA CITYLANTAI 1 UNIT 103A, Jl. Arteri Pd. Indah, RT.10/RW.6, Kby. Lama Utara, Kec. Kby. Lama, Kota Jakarta Selatan, Daerah Khusus Ibukota Jakarta 12240",12240,-6.2441704526409,106.7835278925362,1,1,"[{'scheduleStartHour': '0900', 'scheduleEndHour': '1700', '__typename': 'DefaultSchedule'}, {'scheduleStartHour': '0900', 'scheduleEndHour': '1700', '__typename': 'DefaultSchedule'}, {'scheduleStartHour': '0900', 'scheduleEndHour': '1700', '__typename': 'DefaultSchedule'}]",Store
1024060706670,SMIGGLE MALL KELAPA GADING JAKARTA,10007557,,02145842508,,,,,,,1,Indonesia,20001388,DKI Jakarta,30001400,Kota Jakarta Utara,40001405,Kelapa Gading,"MALL KELAPA GADING 3 LT.2, Jl. Boulevard Raya, RT.13/RW.18, Klp. Gading Tim., Klp. Gading, Kota Jkt Utara, Daerah Khusus Ibukota Jakarta 14240",14240,-6.156243326832886,106.90902857769545,1,1,"[{'scheduleStartHour': '0900', 'scheduleEndHour': '1700', '__typename': 'DefaultSchedule'}, {'scheduleStartHour': '0900', 'scheduleEndHour': '1700', '__typename': 'DefaultSchedule'}, {'scheduleStartHour': '0900', 'scheduleEndHour': '1700', '__typename': 'DefaultSchedule'}]",Store
1024051306610,SMIGGLE PALEMBANG ICON,10007493,,07115649366,,,,,,,1,Indonesia,20004548,Sumatera Selatan,30004763,Kota Palembang,40004774,Ilir Barat I,"PALEMBANG ICON MALL LT. UG, Jl. POM IX, Lorok Pakjo, Kec. Ilir Bar. I, Kota Palembang, Sumatera Selatan 30137",30137,-2.9792774224134586,104.74510342560508,1,1,"[{'scheduleStartHour': '0900', 'scheduleEndHour': '1700', '__typename': 'DefaultSchedule'}, {'scheduleStartHour': '0900', 'scheduleEndHour': '1700', '__typename': 'DefaultSchedule'}, {'scheduleStartHour': '0900', 'scheduleEndHour': '1700', '__typename': 'DefaultSchedule'}]",Store
1024051306609,SMIGGLE TRANS STUDIO MAKASSAR,10007492,,04118117100,,,,,,,1,Indonesia,20006724,Sulawesi Selatan,30006724,Kota Makassar,40006725,Tamalate,"TRANS STUDIO MALL MAKASSARLT. 1  UNIT 1C -51B, Jl. H.M. Daeng Patompo, Jl. Metro Tj. Bunga, Maccini Sombala, Kec. Tamalate, Kota Makassar, Sulawesi Selatan 90134",90134,-5.159085366140027,119.39488520868251,1,1,"[{'scheduleStartHour': '0900', 'scheduleEndHour': '1700', '__typename': 'DefaultSchedule'}, {'scheduleStartHour': '0900', 'scheduleEndHour': '1700', '__typename': 'DefaultSchedule'}, {'scheduleStartHour': '0900', 'scheduleEndHour': '1700', '__typename': 'DefaultSchedule'}]",Store
1024051306608,SMIGGLE PENTACITY BALIKPAPAN,10007491,,05425466021,,,,,,,1,Indonesia,20000856,Kalimantan Timur,30000884,Kota Balikpapan,40000889,Balikpapan Selatan,"Jl. Jenderal Sudirman No.47, Gn. Bahagia, Balikpapan Sel., Kota Balikpapan, Kalimantan Timur 76114",76114,-1.274152442016559,116.856760052501,1,1,"[{'scheduleStartHour': '0900', 'scheduleEndHour': '1700', '__typename': 'DefaultSchedule'}, {'scheduleStartHour': '0900', 'scheduleEndHour': '1700', '__typename': 'DefaultSchedule'}, {'scheduleStartHour': '0900', 'scheduleEndHour': '1700', '__typename': 'DefaultSchedule'}]",Store
1024051306606,SMIGGLE PAKUWON MALL SURABAYA,10007489,,03135973050,,,,,,,1,Indonesia,20002351,Jawa Timur,30006122,Kota Surabaya,40006124,Wiyung,"Pakuwon Mall Surabaya Lantai 1 Unit 70, Jl. Mayjend. Jonosewojo No.2, Babatan, Kec. Wiyung, Surabaya, Jawa Timur 60227",60227,-7.28859961311777,112.675630890122,1,1,"[{'scheduleStartHour': '0900', 'scheduleEndHour': '1700', '__typename': 'DefaultSchedule'}, {'scheduleStartHour': '0900', 'scheduleEndHour': '1700', '__typename': 'DefaultSchedule'}, {'scheduleStartHour': '0900', 'scheduleEndHour': '1700', '__typename': 'DefaultSchedule'}]",Store
1024051306605,BAZAAR KS TEMPORARY CITRA RAYA,10007488,,1500627,,,,,,,1,Indonesia,20001432,Banten,30006154,Kab. Tangerang,40006186,Cikupa,"Jl. Citra Raya Boulevard, Cikupa, Kec. Cikupa, Tangerang, Jawa Barat 15710",15710,-6.234769886737637,106.52010959999578,1,1,"[{'scheduleStartHour': '0900', 'scheduleEndHour': '1700', '__typename': 'DefaultSchedule'}, {'scheduleStartHour': '0900', 'scheduleEndHour': '1700', '__typename': 'DefaultSchedule'}, {'scheduleStartHour': '0900', 'scheduleEndHour': '1700', '__typename': 'DefaultSchedule'}]",Store
1024051306604,KIDZ STATION SUMMARECON MALL BANDUNG,10007487,,02287301590,,,,,,,1,Indonesia,20000422,Jawa Barat,30000619,Kota Bandung,40000621,Gedebage,"Summarecon Mall Bandung Lt 1F Unit 837 & 838, Jl. Bulevar Barat No. 75-89, Summarecon Bandung, Kec. Gedebage, Kota Bandung, Jawa Barat 40295",40295,-6.9557237274309935,107.69387350882273,1,1,"[{'scheduleStartHour': '0900', 'scheduleEndHour': '1700', '__typename': 'DefaultSchedule'}, {'scheduleStartHour': '0900', 'scheduleEndHour': '1700', '__typename': 'DefaultSchedule'}, {'scheduleStartHour': '0900', 'scheduleEndHour': '1700', '__typename': 'DefaultSchedule'}]",Store
1024051306603,SMIGGLE BALI GALERIA,10007486,,0361767075,,,,,,,1,Indonesia,20002217,Bali,30002217,Kab. Badung,40002220,Kuta,"MALL BALI GALERIA LT.2 BLOCK D3, Jl. Bypass Ngurah Rai, Kuta, Kec. Kuta, Kabupaten Badung, Bali 80361",80361,-8.723209189901592,115.18434534531579,1,1,"[{'scheduleStartHour': '0900', 'scheduleEndHour': '1700', '__typename': 'DefaultSchedule'}, {'scheduleStartHour': '0900', 'scheduleEndHour': '1700', '__typename': 'DefaultSchedule'}, {'scheduleStartHour': '0900', 'scheduleEndHour': '1700', '__typename': 'DefaultSchedule'}]",Store
1024051306602,KIDZ STATION LIPPO MALL PURI,10007485,,02151010233,,,,,,,1,Indonesia,20001388,DKI Jakarta,30001424,Kota Jakarta Barat,40001428,Kembangan,"LIPPO MALL PURI LT.LG UNIT. 50-51 JL.PURI BOULEVARD KAV. IV, RT.3/RW.2, PURI INDAH. KEMBANGAN, JAKARTA BARAT 11610",11612,-6.21589038270097,106.72897572595257,1,1,"[{'scheduleStartHour': '0900', 'scheduleEndHour': '1700', '__typename': 'DefaultSchedule'}, {'scheduleStartHour': '0900', 'scheduleEndHour': '1700', '__typename': 'DefaultSchedule'}, {'scheduleStartHour': '0900', 'scheduleEndHour': '1700', '__typename': 'DefaultSchedule'}]",Store
1024051306601,KIDZ STATION GRAND OUTLET EAST KARAWANG,10007484,,081288272001,,,,,,,1,Indonesia,20000422,Jawa Barat,30003051,Kab. Karawang,40003067,Telukjambe Barat,"GRAND OUTLET EAST JAKARTA LT 2 UNIT 765, Jl. Trans Heksa, Wanasari, Telukjambe Barat, Karawang, Jawa Barat 41361",41361,-6.358662997807038,107.2433192393214,1,1,"[{'scheduleStartHour': '0900', 'scheduleEndHour': '1700', '__typename': 'DefaultSchedule'}, {'scheduleStartHour': '0900', 'scheduleEndHour': '1700', '__typename': 'DefaultSchedule'}, {'scheduleStartHour': '0900', 'scheduleEndHour': '1700', '__typename': 'DefaultSchedule'}]",Store
1024051306600,KIDZ STATION SUMMARECON VILLAGIO,10007483,,085727710780,,,,,,,1,Indonesia,20000422,Jawa Barat,30003051,Kab. Karawang,40003057,Karawang Timur,"SUMMARECON VILLAGGIO OUTLETS unit F-052 & F-053, RT.013/RW.006, Jl. Bulevar Blk. A No.Kav.1, Kondangjaya, Kec. Karawang Tim., Karawang, Jawa Barat 41371",41371,-6.323551867193383,107.33990099540631,1,1,"[{'scheduleStartHour': '0900', 'scheduleEndHour': '1700', '__typename': 'DefaultSchedule'}, {'scheduleStartHour': '0900', 'scheduleEndHour': '1700', '__typename': 'DefaultSchedule'}, {'scheduleStartHour': '0900', 'scheduleEndHour': '1700', '__typename': 'DefaultSchedule'}]",Store
1024051306599,SMIGGLE PIM 2 JAKARTA,10007482,,087785194773,,,,,,,1,Indonesia,20001388,DKI Jakarta,30001414,Kota Jakarta Selatan,40001421,Kebayoran Lama,"Pondok Indah Mall 2, Jl. Metro Pondok Indah, RT.1/RW.16, Pd. Pinang, Kby. Lama, Kota Jakarta Selatan, Daerah Khusus Ibukota Jakarta 12310",12310,-6.265381843904332,106.7829032879702,1,1,"[{'scheduleStartHour': '0900', 'scheduleEndHour': '1700', '__typename': 'DefaultSchedule'}, {'scheduleStartHour': '0900', 'scheduleEndHour': '1700', '__typename': 'DefaultSchedule'}, {'scheduleStartHour': '0900', 'scheduleEndHour': '1700', '__typename': 'DefaultSchedule'}]",Store
1023090405890,KIDZ STATION PAKUWON JOGJA,10006726,,02745011946,,,,,,,1,Indonesia,20002429,DI Yogyakarta,30002459,Kab. Sleman,40002461,Depok,"KIDZ STATION PAKUWON MALL JOGJA LT.1 UNIT 36,  Jl. Raya Ringroad Utara, Condongcatur, Depok, Kab. Sleman, DI Yogyakarta 55283",55281,-7.758949089097214,110.39919417649712,1,1,"[{'scheduleStartHour': '0900', 'scheduleEndHour': '1700', '__typename': 'DefaultSchedule'}, {'scheduleStartHour': '0900', 'scheduleEndHour': '1700', '__typename': 'DefaultSchedule'}, {'scheduleStartHour': '0900', 'scheduleEndHour': '1700', '__typename': 'DefaultSchedule'}]",Store
1023090405889,BABYS STATION PIM 2,10006725,,02175920564,,,,,,,1,Indonesia,20001388,DKI Jakarta,30001414,Kota Jakarta Selatan,40001421,Kebayoran Lama,"MALL  PONDOK INDAH MALL 2, LT. 2 UNIT 243 - 243A - JL. METRO PONDOK INDAH KAV 3B, PONDOK PINANG KEBAYORAN LAMA, JAKARTA SELATAN 12310",12310,-6.264784483808476,106.78306637798181,1,1,"[{'scheduleStartHour': '0900', 'scheduleEndHour': '1700', '__typename': 'DefaultSchedule'}, {'scheduleStartHour': '0900', 'scheduleEndHour': '1700', '__typename': 'DefaultSchedule'}, {'scheduleStartHour': '0900', 'scheduleEndHour': '1700', '__typename': 'DefaultSchedule'}]",Store
1023052305735,KIDZ STATION MAKASSAR,10006542,,1500627,,,,,,,1,Indonesia,20006724,Sulawesi Selatan,30006724,Kota Makassar,40006725,Tamalate,"Blok F1-70, Jl. HM. Daeng Patompo, Metro, Tanjung Bunga, Kota Makassar, Sulawesi Selatan 90134",90224,-5.159241537929234,119.39427175129502,1,1,"[{'scheduleStartHour': '0900', 'scheduleEndHour': '1700', '__typename': 'DefaultSchedule'}, {'scheduleStartHour': '0900', 'scheduleEndHour': '1700', '__typename': 'DefaultSchedule'}, {'scheduleStartHour': '0900', 'scheduleEndHour': '1700', '__typename': 'DefaultSchedule'}]",Store
1023052305734,SMIGGLE PLAZA INDONESIA JAKARTA,10006541,,1500627,,,,,,,1,Indonesia,20001388,DKI Jakarta,30001406,Kota Jakarta Pusat,40001409,Menteng,"MALL. PLAZA INDONESIA LT.3, Jl. M.H. Thamrin No.Kav. 28-30, RT.9/RW.5, Gondangdia, Menteng, Kota Jakarta Pusat, DKI Jakarta 10350",10350,-6.193771,106.822180,1,1,"[{'scheduleStartHour': '0900', 'scheduleEndHour': '1700', '__typename': 'DefaultSchedule'}, {'scheduleStartHour': '0900', 'scheduleEndHour': '1700', '__typename': 'DefaultSchedule'}, {'scheduleStartHour': '0900', 'scheduleEndHour': '1700', '__typename': 'DefaultSchedule'}]",Store
1023052305733,SMIGGLE KOTA KASABLANKA JAKARTA,10006540,,1500627,,,,,,,1,Indonesia,20001388,DKI Jakarta,30001414,Kota Jakarta Selatan,40001415,Tebet,"MALL KOTA KASABLANKA LANTAI 2 UNIT 240, Jl. Casablanca No.Kav. 88, RT.16/RW.5, Menteng Dalam, Tebet, Kota Jakarta Selatan, DKI Jakarta 12870",12870,-6.223949,106.842691,1,1,"[{'scheduleStartHour': '0900', 'scheduleEndHour': '1700', '__typename': 'DefaultSchedule'}, {'scheduleStartHour': '0900', 'scheduleEndHour': '1700', '__typename': 'DefaultSchedule'}, {'scheduleStartHour': '0900', 'scheduleEndHour': '1700', '__typename': 'DefaultSchedule'}]",Store
1023052305732,SMIGGLE MALL BALI GALERIA,10006539,,1500627,,,,,,,1,Indonesia,20002217,Bali,30002217,Kab. Badung,40002220,Kuta,"MALL BALI GALERIA LT.2, Jl. By Pass Ngurah Rai, Kuta, Kabupaten Badung, Bali 80361",80361,-8.72287,115.18509,1,1,"[{'scheduleStartHour': '0900', 'scheduleEndHour': '1700', '__typename': 'DefaultSchedule'}, {'scheduleStartHour': '0900', 'scheduleEndHour': '1700', '__typename': 'DefaultSchedule'}, {'scheduleStartHour': '0900', 'scheduleEndHour': '1700', '__typename': 'DefaultSchedule'}]",Store
1023052305731,KIDZ STATION CIPUTRA CIBUBUR,10006538,,1500627,,,,,,,1,Indonesia,20000422,Jawa Barat,30000672,Kota Bekasi,40000677,Jati Sampurna,"MAL CIPUTRA CIBUBUR LT. 2, Jl. Alternatif Cibubur No.Km 4, Jatikarya, Jatisampurna, Bekasi City, West Java 17435",17435,-6.38267,106.92627,1,1,"[{'scheduleStartHour': '0900', 'scheduleEndHour': '1700', '__typename': 'DefaultSchedule'}, {'scheduleStartHour': '0900', 'scheduleEndHour': '1700', '__typename': 'DefaultSchedule'}, {'scheduleStartHour': '0900', 'scheduleEndHour': '1700', '__typename': 'DefaultSchedule'}]",Store
1023052305730,KIDZ STATION PALEMBANG INDAH MALL,10006537,,1500627,,,,,,,1,Indonesia,20004548,Sumatera Selatan,30004763,Kota Palembang,40004776,Bukit Kecil,"PALEMBANG INDAH MALL LT. 1 UNIT UG 51-56, Jl. Letkol Iskandar No.18, 24 Ilir, Bukit Kecil, Kota Palembang, Sumatera Selatan 30134",30134,-2.98457,104.75356,1,1,"[{'scheduleStartHour': '0900', 'scheduleEndHour': '1700', '__typename': 'DefaultSchedule'}, {'scheduleStartHour': '0900', 'scheduleEndHour': '1700', '__typename': 'DefaultSchedule'}, {'scheduleStartHour': '0900', 'scheduleEndHour': '1700', '__typename': 'DefaultSchedule'}]",Store
1023052305729,KIDZ STATION AEON MALL SENTUL CITY,10006536,,1500627,,,,,,,1,Indonesia,20000422,Jawa Barat,30000810,Kab. Bogor,40000826,Babakan Madang,"AEON MALL SENTUL CITY LT.2, Jl. MH. Thamrin, Citaringgul, Kec. Babakan Madang, Bogor, Jawa Barat 16810",16810,-6.567758,106.858080,1,1,"[{'scheduleStartHour': '0900', 'scheduleEndHour': '1700', '__typename': 'DefaultSchedule'}, {'scheduleStartHour': '0900', 'scheduleEndHour': '1700', '__typename': 'DefaultSchedule'}, {'scheduleStartHour': '0900', 'scheduleEndHour': '1700', '__typename': 'DefaultSchedule'}]",Store
1023052305728,KIDZ STATION CAMBRIDGE CITY SQUARE MEDAN,10006535,,1500627,,,,,,,1,Indonesia,20003336,Sumatera Utara,30003751,Kota Medan,40003758,Medan Petisah,"MALL CAMBRIDGE CITY SQUARE LT. LG, Jl. Letjen S. Parman No. 250, Petisah Tengah, Medan Petisah, Kota Medan, Sumatera Utara, 20151",20151,3.584798838848889,98.66752394318763,1,1,"[{'scheduleStartHour': '0900', 'scheduleEndHour': '1700', '__typename': 'DefaultSchedule'}, {'scheduleStartHour': '0900', 'scheduleEndHour': '1700', '__typename': 'DefaultSchedule'}, {'scheduleStartHour': '0900', 'scheduleEndHour': '1700', '__typename': 'DefaultSchedule'}]",Store
1023052305727,KIDZ STATION GREEN SEDAYU MALL,10006534,,1500627,,,,,,,1,Indonesia,20001388,DKI Jakarta,30001424,Kota Jakarta Barat,40001424,Cengkareng,"Jl. Taman Palem Lestari Blok B13 No.1, RT.7/RW.8, Cengkareng Bar., Kecamatan Cengkareng, Kota Jakarta Barat, DKI Jakarta 11730",11730,-6.139179,106.729385,1,1,"[{'scheduleStartHour': '0900', 'scheduleEndHour': '1700', '__typename': 'DefaultSchedule'}, {'scheduleStartHour': '0900', 'scheduleEndHour': '1700', '__typename': 'DefaultSchedule'}, {'scheduleStartHour': '0900', 'scheduleEndHour': '1700', '__typename': 'DefaultSchedule'}]",Store
1023052305726,KIDZ STATION TRANSPARK BINTARO,10006533,,1500627,,,,,,,1,Indonesia,20001432,Banten,30006153,Kota Tangerang Selatan,40006173,Pondok Aren,"MALL TRANSPARK BINTARO, LT. F1 UNIT 11 -12 - JL. PROF. DR. SATRIO NO.5, PD. JAYA, KEC. PD. AREN, KOTA TANGERANG SELATAN, BANTEN",15220,-6.277538897746178,106.71957068145275,1,1,"[{'scheduleStartHour': '0900', 'scheduleEndHour': '1700', '__typename': 'DefaultSchedule'}, {'scheduleStartHour': '0900', 'scheduleEndHour': '1700', '__typename': 'DefaultSchedule'}, {'scheduleStartHour': '0900', 'scheduleEndHour': '1700', '__typename': 'DefaultSchedule'}]",Store
1023052305725,KIDZ STATION CITRA RAYA TANGERANG,10006532,,1500627,,,,,,,1,Indonesia,20001432,Banten,30006154,Kab. Tangerang,40006186,Cikupa,"MALL CIPUTRA TANGERANG LT. LG C25-C27, Jl. Citra Raya Boulevard, Cikupa, Kec. Cikupa, Tangerang, Jawa Barat 15710",15710,-6.261068642883117,106.52494926005602,1,1,"[{'scheduleStartHour': '0900', 'scheduleEndHour': '1700', '__typename': 'DefaultSchedule'}, {'scheduleStartHour': '0900', 'scheduleEndHour': '1700', '__typename': 'DefaultSchedule'}, {'scheduleStartHour': '0900', 'scheduleEndHour': '1700', '__typename': 'DefaultSchedule'}]",Store
1023052305724,KIDZ STATION TENTREM SEMARANG,10006531,,1500627,,,,,,,1,Indonesia,20001538,Jawa Tengah,30005921,Kota Semarang,40005925,Semarang Tengah,"TENTREM MALL LT.2 UNIT.8, JL GAJAH MADA NO.123, PEKUNDEN, SEMARANG TENGAH, SEMARANG, JAWA TENGAH 50241",50241,-6.986717357327959,110.4218873826679,1,1,"[{'scheduleStartHour': '0900', 'scheduleEndHour': '1700', '__typename': 'DefaultSchedule'}, {'scheduleStartHour': '0900', 'scheduleEndHour': '1700', '__typename': 'DefaultSchedule'}, {'scheduleStartHour': '0900', 'scheduleEndHour': '1700', '__typename': 'DefaultSchedule'}]",Store
1023052305723,KIDZ STATION THE PARK SAWANGAN DEPOK,10006530,,1500627,,,,,,,1,Indonesia,20000422,Jawa Barat,30002206,Kota Depok,40002207,Bojongsari,"KIDS STATION MALL THE PARK SAWANGAN , LT 02 UNIT 0190 – JL CINANGKA RAYA SERUA BOJONGSARI KOTA DEPOK",16517,-6.37617417869843,106.74499467015266,1,1,"[{'scheduleStartHour': '0900', 'scheduleEndHour': '1700', '__typename': 'DefaultSchedule'}, {'scheduleStartHour': '0900', 'scheduleEndHour': '1700', '__typename': 'DefaultSchedule'}, {'scheduleStartHour': '0900', 'scheduleEndHour': '1700', '__typename': 'DefaultSchedule'}]",Store
1023052305722,KIDZ STATION PLAZA BLOK M JAKARTA,10006529,,1500627,,,,,,,1,Indonesia,20001388,DKI Jakarta,30001414,Kota Jakarta Selatan,40001422,Kebayoran Baru,"MALL  BLOK M PLAZA, LT. 4 UNIT 12 - 15, Jl. Bulungan No.78, RT.6/RW.6, Kramat Pela, Kby. Baru, Kota Jakarta Selatan, DKI Jakarta 12130",12130,-6.2441323019237425,106.79757220663824,1,1,"[{'scheduleStartHour': '0900', 'scheduleEndHour': '1700', '__typename': 'DefaultSchedule'}, {'scheduleStartHour': '0900', 'scheduleEndHour': '1700', '__typename': 'DefaultSchedule'}, {'scheduleStartHour': '0900', 'scheduleEndHour': '1700', '__typename': 'DefaultSchedule'}]",Store
1023052305721,KIDZ STATION RITA SUPERMALL PURWOKERTO,10006528,,1500627,,,,,,,1,Indonesia,20001538,Jawa Tengah,30005865,Kab. Banyumas,40005866,Purwokerto Timur,RITA SUPERMALL LT. 3 UNIT 3A - 3B JL. JEND SUDIRMAN NO.296 PURWOKERTO - JAWA TENGAH,53115,-7.425235168766144,109.23038647799817,1,1,"[{'scheduleStartHour': '0900', 'scheduleEndHour': '1700', '__typename': 'DefaultSchedule'}, {'scheduleStartHour': '0900', 'scheduleEndHour': '1700', '__typename': 'DefaultSchedule'}, {'scheduleStartHour': '0900', 'scheduleEndHour': '1700', '__typename': 'DefaultSchedule'}]",Store
1023052305720,KIDZ STATION SUNRISE MOJOKERTO,10006527,,1500627,,,,,,,1,Indonesia,20002351,Jawa Timur,30003916,Kota Mojokerto,40003917,Magersari,SUNRISE MALL LT. 1 UNIT FF31 JL. BENTENG PANCASILA NO. 45 MOJOKERTO 61314,61314,-7.471680958739643,112.44346967728428,1,1,"[{'scheduleStartHour': '0900', 'scheduleEndHour': '1700', '__typename': 'DefaultSchedule'}, {'scheduleStartHour': '0900', 'scheduleEndHour': '1700', '__typename': 'DefaultSchedule'}, {'scheduleStartHour': '0900', 'scheduleEndHour': '1700', '__typename': 'DefaultSchedule'}]",Store
1023052305719,KIDZ STATION DUTA MALL BANJARMASIN,10006526,,1500627,,,,,,,1,Indonesia,20000235,Kalimantan Selatan,30000417,Kota Banjarmasin,40000419,Banjarmasin Tengah,"DUTA MALL LT. 3 BLOK D NO. 1-2, Jl. Ahmad Yani KM.2, Melayu, Banjarmasin Tengah, Kota Banjarmasin, Provinsi Kalimantan Sel. 70232",70232,-3.323020211603007,114.60313584655523,1,1,"[{'scheduleStartHour': '0900', 'scheduleEndHour': '1700', '__typename': 'DefaultSchedule'}, {'scheduleStartHour': '0900', 'scheduleEndHour': '1700', '__typename': 'DefaultSchedule'}, {'scheduleStartHour': '0900', 'scheduleEndHour': '1700', '__typename': 'DefaultSchedule'}]",Store
1023052305718,KIDZ STATION PLAZA ATRIUM JAKARTA,10006525,,1500627,,,,,,,1,Indonesia,20001388,DKI Jakarta,30001406,Kota Jakarta Pusat,40001407,Senen,"ATRIUM PLAZA SENEN LT.3 U-39 ,JL.SENEN RAYA NO.135 RW.02,SENEN KEC.SENEN JAKARTA PUSAT 10410",10410,-6.176658295918873,106.8411910906434,1,1,"[{'scheduleStartHour': '0900', 'scheduleEndHour': '1700', '__typename': 'DefaultSchedule'}, {'scheduleStartHour': '0900', 'scheduleEndHour': '1700', '__typename': 'DefaultSchedule'}, {'scheduleStartHour': '0900', 'scheduleEndHour': '1700', '__typename': 'DefaultSchedule'}]",Store
1023052305717,KIDZ STATION BG JUNCTION SURABAYA,10006524,,1500627,,,,,,,1,Indonesia,20002351,Jawa Timur,30006122,Kota Surabaya,40006150,Bubutan,"BG JUNCTION LOBBY LEVEL A73 - A80, Jl. Bubutan No.1-7, Bubutan, Kota SBY, Jawa Timur 60174",60174,-7.255355573663542,112.73379307240248,1,1,"[{'scheduleStartHour': '0900', 'scheduleEndHour': '1700', '__typename': 'DefaultSchedule'}, {'scheduleStartHour': '0900', 'scheduleEndHour': '1700', '__typename': 'DefaultSchedule'}, {'scheduleStartHour': '0900', 'scheduleEndHour': '1700', '__typename': 'DefaultSchedule'}]",Store
1023052305716,KIDZ STATION AMBON CITY CENTER,10006523,,1500627,,,,,,,1,Indonesia,20000117,Maluku,30000230,Kota Ambon,40000232,Baguala,"MALL AMBON CITY CENTER LT,GF-EX-01-03A, Jl. Wolter Monginsidi, Passo, Baguala, Kota Ambon, Maluku 97232",97232,-3.6320885792197717,128.24955817312002,1,1,"[{'scheduleStartHour': '0900', 'scheduleEndHour': '1700', '__typename': 'DefaultSchedule'}, {'scheduleStartHour': '0900', 'scheduleEndHour': '1700', '__typename': 'DefaultSchedule'}, {'scheduleStartHour': '0900', 'scheduleEndHour': '1700', '__typename': 'DefaultSchedule'}]",Store
1023052305715,KIDZ STATION SLEMAN CITY HALL,10006522,,1500627,,,,,,,1,Indonesia,20002429,DI Yogyakarta,30002459,Kab. Sleman,40002475,Sleman,"KIDZ STATION SLEMAN CITY HALL LT. 1, SLEMAN CITY HALL JL MAGELANG KM 9.6 YOGYA 55511",55511,-7.72012,110.36189,1,1,"[{'scheduleStartHour': '0900', 'scheduleEndHour': '1700', '__typename': 'DefaultSchedule'}, {'scheduleStartHour': '0900', 'scheduleEndHour': '1700', '__typename': 'DefaultSchedule'}, {'scheduleStartHour': '0900', 'scheduleEndHour': '1700', '__typename': 'DefaultSchedule'}]",Store
1023052305714,KIDZ STATION BENCOOLEN MALL BENGKULU,10006521,,1500627,,,,,,,1,Indonesia,20000684,Bengkulu,30000801,Kota Bengkulu,40000806,Ratu Agung,"BENCOOLEN MALL, GF JL. PARIWISATA NO.1 LANTAI DSAR, UNIT RUKO BLOK A NO.12,15-17, BENGKULU 38223",38223,-3.8115516618182452,102.26845521479845,1,1,"[{'scheduleStartHour': '0900', 'scheduleEndHour': '1700', '__typename': 'DefaultSchedule'}, {'scheduleStartHour': '0900', 'scheduleEndHour': '1700', '__typename': 'DefaultSchedule'}, {'scheduleStartHour': '0900', 'scheduleEndHour': '1700', '__typename': 'DefaultSchedule'}]",Store
1023052305713,KIDZ STATION CILEGON CENTER MALL,10006520,,1500627,,,,,,,1,Indonesia,20001432,Banten,30001530,Kota Cilegon,40001531,Jombang,"CILEGON CENTER MALL LT.2 UNIT.11,12,13  JL. AHMAD YANI KM 3 KELURAHAN,SUKMAJAYA  KECAMATAN,JOMBANG-CILEGON BANTEN 42416",42416,-6.0246155872386336,106.06990579515696,1,1,"[{'scheduleStartHour': '0900', 'scheduleEndHour': '1700', '__typename': 'DefaultSchedule'}, {'scheduleStartHour': '0900', 'scheduleEndHour': '1700', '__typename': 'DefaultSchedule'}, {'scheduleStartHour': '0900', 'scheduleEndHour': '1700', '__typename': 'DefaultSchedule'}]",Store
1023052305712,KIDZ STATION LEVEL 21 BALI,10006519,,1500627,,,,,,,1,Indonesia,20002217,Bali,30002270,Kota Denpasar,40002273,Denpasar Barat,"LEVEL 21 MALL LT.2, Jalan Teuku Umar No.1, Dauh Puri Klod, Denpasar Barat, Kota Denpasar, Bali 80113",80114,-8.66981,115.21449,1,1,"[{'scheduleStartHour': '0900', 'scheduleEndHour': '1700', '__typename': 'DefaultSchedule'}, {'scheduleStartHour': '0900', 'scheduleEndHour': '1700', '__typename': 'DefaultSchedule'}, {'scheduleStartHour': '0900', 'scheduleEndHour': '1700', '__typename': 'DefaultSchedule'}]",Store
1023052305711,KIDZ STATION GRAND BATAM,10006518,,1500627,,,,,,,1,Indonesia,20000913,Kepulauan Riau,30000953,Kota Batam,40000957,Lubuk Baja,MALL GRAND BATAM LANTAI 1 UNIT 26 &27 JL  PEMBANGUNAN LUBUK BAJA,29432,1.1355307086510704,104.00781780481339,1,1,"[{'scheduleStartHour': '0900', 'scheduleEndHour': '1700', '__typename': 'DefaultSchedule'}, {'scheduleStartHour': '0900', 'scheduleEndHour': '1700', '__typename': 'DefaultSchedule'}, {'scheduleStartHour': '0900', 'scheduleEndHour': '1700', '__typename': 'DefaultSchedule'}]",Store
1023052305710,KIDZ STATION JAMBI TOWN SQUARE,10006517,,1500627,,,,,,,1,Indonesia,20001562,Jambi,30001692,Kota Jambi,40001695,Kota Baru,"MALL JAMBI TOWN SQUARE LT 1, Jl. Kapt. A. Bakaruddin, Simpang IV Sipin, Kec. Kota Baru, Kota Jambi, Jambi",36361,-1.6216016002640579,103.5870174318552,1,1,"[{'scheduleStartHour': '0900', 'scheduleEndHour': '1700', '__typename': 'DefaultSchedule'}, {'scheduleStartHour': '0900', 'scheduleEndHour': '1700', '__typename': 'DefaultSchedule'}, {'scheduleStartHour': '0900', 'scheduleEndHour': '1700', '__typename': 'DefaultSchedule'}]",Store
1023052305709,KIDZ STATION [MOI],10006516,,1500627,,,,,,,1,Indonesia,20001388,DKI Jakarta,30001400,Kota Jakarta Utara,40001405,Kelapa Gading,"Kidz Station Mall of Indonesia Jl. Boulevard Barat Raya Lt.2F  E2-E3, Jakarta Utara",14240,-6.1510540000,106.8920750000,1,1,"[{'scheduleStartHour': '0900', 'scheduleEndHour': '1700', '__typename': 'DefaultSchedule'}, {'scheduleStartHour': '0900', 'scheduleEndHour': '1700', '__typename': 'DefaultSchedule'}, {'scheduleStartHour': '0900', 'scheduleEndHour': '1700', '__typename': 'DefaultSchedule'}]",Store
1023052305708,KIDZ STATION ICON MALL GRESIK,10006515,,1500627,,,,,,,1,Indonesia,20002351,Jawa Timur,30006104,Kab. Gresik,40006104,Kebomas,"ICON MALL 1ST FLOOR UNIT 45, Jl. Dr. Wahidin S.H. No.788, Kembangan, Kebomas, Kabupaten Gresik",61124,-7.166526588629151,112.60188236832619,1,1,"[{'scheduleStartHour': '0900', 'scheduleEndHour': '1700', '__typename': 'DefaultSchedule'}, {'scheduleStartHour': '0900', 'scheduleEndHour': '1700', '__typename': 'DefaultSchedule'}, {'scheduleStartHour': '0900', 'scheduleEndHour': '1700', '__typename': 'DefaultSchedule'}]",Store
1023052305707,KIDZ STATION THE PARK SOLO,10006514,,1500627,,,,,,,1,Indonesia,20001538,Jawa Tengah,30005282,Kab. Sukoharjo,40005283,Grogol,"MALL THE PARK SOLO LT. SF UNIT 26-27,Jalan Ir. Soekarno Solo Baru,Madegondo, Grogol, Kabupaten Sukoharjo, Jawa Tengah 57552",57552,-7.598844462750815,110.81670112337211,1,1,"[{'scheduleStartHour': '0900', 'scheduleEndHour': '1700', '__typename': 'DefaultSchedule'}, {'scheduleStartHour': '0900', 'scheduleEndHour': '1700', '__typename': 'DefaultSchedule'}, {'scheduleStartHour': '0900', 'scheduleEndHour': '1700', '__typename': 'DefaultSchedule'}]",Store
1023052305706,KIDZ STATION PALEMBANG ICON,10006513,,1500627,,,,,,,1,Indonesia,20004548,Sumatera Selatan,30004763,Kota Palembang,40004774,Ilir Barat I,"PALEMBANG ICON MALL LT. 2, Jalan POM IX RT. 30 / RW. 09, Lorok Pakjo, Ilir Barat I, Lorok Pakjo, Ilir Bar. I, Kota Palembang, Sumatera Selatan 30137",30137,-2.9790483658531945,104.7454795986414,1,1,"[{'scheduleStartHour': '0900', 'scheduleEndHour': '1700', '__typename': 'DefaultSchedule'}, {'scheduleStartHour': '0900', 'scheduleEndHour': '1700', '__typename': 'DefaultSchedule'}, {'scheduleStartHour': '0900', 'scheduleEndHour': '1700', '__typename': 'DefaultSchedule'}]",Store
1023052305705,KIDZ STATION PLAZA BALIKPAPAN - NEW,10006512,,1500627,,,,,,,1,Indonesia,20000856,Kalimantan Timur,30000884,Kota Balikpapan,40000884,Balikpapan Kota,"PLAZA BALIKPAPAN LT. 1, Jl. Jenderal Sudirman No.1, Klandasan Ilir, Balikpapan Kota, Kota Balikpapan, Kalimantan Timur 76114",76114,-1.278871302539283,116.83876007795334,1,1,"[{'scheduleStartHour': '0900', 'scheduleEndHour': '1700', '__typename': 'DefaultSchedule'}, {'scheduleStartHour': '0900', 'scheduleEndHour': '1700', '__typename': 'DefaultSchedule'}, {'scheduleStartHour': '0900', 'scheduleEndHour': '1700', '__typename': 'DefaultSchedule'}]",Store
1023052305704,KIDZ STATION [SUNTER MALL],10006511,,1500627,,,,,,,1,Indonesia,20001388,DKI Jakarta,30001400,Kota Jakarta Utara,40001401,Tanjung Priok,"Jl. Danau Sunter Utara Blok G7 No.Kav.II, RT.14/RW.13, Sunter Agung, Tj. Priok",14350,-6.1379760000,106.8711290000,1,1,"[{'scheduleStartHour': '0900', 'scheduleEndHour': '1700', '__typename': 'DefaultSchedule'}, {'scheduleStartHour': '0900', 'scheduleEndHour': '1700', '__typename': 'DefaultSchedule'}, {'scheduleStartHour': '0900', 'scheduleEndHour': '1700', '__typename': 'DefaultSchedule'}]",Store
1023052305703,KIDZ STATION MEGAMALL MANADO,10006510,,1500627,,,,,,,1,Indonesia,20003081,Sulawesi Utara,30003237,Kota Manado,40003239,Wenang,"MEGA MALL MANADO LT.1 UNIT L19-21, Jl. Piere Tendean, Wenang Sel., Wenang, Kota Manado, Sulawesi Utara 95234",95111,1.4840286987713704,124.83458574861288,1,1,"[{'scheduleStartHour': '0900', 'scheduleEndHour': '1700', '__typename': 'DefaultSchedule'}, {'scheduleStartHour': '0900', 'scheduleEndHour': '1700', '__typename': 'DefaultSchedule'}, {'scheduleStartHour': '0900', 'scheduleEndHour': '1700', '__typename': 'DefaultSchedule'}]",Store
1023052305702,KIDZ STATION SOGO PVJ BANDUNG,10006509,,1500627,,,,,,,1,Indonesia,20000422,Jawa Barat,30000619,Kota Bandung,40000624,Sukajadi,"PARIS VAN JAVA Lt. GL, Jl. Sukajadi No. 131 - 139, Cipedes, Sukajadi, Kota Bandung, Jawa Barat 40162",40162,-6.88908359674365,107.59594358503819,1,1,"[{'scheduleStartHour': '0900', 'scheduleEndHour': '1700', '__typename': 'DefaultSchedule'}, {'scheduleStartHour': '0900', 'scheduleEndHour': '1700', '__typename': 'DefaultSchedule'}, {'scheduleStartHour': '0900', 'scheduleEndHour': '1700', '__typename': 'DefaultSchedule'}]",Store
1023052305701,KIDZ STATION MEGA MALL BATAM,10006508,,1500627,,,,,,,1,Indonesia,20000913,Kepulauan Riau,30000953,Kota Batam,40000964,Batam Kota,"MEGA MALL BATAM LANTAI GF FA NO 1, Jl. Engku Putri No.1, Tlk. Tering, Batam Kota, Kota Batam, Kepulauan Riau 29461",29461,1.129342720203326,104.05588198453188,1,1,"[{'scheduleStartHour': '0900', 'scheduleEndHour': '1700', '__typename': 'DefaultSchedule'}, {'scheduleStartHour': '0900', 'scheduleEndHour': '1700', '__typename': 'DefaultSchedule'}, {'scheduleStartHour': '0900', 'scheduleEndHour': '1700', '__typename': 'DefaultSchedule'}]",Store
1023052305700,KIDZ STATION [LOTTE AVENUE],10006507,,1500627,,,,,,,1,Indonesia,20001388,DKI Jakarta,30001414,Kota Jakarta Selatan,40001416,Setia Budi,"Lotte Shopping Avenue Lantai 3, Jl. Prof. DR. Satrio No.3-5, RT.18/RW.4, Kuningan, Karet Kuningan, S",12940,-6.2239500000,106.8232900000,1,1,"[{'scheduleStartHour': '0900', 'scheduleEndHour': '1700', '__typename': 'DefaultSchedule'}, {'scheduleStartHour': '0900', 'scheduleEndHour': '1700', '__typename': 'DefaultSchedule'}, {'scheduleStartHour': '0900', 'scheduleEndHour': '1700', '__typename': 'DefaultSchedule'}]",Store
1023052305698,KIDZ STATION SOGO PENTACITY BALIKAPAPAN,10006505,,1500627,,,,,,,1,Indonesia,20000856,Kalimantan Timur,30000884,Kota Balikpapan,40000889,Balikpapan Selatan,"Jl. Jenderal Sudirman No.47, Gn. Bahagia, Balikpapan Sel., Kota Balikpapan, Kalimantan Timur 76114",76114,-1.2741668699215585,116.85702860355377,1,1,"[{'scheduleStartHour': '0900', 'scheduleEndHour': '1700', '__typename': 'DefaultSchedule'}, {'scheduleStartHour': '0900', 'scheduleEndHour': '1700', '__typename': 'DefaultSchedule'}, {'scheduleStartHour': '0900', 'scheduleEndHour': '1700', '__typename': 'DefaultSchedule'}]",Store
1023052305697,KIDZ STATION BIG MALL SAMARINDA,10006504,,1500627,,,,,,,1,Indonesia,20000856,Kalimantan Timur,30005193,Kota Samarinda,40005197,Sungai Kunjang,"BIG MALL SAMARINDA LT. 1 UNIT 64-65 , JL. UNTUNG SUROPATI NO.8, LT.1 UNIT 64 SD 65, SAMARINDA 75216",75216,-0.5262741949378426,117.1159378811717,1,1,"[{'scheduleStartHour': '0900', 'scheduleEndHour': '1700', '__typename': 'DefaultSchedule'}, {'scheduleStartHour': '0900', 'scheduleEndHour': '1700', '__typename': 'DefaultSchedule'}, {'scheduleStartHour': '0900', 'scheduleEndHour': '1700', '__typename': 'DefaultSchedule'}]",Store
1023052305696,KIDZ STATION THAMRIN PLAZA MEDAN,10006503,,1500627,,,,,,,1,Indonesia,20003336,Sumatera Utara,30003751,Kota Medan,40003770,Medan Area,"THAMRIN PLAZA LT.5 JL. MH. THAMRIN NO. 75R, MALL THAMRIN PLAZA LT. 5 UNIT 30B",20214,3.58667181785592,98.69232024997473,1,1,"[{'scheduleStartHour': '0900', 'scheduleEndHour': '1700', '__typename': 'DefaultSchedule'}, {'scheduleStartHour': '0900', 'scheduleEndHour': '1700', '__typename': 'DefaultSchedule'}, {'scheduleStartHour': '0900', 'scheduleEndHour': '1700', '__typename': 'DefaultSchedule'}]",Store
1023052305695,KS [ROXY SQUARE JEMBER],10006502,,1500627,,,,,,,1,Indonesia,20002351,Jawa Timur,30002398,Kab. Jember,40002401,Kaliwates,"Roxy Square Jember, Jl. Hayam Wuruk No.50-58, Gerdu, Sempusari, Kaliwates, Kabupaten Jember, Jawa Ti",68131,-8.1855536000,113.6634390000,1,1,"[{'scheduleStartHour': '0900', 'scheduleEndHour': '1700', '__typename': 'DefaultSchedule'}, {'scheduleStartHour': '0900', 'scheduleEndHour': '1700', '__typename': 'DefaultSchedule'}, {'scheduleStartHour': '0900', 'scheduleEndHour': '1700', '__typename': 'DefaultSchedule'}]",Store
1023052305694,KIDZ STATION JOGJA CITY MALL,10006501,,1500627,,,,,,,1,Indonesia,20002429,DI Yogyakarta,30002459,Kab. Sleman,40002459,Mlati,"KIDZ STATION JOGJA CITY MALL LT. GF UNIT  43B-45, JOGJA CITY MALL JL.MAGELANG KM 6 NO.18 SLEMAN YOGYAKARTA 55285",55285,-7.75324238958147,110.360908806324,1,1,"[{'scheduleStartHour': '0900', 'scheduleEndHour': '1700', '__typename': 'DefaultSchedule'}, {'scheduleStartHour': '0900', 'scheduleEndHour': '1700', '__typename': 'DefaultSchedule'}, {'scheduleStartHour': '0900', 'scheduleEndHour': '1700', '__typename': 'DefaultSchedule'}]",Store
1023052305693,KIDZ STATION [MAG],10006500,,1500627,,,,,,,1,Indonesia,20001388,DKI Jakarta,30001400,Kota Jakarta Utara,40001405,Kelapa Gading,"Mall Artha Gading Lantai 1 Blok A1 No. 1, Jalan Artha Gading Selatan No.1, Kelapa Gading Barat, Kela",14240,-6.1466760000,106.8909020000,1,1,"[{'scheduleStartHour': '0900', 'scheduleEndHour': '1700', '__typename': 'DefaultSchedule'}, {'scheduleStartHour': '0900', 'scheduleEndHour': '1700', '__typename': 'DefaultSchedule'}, {'scheduleStartHour': '0900', 'scheduleEndHour': '1700', '__typename': 'DefaultSchedule'}]",Store
1023052305692,KIDZ STATION KUALA NAMU AIRPORT MEDAN,10006499,,1500627,,,,,,,1,Indonesia,20003336,Sumatera Utara,30003665,Kab. Deli Serdang,40003670,Beringin,"BANDARA KUALANAMU LT. 2, Jl. Bandara Kuala Namu, Beringin, Kabupaten Deli Serdang, Sumatera Utara 20553",20553,3.613059,98.856382,1,1,"[{'scheduleStartHour': '0900', 'scheduleEndHour': '1700', '__typename': 'DefaultSchedule'}, {'scheduleStartHour': '0900', 'scheduleEndHour': '1700', '__typename': 'DefaultSchedule'}, {'scheduleStartHour': '0900', 'scheduleEndHour': '1700', '__typename': 'DefaultSchedule'}]",Store
1023052305691,KIDZ STATION ARMADA TOWN SQUARE MAGELANG,10006498,,1500627,,,,,,,1,Indonesia,20001538,Jawa Tengah,30003772,Kab. Magelang,40003785,Mertoyudan,"KIDZ STATION ARMADA TOWN SQUARE LT. UG, JL. MAYJEND BAMBANG SOEGENG NO 1. MAGELANG - 56172",56172,-7.503895715483166,110.22478200495243,1,1,"[{'scheduleStartHour': '0900', 'scheduleEndHour': '1700', '__typename': 'DefaultSchedule'}, {'scheduleStartHour': '0900', 'scheduleEndHour': '1700', '__typename': 'DefaultSchedule'}, {'scheduleStartHour': '0900', 'scheduleEndHour': '1700', '__typename': 'DefaultSchedule'}]",Store
1023052305690,KIDZ STATION KEDIRI TOWN SQUARE,10006497,,1500627,,,,,,,1,Indonesia,20002351,Jawa Timur,30002718,Kota Kediri,40002744,Kediri Kota,"KEDIRI TOWN SQUARE LT. 1 UNIT SSAP02B JL. HASANUDIN NO. 2, BOLOWERTI - KEDIRI 64129",64129,-7.812909249405548,112.01578049306363,1,1,"[{'scheduleStartHour': '0900', 'scheduleEndHour': '1700', '__typename': 'DefaultSchedule'}, {'scheduleStartHour': '0900', 'scheduleEndHour': '1700', '__typename': 'DefaultSchedule'}, {'scheduleStartHour': '0900', 'scheduleEndHour': '1700', '__typename': 'DefaultSchedule'}]",Store
1023052305689,KIDZ STATION WILTOP TRADE CENTRE JAMBI,10006496,,1500627,,,,,,,1,Indonesia,20001562,Jambi,30001692,Kota Jambi,40001694,Pasar Jambi,"MALL WILTOP TRADE CENTER LT,1 MALL WTC BATANGHARI JAMBI LT.1 JL.SULTAN THAHA NO.17 JAMBI",36113,-1.588832514968522,103.61593473676294,1,1,"[{'scheduleStartHour': '0900', 'scheduleEndHour': '1700', '__typename': 'DefaultSchedule'}, {'scheduleStartHour': '0900', 'scheduleEndHour': '1700', '__typename': 'DefaultSchedule'}, {'scheduleStartHour': '0900', 'scheduleEndHour': '1700', '__typename': 'DefaultSchedule'}]",Store
1023052305688,KIDZ STATION BASKO GRAND MALL PADANG,10006495,,1500627,,,,,,,1,Indonesia,20004070,Sumatera Barat,30004238,Kota Padang,40004239,Padang Utara,"BASKO GRAND MALL LT. 1 UNIT 22 A,B,C ,JL. PROF.DR.HAMKA NO.2A PADANG",28171,-0.9022172566530107,100.35090006887913,1,1,"[{'scheduleStartHour': '0900', 'scheduleEndHour': '1700', '__typename': 'DefaultSchedule'}, {'scheduleStartHour': '0900', 'scheduleEndHour': '1700', '__typename': 'DefaultSchedule'}, {'scheduleStartHour': '0900', 'scheduleEndHour': '1700', '__typename': 'DefaultSchedule'}]",Store
1023052305687,KIDZ STATION CIPUTRA SERAYA PEKANBARU,10006494,,1500627,,,,,,,1,Indonesia,20004284,Riau,30004435,Kota Pekanbaru,40004441,Senapelan,"MALL CIPUTRA SERAYA LT 2 UNIT 40, Jl. Riau No.58, Kp. Baru, Senapelan, Kota Pekanbaru, Riau 28154",28154,0.5359843801654571,101.43061626702547,1,1,"[{'scheduleStartHour': '0900', 'scheduleEndHour': '1700', '__typename': 'DefaultSchedule'}, {'scheduleStartHour': '0900', 'scheduleEndHour': '1700', '__typename': 'DefaultSchedule'}, {'scheduleStartHour': '0900', 'scheduleEndHour': '1700', '__typename': 'DefaultSchedule'}]",Store
1023052305686,KIDZ STATION CIPUTRA WORLD SURABAYA,10006493,,1500627,,,,,,,1,Indonesia,20002351,Jawa Timur,30006122,Kota Surabaya,40006148,Dukuh Pakis,"CIPUTRA WORLD LT. 2 UNIT 9, Jl. Mayjen Sungkono No.89, Gn. Sari, Dukuh Pakis, Kota SBY, Jawa Timur 60224",60224,-7.29291,112.71904,1,1,"[{'scheduleStartHour': '0900', 'scheduleEndHour': '1700', '__typename': 'DefaultSchedule'}, {'scheduleStartHour': '0900', 'scheduleEndHour': '1700', '__typename': 'DefaultSchedule'}, {'scheduleStartHour': '0900', 'scheduleEndHour': '1700', '__typename': 'DefaultSchedule'}]",Store
1023052305685,KIDZ STATION BALIKPAPAN SUPERBLOCK,10006492,,1500627,,,,,,,1,Indonesia,20000856,Kalimantan Timur,30000884,Kota Balikpapan,40000889,Balikpapan Selatan,"E-WALK BALIKPAPAN SUPER BLOCK UG, Jl. Jenderal sudirman No. 47, Gunung Bahagia, Balikpapan, Kota Balikpapan, Kalimantan Timur, 76114",76114,-1.2729142525337065,116.85939498245716,1,1,"[{'scheduleStartHour': '0900', 'scheduleEndHour': '1700', '__typename': 'DefaultSchedule'}, {'scheduleStartHour': '0900', 'scheduleEndHour': '1700', '__typename': 'DefaultSchedule'}, {'scheduleStartHour': '0900', 'scheduleEndHour': '1700', '__typename': 'DefaultSchedule'}]",Store
1023052305684,KIDZ STATION [MALL TAMAN ANGGREK],10006491,,1500627,,,,,,,1,Indonesia,20001388,DKI Jakarta,30001424,Kota Jakarta Barat,40001431,Grogol Petamburan,"Mall Taman Anggrek Lt. 2 Unit C01, Jl. Letjen S. Parman No.28, RT.9/RW.1, Tomang, Kec. Grogol petamb",11440,-6.1772400000,106.7928800000,1,1,"[{'scheduleStartHour': '0900', 'scheduleEndHour': '1700', '__typename': 'DefaultSchedule'}, {'scheduleStartHour': '0900', 'scheduleEndHour': '1700', '__typename': 'DefaultSchedule'}, {'scheduleStartHour': '0900', 'scheduleEndHour': '1700', '__typename': 'DefaultSchedule'}]",Store
1023052305683,KIDZ STATION SOLO SQUARE,10006490,,1500627,,,,,,,1,Indonesia,20001538,Jawa Tengah,30005376,Kota Surakarta,40005378,Laweyan,"MALL SOLO SQUARE LT. 1, Jl. Brigjend Slamet Riyadi No.451-455, Pajang, Laweyan, Kota Surakarta, Jawa Tengah 57142",57142,-7.560486271631622,110.78881736844778,1,1,"[{'scheduleStartHour': '0900', 'scheduleEndHour': '1700', '__typename': 'DefaultSchedule'}, {'scheduleStartHour': '0900', 'scheduleEndHour': '1700', '__typename': 'DefaultSchedule'}, {'scheduleStartHour': '0900', 'scheduleEndHour': '1700', '__typename': 'DefaultSchedule'}]",Store
1023052305682,KIDZ STATION PLAZA AMBARUKMO YOGYAKARTA,10006489,,1500627,,,,,,,1,Indonesia,20002429,DI Yogyakarta,30002459,Kab. Sleman,40002461,Depok,"AMBARRUKMO PLAZA LT 2  UNIT B4-B9, Jl. Laksda Adisucipto No.80, Ambarukmo, Caturtunggal, Kec. Depok, Kabupaten Sleman, Daerah Istimewa Yogyakarta 55281",55281,-7.782580755785232,110.40109559999999,1,1,"[{'scheduleStartHour': '0900', 'scheduleEndHour': '1700', '__typename': 'DefaultSchedule'}, {'scheduleStartHour': '0900', 'scheduleEndHour': '1700', '__typename': 'DefaultSchedule'}, {'scheduleStartHour': '0900', 'scheduleEndHour': '1700', '__typename': 'DefaultSchedule'}]",Store
1023052305681,KIDZ STATION DISCOVERY MALL BALI,10006488,,1500627,,,,,,,1,Indonesia,20002217,Bali,30002217,Kab. Badung,40002220,Kuta,"DISCOVERY SHOPPING MALL MUG 2, Jl. Kartika Plaza, Kuta, Kabupaten Badung, Bali 80361",80361,-8.72860638724303,115.16813688016441,1,1,"[{'scheduleStartHour': '0900', 'scheduleEndHour': '1700', '__typename': 'DefaultSchedule'}, {'scheduleStartHour': '0900', 'scheduleEndHour': '1700', '__typename': 'DefaultSchedule'}, {'scheduleStartHour': '0900', 'scheduleEndHour': '1700', '__typename': 'DefaultSchedule'}]",Store
1023052305680,KIDZ STATION MAL SKA PEKANBARU,10006487,,1500627,,,,,,,1,Indonesia,20004284,Riau,30004435,Kota Pekanbaru,40004438,Tampan,"MALL SKA PEKANBARU LT.01 UNIT 35-42, Jalan Soekarno - Hatta, Delima, Tampan, Kota Pekanbaru, Riau 28294",28294,0.49959986744365664,101.41849886097131,1,1,"[{'scheduleStartHour': '0900', 'scheduleEndHour': '1700', '__typename': 'DefaultSchedule'}, {'scheduleStartHour': '0900', 'scheduleEndHour': '1700', '__typename': 'DefaultSchedule'}, {'scheduleStartHour': '0900', 'scheduleEndHour': '1700', '__typename': 'DefaultSchedule'}]",Store
1023052305679,KIDZ STATION MALIOBORO YOGYAKARTA,10006486,,1500627,,,,,,,1,Indonesia,20002429,DI Yogyakarta,30002493,Kota Yogyakarta,40002504,Danurejan,"PLAZA MALIOBORO  LT. 2 UNIT 15-16, Jl. MALIOBORO No. 52 - 58, Suryatmajan, Danurejan, Kota Yogyakarta, Daerah Istimewa Yogyakarta 55271",55271,-7.793106829250682,110.36620415747166,1,1,"[{'scheduleStartHour': '0900', 'scheduleEndHour': '1700', '__typename': 'DefaultSchedule'}, {'scheduleStartHour': '0900', 'scheduleEndHour': '1700', '__typename': 'DefaultSchedule'}, {'scheduleStartHour': '0900', 'scheduleEndHour': '1700', '__typename': 'DefaultSchedule'}]",Store
1023052305678,KIDZ STATION JAVA SUPERMAL SEMARANG,10006485,,1500627,,,,,,,1,Indonesia,20001538,Jawa Tengah,30005921,Kota Semarang,40005926,Semarang Selatan,"JAVA SUPERMALL LT. 2 UNIT.213, Jalan Letjen MT. Haryono No. 992-994, Lamper Kidul, Semarang Selatan, Jawa Tengah 50249",50249,-7.006341998455609,110.43229378759861,1,1,"[{'scheduleStartHour': '0900', 'scheduleEndHour': '1700', '__typename': 'DefaultSchedule'}, {'scheduleStartHour': '0900', 'scheduleEndHour': '1700', '__typename': 'DefaultSchedule'}, {'scheduleStartHour': '0900', 'scheduleEndHour': '1700', '__typename': 'DefaultSchedule'}]",Store
1023052305677,SMIGGLE SUMMARECON MALL SERPONG,10006484,,1500627,,,,,,,1,Indonesia,20001432,Banten,30006154,Kab. Tangerang,40006155,Kelapa Dua,"Summarecon Mall Serpong Lt.  1- Unit # 1F-1C 05,JL. BOULEVARD RAYA GADING SERPONG,Kota",15810,-6.2407879987749055,106.62837037066673,1,1,"[{'scheduleStartHour': '0900', 'scheduleEndHour': '1700', '__typename': 'DefaultSchedule'}, {'scheduleStartHour': '0900', 'scheduleEndHour': '1700', '__typename': 'DefaultSchedule'}, {'scheduleStartHour': '0900', 'scheduleEndHour': '1700', '__typename': 'DefaultSchedule'}]",Store
1023052305676,SMIGGLE LIPPO MALL PURI,10006483,,1500627,,,,,,,1,Indonesia,20001388,DKI Jakarta,30001424,Kota Jakarta Barat,40001428,Kembangan,Lippo Mall Puri Lantai UG JLn. Puri Indah Boulevard Kav.V Kel. Kembangan Selatan Kec. Kembangan Jakarta Barat,11610,-6.187578002058773,106.73932962303061,1,1,"[{'scheduleStartHour': '0900', 'scheduleEndHour': '1700', '__typename': 'DefaultSchedule'}, {'scheduleStartHour': '0900', 'scheduleEndHour': '1700', '__typename': 'DefaultSchedule'}, {'scheduleStartHour': '0900', 'scheduleEndHour': '1700', '__typename': 'DefaultSchedule'}]",Store
1023052305675,KIDZ STATION CENTRE POINT MALL ,10006482,,1500627,,,,,,,1,Indonesia,20003336,Sumatera Utara,30003751,Kota Medan,40003754,Medan Timur,"Jl. Jawa No.8, Gg. Buntu, Kec. Medan Tim., Kota Medan, Sumatera Utara 20231",20231,3.5917838082561375,98.68113203247464,1,1,"[{'scheduleStartHour': '0900', 'scheduleEndHour': '1700', '__typename': 'DefaultSchedule'}, {'scheduleStartHour': '0900', 'scheduleEndHour': '1700', '__typename': 'DefaultSchedule'}, {'scheduleStartHour': '0900', 'scheduleEndHour': '1700', '__typename': 'DefaultSchedule'}]",Store
1023052305674,KS CHANDRA BOEMI KEDATON,10006481,,1500627,,,,,,,1,Indonesia,20006232,Lampung,30006437,Kota Bandar Lampung,40006456,Kedaton,"JL. TEUKU UMAR - SULTAN AGUNG NO. 1, BANDAR LAMPUNG / LT.2 - KODE POS 35141",35141,-5.38205495550421,105.25950139401017,1,1,"[{'scheduleStartHour': '0900', 'scheduleEndHour': '1700', '__typename': 'DefaultSchedule'}, {'scheduleStartHour': '0900', 'scheduleEndHour': '1700', '__typename': 'DefaultSchedule'}, {'scheduleStartHour': '0900', 'scheduleEndHour': '1700', '__typename': 'DefaultSchedule'}]",Store
1023051905673,KIDZ STATION CIBINONG CITY MALL,10006480,,02129860090,,,,,,,1,Indonesia,20000422,Jawa Barat,30000810,Kab. Bogor,40000849,Cibinong,"CIBINONG CITY MALL LT.1 NO.1, Jl. Tegar Beriman No.1, Pakansari, Cibinong, Bogor, Jawa Barat 16915",16915,-6.48412,106.84231,1,1,"[{'scheduleStartHour': '0900', 'scheduleEndHour': '1700', '__typename': 'DefaultSchedule'}, {'scheduleStartHour': '0900', 'scheduleEndHour': '1700', '__typename': 'DefaultSchedule'}, {'scheduleStartHour': '0900', 'scheduleEndHour': '1700', '__typename': 'DefaultSchedule'}]",Store
1023051905672,KIDZ STATION [PARAGON CITY],10006479,,02486579148,,,,,,,1,Indonesia,20001538,Jawa Tengah,30005921,Kota Semarang,40005925,Semarang Tengah,"Mall Paragon City Lantai 2 Unit 24 - 26, Jl. Pemuda No.118, Sekayu, Semarang Tengah",50132,-6.9792690000,110.4157990000,1,1,"[{'scheduleStartHour': '0900', 'scheduleEndHour': '1700', '__typename': 'DefaultSchedule'}, {'scheduleStartHour': '0900', 'scheduleEndHour': '1700', '__typename': 'DefaultSchedule'}, {'scheduleStartHour': '0900', 'scheduleEndHour': '1700', '__typename': 'DefaultSchedule'}]",Store
1022112404863,PLANET SPORTS [AGILITY BEKASI],10005614,,087775045809,,,,,,,1,Indonesia,20000422,Jawa Barat,30000672,Kota Bekasi,40000676,Medan Satria,PT. Agility International Jl.Wahab Affan Komplek Pergudangan Metrofeed No 5-6,17132,-6.20729271692372,106.967908057933,1,1,"[{'scheduleStartHour': '0900', 'scheduleEndHour': '1700', '__typename': 'DefaultSchedule'}, {'scheduleStartHour': '0900', 'scheduleEndHour': '1700', '__typename': 'DefaultSchedule'}, {'scheduleStartHour': '0900', 'scheduleEndHour': '1700', '__typename': 'DefaultSchedule'}]",Store
1022112404862,KIDZ STATION [MKG 3],10005613,,622145846537,,,,,,,1,Indonesia,20001388,DKI Jakarta,30001400,Kota Jakarta Utara,40001405,Kelapa Gading,"Mall Kelapa Gading 3, Jl. Kelapa Gading Boulevard, Kelapa Gading",14240,-6.156287091741165,106.90881310814738,1,1,"[{'scheduleStartHour': '0900', 'scheduleEndHour': '1700', '__typename': 'DefaultSchedule'}, {'scheduleStartHour': '0900', 'scheduleEndHour': '1700', '__typename': 'DefaultSchedule'}, {'scheduleStartHour': '0900', 'scheduleEndHour': '1700', '__typename': 'DefaultSchedule'}]",Store
1022112404861,KIDZ STATION [PLAZA INDONESIA],10005612,,0213107223,,,,,,,1,Indonesia,20001388,DKI Jakarta,30001406,Kota Jakarta Pusat,40001409,Menteng,"Plaza Indonesia Lantai 3 Unit A39, Jl. M.H. Thamrin No.Kav. 28-30, RT.9/RW.5, Gondangdia, Kec. Mente",10350,-6.193925831453781,106.82221412658691,1,1,"[{'scheduleStartHour': '0900', 'scheduleEndHour': '1700', '__typename': 'DefaultSchedule'}, {'scheduleStartHour': '0900', 'scheduleEndHour': '1700', '__typename': 'DefaultSchedule'}, {'scheduleStartHour': '0900', 'scheduleEndHour': '1700', '__typename': 'DefaultSchedule'}]",Store
1022112404860,KIDZ STATION SUPERMAL BANDUNG,10005611,,217887889,,,,,,,1,Indonesia,20000422,Jawa Barat,30000619,Kota Bandung,40000635,Batununggal,"Jl. Jendral Gatot Subroto No.289, Cibangkong, Batununggal, Kota Bandung, Jawa Barat 40273",40273,-6.92524,107.636701,1,1,"[{'scheduleStartHour': '0900', 'scheduleEndHour': '1700', '__typename': 'DefaultSchedule'}, {'scheduleStartHour': '0900', 'scheduleEndHour': '1700', '__typename': 'DefaultSchedule'}, {'scheduleStartHour': '0900', 'scheduleEndHour': '1700', '__typename': 'DefaultSchedule'}]",Store
1022112404859,KIDZ STATION CIREBON SUPERBLOCK,10005610,,02318291389,,,,,,,1,Indonesia,20000422,Jawa Barat,30001383,Kota Cirebon,40001385,Kesambi,"Jl. DR. Cipto Mangunkusumo No.26, Pekiringan, Kesambi, Kota Cirebon, Jawa Barat 45131",45131,-6.71843,108.54934,1,1,"[{'scheduleStartHour': '0900', 'scheduleEndHour': '1700', '__typename': 'DefaultSchedule'}, {'scheduleStartHour': '0900', 'scheduleEndHour': '1700', '__typename': 'DefaultSchedule'}, {'scheduleStartHour': '0900', 'scheduleEndHour': '1700', '__typename': 'DefaultSchedule'}]",Store
1022112404858,KIDZ STATION [SENAYAN CITY],10005609,,02172781329,,,,,,,1,Indonesia,20001388,DKI Jakarta,30001406,Kota Jakarta Pusat,40001406,Tanah Abang,"Senayan City Lt. 4 Unit 4-56, Jl. Asia Afrika No.19, RT.1/RW.3, Gelora, Kecamatan Tanah Abang, Kota",10270,-6.227271225256352,106.79749878483388,1,1,"[{'scheduleStartHour': '0900', 'scheduleEndHour': '1700', '__typename': 'DefaultSchedule'}, {'scheduleStartHour': '0900', 'scheduleEndHour': '1700', '__typename': 'DefaultSchedule'}, {'scheduleStartHour': '0900', 'scheduleEndHour': '1700', '__typename': 'DefaultSchedule'}]",Store
1022112404857,KIDZ STATION [ALAM SUTERA],10005608,,622130449380,,,,,,,1,Indonesia,20001432,Banten,30006189,Kota Tangerang,40006190,Pinang (Penang),"Mall Alam Sutera Lantai 1 Unit 33,35,36, Jl. Jalur Sutera Barat Kav.16, Alam Sutera, Panunggangan Ti",15143,-6.2226770000,106.6526270000,1,1,"[{'scheduleStartHour': '0900', 'scheduleEndHour': '1700', '__typename': 'DefaultSchedule'}, {'scheduleStartHour': '0900', 'scheduleEndHour': '1700', '__typename': 'DefaultSchedule'}, {'scheduleStartHour': '0900', 'scheduleEndHour': '1700', '__typename': 'DefaultSchedule'}]",Store
1022112404856,KIDZ STATION PVJ BANDUNG,10005607,,217887889,,,,,,,1,Indonesia,20000422,Jawa Barat,30000619,Kota Bandung,40000624,Sukajadi,"Jl. Sukajadi No. 131 - 139, Cipedes, Sukajadi, Kota Bandung, Jawa Barat 40162",40162,-6.88928,107.59573,1,1,"[{'scheduleStartHour': '0900', 'scheduleEndHour': '1700', '__typename': 'DefaultSchedule'}, {'scheduleStartHour': '0900', 'scheduleEndHour': '1700', '__typename': 'DefaultSchedule'}, {'scheduleStartHour': '0900', 'scheduleEndHour': '1700', '__typename': 'DefaultSchedule'}]",Store
1022112404855,KIDZ STATION [SMK],10005606,,62215475049,,,,,,,1,Indonesia,20001432,Banten,30006154,Kab. Tangerang,40006155,Kelapa Dua,"Supermall Karawaci Lantai UG Unit 41-42, Jl. Boulevard Diponegoro No. 105, Bencongan, Kelapa Dua",15810,-6.2266100000,106.6061400000,1,1,"[{'scheduleStartHour': '0900', 'scheduleEndHour': '1700', '__typename': 'DefaultSchedule'}, {'scheduleStartHour': '0900', 'scheduleEndHour': '1700', '__typename': 'DefaultSchedule'}, {'scheduleStartHour': '0900', 'scheduleEndHour': '1700', '__typename': 'DefaultSchedule'}]",Store
1022112404854,KIDZ STATION 23 PASKAL BANDUNG,10005605,,217887889,,,,,,,1,Indonesia,20000422,Jawa Barat,30000619,Kota Bandung,40000630,Cicendo,"Paskal Hyper Square, Jl. Pasirkaliki No.25-27, Kebon Jeruk, Andir, Bandung City, West Java 40181",40181,-6.91541,107.59404,1,1,"[{'scheduleStartHour': '0900', 'scheduleEndHour': '1700', '__typename': 'DefaultSchedule'}, {'scheduleStartHour': '0900', 'scheduleEndHour': '1700', '__typename': 'DefaultSchedule'}, {'scheduleStartHour': '0900', 'scheduleEndHour': '1700', '__typename': 'DefaultSchedule'}]",Store
1022112404853,KIDZ STATION [LIPPO PLAZA],10005604,,1500627,,,,,,,1,Indonesia,20000422,Jawa Barat,30000850,Kota Bogor,40000852,Bogor Timur - Kota,"Lippo Plaza Lantai UG, Jl. Siliwangi No.123, Sukasari, Bogor Timur",16142,-6.6218200000,106.8175200000,1,1,"[{'scheduleStartHour': '0900', 'scheduleEndHour': '1700', '__typename': 'DefaultSchedule'}, {'scheduleStartHour': '0900', 'scheduleEndHour': '1700', '__typename': 'DefaultSchedule'}, {'scheduleStartHour': '0900', 'scheduleEndHour': '1700', '__typename': 'DefaultSchedule'}]",Store
1022112404852,KIDZ STATION GALAXY MAL SURABAYA,10005603,,217887889,,,,,,,1,Indonesia,20002351,Jawa Timur,30006122,Kota Surabaya,40006138,Mulyorejo,"Jalan Dharmahusada Indah Timur No.35-37, Mulyorejo, Kota SBY, Jawa Timur 60115",60115,-7.275066,112.782412,1,1,"[{'scheduleStartHour': '0900', 'scheduleEndHour': '1700', '__typename': 'DefaultSchedule'}, {'scheduleStartHour': '0900', 'scheduleEndHour': '1700', '__typename': 'DefaultSchedule'}, {'scheduleStartHour': '0900', 'scheduleEndHour': '1700', '__typename': 'DefaultSchedule'}]",Store
1022112404850,KIDZ STATION HARTONO MALL YOGYAKARTA,10005601,,217887889,,,,,,,1,Indonesia,20002429,DI Yogyakarta,30002459,Kab. Sleman,40002461,Depok,"Jalan Ringroad Utara, Sanggrahan, Kaliwaru Condong Catur, Sleman, Daerah Istimewa Yogyakarta 55281",55281,-7.75966,110.39849,1,1,"[{'scheduleStartHour': '0900', 'scheduleEndHour': '1700', '__typename': 'DefaultSchedule'}, {'scheduleStartHour': '0900', 'scheduleEndHour': '1700', '__typename': 'DefaultSchedule'}, {'scheduleStartHour': '0900', 'scheduleEndHour': '1700', '__typename': 'DefaultSchedule'}]",Store
1022112404849,KIDZ STATION [PP Mall],10005600,,622157973634,,,,,,,1,Indonesia,20001388,DKI Jakarta,30001414,Kota Jakarta Selatan,40001422,Kebayoran Baru,"Pacific Place Mall, Jl. Jendral Sudirman Kav 52-53, Jakarta 12190, Indonesia",11133,-6.2246887251789556,106.80963896121446,1,1,"[{'scheduleStartHour': '0900', 'scheduleEndHour': '1700', '__typename': 'DefaultSchedule'}, {'scheduleStartHour': '0900', 'scheduleEndHour': '1700', '__typename': 'DefaultSchedule'}, {'scheduleStartHour': '0900', 'scheduleEndHour': '1700', '__typename': 'DefaultSchedule'}]",Store
1022112404848,KIDZ STATION MAL PANAKKUKANG MAKASSAR,10005599,,217887889,,,,,,,1,Indonesia,20006724,Sulawesi Selatan,30006724,Kota Makassar,40006731,Panakkukang,"Jalan Boulevard, Masale, Panakkukang, Kota Makassar, Sulawesi Selatan 90231",90231,-5.15768,119.44631,1,1,"[{'scheduleStartHour': '0900', 'scheduleEndHour': '1700', '__typename': 'DefaultSchedule'}, {'scheduleStartHour': '0900', 'scheduleEndHour': '1700', '__typename': 'DefaultSchedule'}, {'scheduleStartHour': '0900', 'scheduleEndHour': '1700', '__typename': 'DefaultSchedule'}]",Store
1022112404847,KIDZ STATION [BINTARO XCHANGE],10005598,,62217458531,,,,,,,1,Indonesia,20001432,Banten,30006153,Kota Tangerang Selatan,40006173,Pondok Aren,"Bintaro Jaya Xchange Mall Lantai UG Unit 321 - 322 A, Boulevard Bintaro Jaya Blok O-2, Bintaro Jaya",15227,-6.285225625145086,106.7279109790055,1,1,"[{'scheduleStartHour': '0900', 'scheduleEndHour': '1700', '__typename': 'DefaultSchedule'}, {'scheduleStartHour': '0900', 'scheduleEndHour': '1700', '__typename': 'DefaultSchedule'}, {'scheduleStartHour': '0900', 'scheduleEndHour': '1700', '__typename': 'DefaultSchedule'}]",Store
1022112404846,KIDZ STATION [KOTA KASABLANKA],10005597,,02129465042,,,,,,,1,Indonesia,20001388,DKI Jakarta,30001414,Kota Jakarta Selatan,40001415,Tebet,"Kota Kasablanka Lt. 2 Unit 08, 36, Jl. Casablanca No.88, Menteng Dalam, Tebet, RT.14/RW.5, Menteng D",12870,-6.2232200000,106.8427700000,1,1,"[{'scheduleStartHour': '0900', 'scheduleEndHour': '1700', '__typename': 'DefaultSchedule'}, {'scheduleStartHour': '0900', 'scheduleEndHour': '1700', '__typename': 'DefaultSchedule'}, {'scheduleStartHour': '0900', 'scheduleEndHour': '1700', '__typename': 'DefaultSchedule'}]",Store
1022112404845,KIDZ STATION OLYMPIC MALANG,10005596,,217887889,,,,,,,1,Indonesia,20002351,Jawa Timur,30003998,Kota Malang,40004000,Klojen,"Jl. Kawi No. 20 - 24, Kauman, Klojen, Kota MALANG 65116",65116,-7.977212,112.62356,1,1,"[{'scheduleStartHour': '0900', 'scheduleEndHour': '1700', '__typename': 'DefaultSchedule'}, {'scheduleStartHour': '0900', 'scheduleEndHour': '1700', '__typename': 'DefaultSchedule'}, {'scheduleStartHour': '0900', 'scheduleEndHour': '1700', '__typename': 'DefaultSchedule'}]",Store
1022112404844,KIDZ STATION SOLO PARAGON,10005595,,217887889,,,,,,,1,Indonesia,20001538,Jawa Tengah,30005376,Kota Surakarta,40005380,Banjarsari,"Jl. Yosodipuro No.133, Mangkubumen, Kec. Banjarsari, Kota Surakarta, Jawa Tengah 57139",57139,-7.56251,110.80992,1,1,"[{'scheduleStartHour': '0900', 'scheduleEndHour': '1700', '__typename': 'DefaultSchedule'}, {'scheduleStartHour': '0900', 'scheduleEndHour': '1700', '__typename': 'DefaultSchedule'}, {'scheduleStartHour': '0900', 'scheduleEndHour': '1700', '__typename': 'DefaultSchedule'}]",Store
1022112404843,KIDZ STATION [GRANDMET MALL],10005594,,622129579973,,,,,,,1,Indonesia,20000422,Jawa Barat,30000672,Kota Bekasi,40000681,Bekasi Selatan,"Grand Metropolitan Lantai 2 Unit 18, Jl. KH. Noer Ali, Pekayon Jaya, Bekasi Selatan",17148,-6.248944576947076,106.9845199584961,1,1,"[{'scheduleStartHour': '0900', 'scheduleEndHour': '1700', '__typename': 'DefaultSchedule'}, {'scheduleStartHour': '0900', 'scheduleEndHour': '1700', '__typename': 'DefaultSchedule'}, {'scheduleStartHour': '0900', 'scheduleEndHour': '1700', '__typename': 'DefaultSchedule'}]",Store
1022112404842,KIDZ STATION PIM 3 JAKARTA,10005593,,217887889,,,,,,,1,Indonesia,20001388,DKI Jakarta,30001414,Kota Jakarta Selatan,40001421,Kebayoran Lama,"Jl. Metro Pondok Indah, RT.1/RW.16, Pd. Pinang, Kby. Lama, Kota Jakarta Selatan, DKI Jakarta 12310",12310,-6.263521491640623,106.78246620845323,1,1,"[{'scheduleStartHour': '0900', 'scheduleEndHour': '1700', '__typename': 'DefaultSchedule'}, {'scheduleStartHour': '0900', 'scheduleEndHour': '1700', '__typename': 'DefaultSchedule'}, {'scheduleStartHour': '0900', 'scheduleEndHour': '1700', '__typename': 'DefaultSchedule'}]",Store
1022112404841,KIDZ STATION TRANS STUDIO MAKASAR,10005592,,217887889,,,,,,,1,Indonesia,20006724,Sulawesi Selatan,30006724,Kota Makassar,40006728,Mamajang,"Trans Studio, Jl. HM. Daeng Patompo, Metro, Tj. Bunga, Kota Makassar, Sulawesi Selatan",90134,-5.16026,119.39398,1,1,"[{'scheduleStartHour': '0900', 'scheduleEndHour': '1700', '__typename': 'DefaultSchedule'}, {'scheduleStartHour': '0900', 'scheduleEndHour': '1700', '__typename': 'DefaultSchedule'}, {'scheduleStartHour': '0900', 'scheduleEndHour': '1700', '__typename': 'DefaultSchedule'}]",Store
1022112404840,KIDZ STATION SUPERMALL PAKUWON SURABAYA,10005591,,217887889,,,,,,,1,Indonesia,20002351,Jawa Timur,30006122,Kota Surabaya,40006124,Wiyung,"Supermal Pakuwon Indah, jalan puncak indah lontar No.2, Babatan, Wiyung, Kota SBY, Jawa Timur 60216",60216,-7.28742,112.67567,1,1,"[{'scheduleStartHour': '0900', 'scheduleEndHour': '1700', '__typename': 'DefaultSchedule'}, {'scheduleStartHour': '0900', 'scheduleEndHour': '1700', '__typename': 'DefaultSchedule'}, {'scheduleStartHour': '0900', 'scheduleEndHour': '1700', '__typename': 'DefaultSchedule'}]",Store
1022112404839,KIDZ STATION SUN PLAZA MEDAN,10005590,,0614501707,,,,,,,1,Indonesia,20003336,Sumatera Utara,30003751,Kota Medan,40003757,Medan Polonia,"Sun Plaza Lt. 2, Jl. KH. Zainul Arifin No.7, Madras Hulu, Kec. Medan Polonia",20152,3.58329936250402,98.6715587365169,1,1,"[{'scheduleStartHour': '0900', 'scheduleEndHour': '1700', '__typename': 'DefaultSchedule'}, {'scheduleStartHour': '0900', 'scheduleEndHour': '1700', '__typename': 'DefaultSchedule'}, {'scheduleStartHour': '0900', 'scheduleEndHour': '1700', '__typename': 'DefaultSchedule'}]",Store
1022112404838,KIDZ STATION [SUMMARECON MALL],10005589,,622154203588,,,,,,,1,Indonesia,20001432,Banten,30006154,Kab. Tangerang,40006155,Kelapa Dua,"Summarecon Mall Serpong 1 Lantai GF Unit 12-12 A, Jl. Boulevard Raya Gading Serpong, Kelapa Dua",15810,-6.2398690000,106.6280800000,1,1,"[{'scheduleStartHour': '0900', 'scheduleEndHour': '1700', '__typename': 'DefaultSchedule'}, {'scheduleStartHour': '0900', 'scheduleEndHour': '1700', '__typename': 'DefaultSchedule'}, {'scheduleStartHour': '0900', 'scheduleEndHour': '1700', '__typename': 'DefaultSchedule'}]",Store
1022112404837,KIDZ STATION [CENTRAL PARK],10005588,,02156985701,,,,,,,1,Indonesia,20001388,DKI Jakarta,30001424,Kota Jakarta Barat,40001431,Grogol Petamburan,"Central Park Mall Lt. 2 Unit 116 - 117, Jl. Letjen S. Parman No.28, RT.12/RW.6, Tj. Duren Sel., Kec.",11470,-6.176764796751366,106.7913098861374,1,1,"[{'scheduleStartHour': '0900', 'scheduleEndHour': '1700', '__typename': 'DefaultSchedule'}, {'scheduleStartHour': '0900', 'scheduleEndHour': '1700', '__typename': 'DefaultSchedule'}, {'scheduleStartHour': '0900', 'scheduleEndHour': '1700', '__typename': 'DefaultSchedule'}]",Store
1022112404836,KIDZ STATION [PURI INDAH MALL],10005587,,622122582765,,,,,,,1,Indonesia,20001388,DKI Jakarta,30001424,Kota Jakarta Barat,40001428,Kembangan,"Puri Indah Mall Lantai 1, Jl. Puri Agung, RT.1/RW.2, Kembangan Selatan, Kembangan",11610,-6.1878869708622775,106.73425144241125,1,1,"[{'scheduleStartHour': '0900', 'scheduleEndHour': '1700', '__typename': 'DefaultSchedule'}, {'scheduleStartHour': '0900', 'scheduleEndHour': '1700', '__typename': 'DefaultSchedule'}, {'scheduleStartHour': '0900', 'scheduleEndHour': '1700', '__typename': 'DefaultSchedule'}]",Store
1022112404835,KIDZ STATION DELI PARK MEDAN,10005586,,06162000733,,,,,,,1,Indonesia,20003336,Sumatera Utara,30003751,Kota Medan,40003769,Medan Barat,"Deli Park Lt. 3 26-27, Jl. Guru Patimpus Blok OPQ No.1, Kesawan, Medan Barat",20111,3.5945483983891,98.6732807254725,1,1,"[{'scheduleStartHour': '0900', 'scheduleEndHour': '1700', '__typename': 'DefaultSchedule'}, {'scheduleStartHour': '0900', 'scheduleEndHour': '1700', '__typename': 'DefaultSchedule'}, {'scheduleStartHour': '0900', 'scheduleEndHour': '1700', '__typename': 'DefaultSchedule'}]",Store
1022112404834,KIDZ STATION [PIK AVENUE],10005585,,081380404108,,,,,,,1,Indonesia,20001388,DKI Jakarta,30001400,Kota Jakarta Utara,40001402,Penjaringan,"PIK Avenue Lantai 2 Unit C8, Jl. Pantai Indah Kapuk, RT.6/RW.2, Kamal Muara, Penjaringan",14470,-6.1092453994101446,106.74087882041931,1,1,"[{'scheduleStartHour': '0900', 'scheduleEndHour': '1700', '__typename': 'DefaultSchedule'}, {'scheduleStartHour': '0900', 'scheduleEndHour': '1700', '__typename': 'DefaultSchedule'}, {'scheduleStartHour': '0900', 'scheduleEndHour': '1700', '__typename': 'DefaultSchedule'}]",Store
1022112404833,KIDZ STATION [METROPOLITAN],10005584,,622188861825,,,,,,,1,Indonesia,20000422,Jawa Barat,30000672,Kota Bekasi,40000681,Bekasi Selatan,"Metropolitan Mall 2 Lt. 1 , Jl. K.H Noer Ali No. 227 - 228 , Pekayon Jaya, Bekasi Sel., Kota Bks, Ja",17148,-6.248453982623078,106.9911128282547,1,1,"[{'scheduleStartHour': '0900', 'scheduleEndHour': '1700', '__typename': 'DefaultSchedule'}, {'scheduleStartHour': '0900', 'scheduleEndHour': '1700', '__typename': 'DefaultSchedule'}, {'scheduleStartHour': '0900', 'scheduleEndHour': '1700', '__typename': 'DefaultSchedule'}]",Store
1022112404831,KIDZ STATION [RESINDA PARK],10005582,,62678407648,,,,,,,1,Indonesia,20000422,Jawa Barat,30003051,Kab. Karawang,40003052,Telukjambe Timur,"Resinda Park Mall, Jl. Resinda Raya, Purwadana",41361,-6.3020800000,107.2785700000,1,1,"[{'scheduleStartHour': '0900', 'scheduleEndHour': '1700', '__typename': 'DefaultSchedule'}, {'scheduleStartHour': '0900', 'scheduleEndHour': '1700', '__typename': 'DefaultSchedule'}, {'scheduleStartHour': '0900', 'scheduleEndHour': '1700', '__typename': 'DefaultSchedule'}]",Store
1022112404830,KIDZ STATION [EMPORIUM PLUIT],10005581,,0216667663,,,,,,,1,Indonesia,20001388,DKI Jakarta,30001400,Kota Jakarta Utara,40001402,Penjaringan,"Emporium Mall Pluit Lt. UG ,Jl. Pluit Selatan Raya No.1, Kec. Penjaringan",14440,-6.127121507,106.7910258,1,1,"[{'scheduleStartHour': '0900', 'scheduleEndHour': '1700', '__typename': 'DefaultSchedule'}, {'scheduleStartHour': '0900', 'scheduleEndHour': '1700', '__typename': 'DefaultSchedule'}, {'scheduleStartHour': '0900', 'scheduleEndHour': '1700', '__typename': 'DefaultSchedule'}]",Store
1022112404829,KIDZ STATION [GANDARIA CITY],10005580,,02129007949,,,,,,,1,Indonesia,20001388,DKI Jakarta,30001414,Kota Jakarta Selatan,40001421,Kebayoran Lama,"Gandaria City Lt. 2 Unit 209, Jl. Sultan Iskandar Muda, RT.10/RW.6, Kby. Lama Utara, Kec. Kby. Lama,",12240,-6.2442040000,106.7835210000,1,1,"[{'scheduleStartHour': '0900', 'scheduleEndHour': '1700', '__typename': 'DefaultSchedule'}, {'scheduleStartHour': '0900', 'scheduleEndHour': '1700', '__typename': 'DefaultSchedule'}, {'scheduleStartHour': '0900', 'scheduleEndHour': '1700', '__typename': 'DefaultSchedule'}]",Store
1022112404828,KIDZ STATION GALERIA BALI,10005579,,217887889,,,,,,,1,Indonesia,20002217,Bali,30002217,Kab. Badung,40002220,Kuta,"Jl. By Pass Ngurah Rai, Kuta, Kabupaten Badung, Bali 80361",80361,-8.72287,115.18509,1,1,"[{'scheduleStartHour': '0900', 'scheduleEndHour': '1700', '__typename': 'DefaultSchedule'}, {'scheduleStartHour': '0900', 'scheduleEndHour': '1700', '__typename': 'DefaultSchedule'}, {'scheduleStartHour': '0900', 'scheduleEndHour': '1700', '__typename': 'DefaultSchedule'}]",Store
1022112404827,KIDZ STATION [AEON MALL BSD],10005578,,622129168288,,,,,,,1,Indonesia,20001432,Banten,30006154,Kab. Tangerang,40006165,Pagedangan,"AEON Mall Lt. 2, Jl. BSD Raya Utama, Pagedangan, Kec. Pagedangan, Tangerang, Banten",15157,-6.304524191024206,106.64391467900549,1,1,"[{'scheduleStartHour': '0900', 'scheduleEndHour': '1700', '__typename': 'DefaultSchedule'}, {'scheduleStartHour': '0900', 'scheduleEndHour': '1700', '__typename': 'DefaultSchedule'}, {'scheduleStartHour': '0900', 'scheduleEndHour': '1700', '__typename': 'DefaultSchedule'}]",Store
1022112404826,KIDZ STATION [GRAND GALAXY],10005577,,1500627,,,,,,,1,Indonesia,20000422,Jawa Barat,30000672,Kota Bekasi,40000681,Bekasi Selatan,"Jl. Grand Galaxy Boulevard No.1, Jaka Setia, Bekasi Selatan",17147,-6.2704900000,106.9718300000,1,1,"[{'scheduleStartHour': '0900', 'scheduleEndHour': '1700', '__typename': 'DefaultSchedule'}, {'scheduleStartHour': '0900', 'scheduleEndHour': '1700', '__typename': 'DefaultSchedule'}, {'scheduleStartHour': '0900', 'scheduleEndHour': '1700', '__typename': 'DefaultSchedule'}]",Store
1022112404825,KIDZ STATION [APPAREL SEIBU GI],10005576,,02123580134,,,,,,,1,Indonesia,20001388,DKI Jakarta,30001406,Kota Jakarta Pusat,40001406,Tanah Abang,"Grand Indonesia 2st Floor, Seibu Dept. Store, Jl. M.H. Thamrin No.1, Kb. Melati",10310,-6.195461762809972,106.81979209184647,1,1,"[{'scheduleStartHour': '0900', 'scheduleEndHour': '1700', '__typename': 'DefaultSchedule'}, {'scheduleStartHour': '0900', 'scheduleEndHour': '1700', '__typename': 'DefaultSchedule'}, {'scheduleStartHour': '0900', 'scheduleEndHour': '1700', '__typename': 'DefaultSchedule'}]",Store
1022112404823,KIDZ STATION [PEJATEN VILLAGE],10005574,,62217819254,,,,,,,1,Indonesia,20001388,DKI Jakarta,30001414,Kota Jakarta Selatan,40001418,Pasar Minggu,"Pejaten Village Lantai UG Unit 31, Jl. Warung Jati Barat No.39, RT.1/RW.5, Jati Padang, Ps. Minggu",12550,-6.2805000000,106.8290500000,1,1,"[{'scheduleStartHour': '0900', 'scheduleEndHour': '1700', '__typename': 'DefaultSchedule'}, {'scheduleStartHour': '0900', 'scheduleEndHour': '1700', '__typename': 'DefaultSchedule'}, {'scheduleStartHour': '0900', 'scheduleEndHour': '1700', '__typename': 'DefaultSchedule'}]",Store
1022112404822,KIDZ STATION MONOBRAND [AGILITY],10005573,,02129440952,,,,,,,1,Indonesia,20000422,Jawa Barat,30000672,Kota Bekasi,40000676,Medan Satria,PT. Agility International Jl.Wahab Affan Komplek Pergudangan Metrofeed No 5-6,17132,-6.20729271692372,106.967908057933,1,1,"[{'scheduleStartHour': '0900', 'scheduleEndHour': '1700', '__typename': 'DefaultSchedule'}, {'scheduleStartHour': '0900', 'scheduleEndHour': '1700', '__typename': 'DefaultSchedule'}, {'scheduleStartHour': '0900', 'scheduleEndHour': '1700', '__typename': 'DefaultSchedule'}]",Store
1022112404821,KIDZ STATION [SOGO KOTA KASABLANKA],10005572,,02129465055,,,,,,,1,Indonesia,20001388,DKI Jakarta,30001414,Kota Jakarta Selatan,40001415,Tebet,"Mall Kota Kasablanka, Lt. UG , Jl. Casablanca Raya Kav. 88, Menteng Dalam",12870,-6.222974441665575,106.84310853481293,1,1,"[{'scheduleStartHour': '0900', 'scheduleEndHour': '1700', '__typename': 'DefaultSchedule'}, {'scheduleStartHour': '0900', 'scheduleEndHour': '1700', '__typename': 'DefaultSchedule'}, {'scheduleStartHour': '0900', 'scheduleEndHour': '1700', '__typename': 'DefaultSchedule'}]",Store
1022112404820,KIDZ STATION TRANS STUDIO CIBUBUR,10005571,,217887889,,,,,,,1,Indonesia,20000422,Jawa Barat,30002206,Kota Depok,40002216,Cimanggis,"Jl. Alternatif Cibubur No.230, Harjamukti, Cimanggis, Kota Depok, Jawa Barat",16454,-6.37547,106.90270,1,1,"[{'scheduleStartHour': '0900', 'scheduleEndHour': '1700', '__typename': 'DefaultSchedule'}, {'scheduleStartHour': '0900', 'scheduleEndHour': '1700', '__typename': 'DefaultSchedule'}, {'scheduleStartHour': '0900', 'scheduleEndHour': '1700', '__typename': 'DefaultSchedule'}]",Store
1022112404819,KIDZ STATION LIPPO MALL KEMANG JAKARTA,10005570,,217887889,,,,,,,1,Indonesia,20001388,DKI Jakarta,30001414,Kota Jakarta Selatan,40001420,Mampang Prapatan,"Jl. Pangeran Antasari No.36, RT.12/RW.5, Kemang, Mampang Prpt., Kota Jakarta Selatan, DKI Jakarta 12150",12150,-6.26148,106.81260,1,1,"[{'scheduleStartHour': '0900', 'scheduleEndHour': '1700', '__typename': 'DefaultSchedule'}, {'scheduleStartHour': '0900', 'scheduleEndHour': '1700', '__typename': 'DefaultSchedule'}, {'scheduleStartHour': '0900', 'scheduleEndHour': '1700', '__typename': 'DefaultSchedule'}]",Store
1022112404817,KIDZ STATION MARGO CITY DEPOK,10005568,,1500627,,,,,,,1,Indonesia,20000422,Jawa Barat,30002206,Kota Depok,40002214,Beji,"Jl. Margonda Raya No.358, Kemiri Muka, Beji, Kota Depok, Jawa Barat 16423",16423,-6.37299,106.8348,1,1,"[{'scheduleStartHour': '0900', 'scheduleEndHour': '1700', '__typename': 'DefaultSchedule'}, {'scheduleStartHour': '0900', 'scheduleEndHour': '1700', '__typename': 'DefaultSchedule'}, {'scheduleStartHour': '0900', 'scheduleEndHour': '1700', '__typename': 'DefaultSchedule'}]",Store
1022112404816,KIDZ STATION AEON MALL TANJUNG BARAT,10005567,,1500627,,,,,,,1,Indonesia,20001388,DKI Jakarta,30001414,Kota Jakarta Selatan,40001423,Jagakarsa,"12, Jl. Raya Tj. Barat No.163, RT.12/RW.4, Tanjung Barat, Jagakarsa, South Jakarta City, Jakarta 12530",12530,-6.305474,106.840408,1,1,"[{'scheduleStartHour': '0900', 'scheduleEndHour': '1700', '__typename': 'DefaultSchedule'}, {'scheduleStartHour': '0900', 'scheduleEndHour': '1700', '__typename': 'DefaultSchedule'}, {'scheduleStartHour': '0900', 'scheduleEndHour': '1700', '__typename': 'DefaultSchedule'}]",Store
