store_name,store_contact,full_address,full_long_lat,longitude,latitude
SKECHERS SUPERMAL KARAWACI,021- 5469132,"JL. BOULEVARD DIPONEGORO 105 LIPO KARAWACI 1200,TANGERANG 15811","106.60706530,-6.22679678",106.60706530,-6.22679678
SKECHERS GANDARIA CITY,021-29007933,"JL. SULTAN ISKANDAR MUDA, KEBAYORAN LAMA , KEBAYORAN","106.78297380,-6.24455602",106.78297380,-6.24455602
SKECHERS PVJ BANDUNG,(022) 82063862,"JL. SUKAJADI NO.131-139, CIPEDES, KEC. SUKAJADI, KOTA BANDUNG, JAWA BARAT","107.59589240,-6.88738540",107.59589240,-6.88738540
SKECHERS CIPUTRA WORLD SBY,031-51200063,JL. MAYJEND SUNGKONO NO. 89 SURABAYA 60224,"112.71938660,-7.29238878",112.71938660,-7.29238878
SKECHERS TP3 SBY,031-5356455,JL. BASUKI RAHMAT NO. 8 - 12 SURABAYA 60261,"112.74019800,-7.26304047",112.74019800,-7.26304047
SKECHERS KOTA KASABLANKA,021-29465134,"JL. CASABLANCA RAYA, Mall kasablanka lt1.unit 166 KAV.88 TEBET JAKARTA SELATAN","106.84266700,-6.22311658",106.84266700,-6.22311658
SKECHERS ALAM SUTERA,021-30449318,"JL. JALUR SUTERA BARAT KAV.16, PANUNGGANGAN TIMUR, KEC. PINANG, KOTA TANGERANG, BANTEN 15143","106.65369400,-6.22223448",106.65369400,-6.22223448
SKECHERS PLUIT VILLAGE,021-66601750,JL PLUIT INDAH RAYA JAKARTA UTARA 14450,"106.78984350,-6.11598450",106.78984350,-6.11598450
SKECHERS THAMRIN PLAZA MEDAN,(061) 7348624,JL. MH. THAMRIN NO. 75R ,"98.69281504,3.58852423",98.69281504,3.58852423
SKECHERS MANADO TOWN SQUARE,0431- 8882936,"JL.PIERE TENDEAN BOULEVARD MANADO,KEL: SARIO UTARA,KEC: SARIO","124.83153980,1.47277547",124.83153980,1.47277547
SKECHERS CIHAMPELAS WALK,(022) 2061140,"JL. CIHAMPELAS NO.160, CIPAGANTI, KECAMATAN COBLONG, KOTA BANDUNG, JAWA BARAT ","107.60526020,-6.89292157",107.60526020,-6.89292157
SKECHERS PALEMBANG INDAH MALL,(0711) 7623269,"JL. LETKOL ISKANDAR, KEL. 24 ILIR KEC. BUKIT KECIL, PALEMBANG","104.75353110,-2.98400686",104.75353110,-2.98400686
SKECHERS EKALOKASARI BOGOR,0251-8363865 ,JL. SILIWANGI NO 123 LIPPO PLAZA LT.GF#29,"106.81828470,-6.62150778",106.81828470,-6.62150778
SKECHERS JOGJA CITY MALL,(0274) 5304287,JL.MAGELANG KM 6 NO.18 SLEMAN YOGYAKARTA 55284,"110.36073450,-7.75222812",110.36073450,-7.75222812
SKECHERS HARTONO MALL YOGYAKAR,(0274)2924134,"JL RAYA RINGROAD UTARA, SANGRAHAN, KALIWIRU, CONDONGCATUR,DEPOK,SLEMAN,YK ","110.39909450,-7.75966599",110.39909450,-7.75966599
SKECHERS GALERIA MALL YOGYAKAR,0274-584678,"JL.JEND SUDIRMAN NO 99-101, YOGYAKARTA","110.37918370,-7.78217886",110.37918370,-7.78217886
SKECHERS LIPPO PURI MALL,021-22582794,JL. PURI INDAH BOULEVARD KAV. IV JAKARTA BARAT 11610,"106.73902270,-6.18927987",106.73902270,-6.18927987
SKECHERS GRAND METROPOLITAN BE,( 021 ) 29579991,JL.KH NOER ALI BEKASI SELATAN 17148,"106.98478280,-6.24845433",106.98478280,-6.24845433
SKECHERS MAL SKA PEKANBARU,(0761) 864090,"JL.SOEKARNO HATTA, PEKANBARU-RIAU","101.41881590,0.50009555",101.41881590,0.50009555
SKECHERS THE PARK SOLO,0271-7891252 ,"JL.IR.SOEKARNO, MADEGONDO, SOLO BARU , SUKOHARJO, JAWA TENGAH","110.81700220,-7.59790238",110.81700220,-7.59790238
SKECHERS AEON MALL BSD CITY,021-22231774,"JL. BSD RAYA UTAMA, DESA PAGEDANGAN, KEC PAGEDANGAN, KAB. TANGERANG, BANTEN 15345","106.64498410,-6.30337621",106.64498410,-6.30337621
SKECHERS BIG MALL SAMARINDA,0541-4112633,"Jl. Untung Suropati No.8, Karang Asam Ulu, Kec. Sungai Kunjang, Kota Samarinda, Kalimantan Timur 75126","117.11609620,-0.52480817",117.11609620,-0.52480817
SKECHERS CIPUTRA SERAYA PEKANB,(0761) 868672,JL.RIAU NO 58 KAMPUNG BARU SENAPELAN PEKANBARU RIAU,"101.43105090,0.53617853",101.43105090,0.53617853
SKECHERS MALL PURI INDAH,021-5822518,"Jl. Puri Agung No.1, RT.1/RW.2, Kembangan Sel., Kec. Kembangan, Kota Jakarta Barat, Daerah Khusus Ibukota Jakarta 11610","106.73417230,-6.18777960",106.73417230,-6.18777960
SKECHERS E-WALK BALIKPAPAN,0542-8522 993 / (0542) 85,JL. JEND. SUDIRMAN NO. 47,"116.85729110,-1.27266753",116.85729110,-1.27266753
SKECHERS PENTACITY BALIKPAPAN,0542-8522458,"Komp. Balikpapan Superblock, Jl. Jenderal Sudirman No.47, Gn. Bahagia, Kecamatan Balikpapan Selatan, Kota Balikpapan, Kalimantan Timur 76114","116.85773100,-1.27400830",116.85773100,-1.27400830
SKECHERS MALIOBORO MALL,0274 - 557406,JL.MALIOBORO 52-58 YOGYAKARTA  55001,"110.36620860,-7.79275305",110.36620860,-7.79275305
SKECHERS KUTA SUCI BALI,0361-762727,JL.PANTAI KUTA 18-22 KUTA BADUNG BALI,"115.17262850,-8.72148071",115.17262850,-8.72148071
SKECHERS LEVEL 21 BALI,0361-3352217,JL.TEUKU UMAR NO.01 DAUH PURI KLOD DENPASAR BALI,"0.00000000,0.00000000",0.00000000,0.00000000
SKECHERS PASKAL BANDUNG,(022) 20568177  ,"JL. PASIR KALIKI NO.25-27, KB. JERUK, KEC. ANDIR, KOTA BANDUNG, JAWA BARAT ","107.59623420,-6.91419023",107.59623420,-6.91419023
SKECHERS PASKAL BANDUNG,(022) 20568177  ,"JL. PASIR KALIKI NO.25-27, KB. JERUK, KEC. ANDIR, KOTA BANDUNG, JAWA BARAT ","107.59623420,-6.91419023",107.59623420,-6.91419023
SKECHERS SUPERMAL PAKUWON,031-99148954,JL. PUNCAK INDAH LONTAR NO. 2 SURABAYA 60123,"112.67539870,-7.28869169",112.67539870,-7.28869169
SKECHERS PLAZA AMBARUKMO YOGYAKARTA ,(0274)4331170,JL. LAKSDA ADISUCIPTO YOGYAKARTA ,"110.40124620,-7.78185746",110.40124620,-7.78185746
SKECHERS A.YANI PONTIANAK,0561-763 498 ,"Jl. Jenderal Ahmad Yani No.4, Parit Tokaya, Kec. Pontianak Sel., Kota Pontianak, Kalimantan Barat 78113","109.34598380,-0.05016505",109.34598380,-0.05016505
SKECHERS MALL PANAKKUKANG,0411-4820492,"JL.BOULEVARD KOMP PANAKKUKANG MAS KEL:MALASE,KEC:PANAKUKANG","119.44671020,-5.15768944",119.44671020,-5.15768944
SKECHERS  SUMMARECON BEKASI,( 021 ) 29572590,JL.BOULEVARD AHMAD YANI BEKASI UTARA 17143,"107.00109900,-6.22584844",107.00109900,-6.22584844
SKECHERS MALL RATU INDAH,0411-834399,"JL.DR.SAM RATULANGI ,KEL:MAMAJANG LUANG ,KEC: MAMAJANG","119.41742840,-5.15315804",119.41742840,-5.15315804
SKECHERS JAMBI TOWN SQUARE,(0741) 3073880,JL.KAPTEN AHMAD BAKARRUDIN NO.88 JAMTOS SIPIN JAMBI,"103.62044680,-1.58699729",103.62044680,-1.58699729
SKECHERS BEENCOLEN MALL ,(0736) 5611023,JALAN PARIWISATA NO.1 LANTAI DASAR UNIT BLOK B NO.5-8 BENGKULU,"102.26899620,-3.81058803",102.26899620,-3.81058803
SKECHERS ICON MALL GRESIK,,JL. DR. WAHIDIN S.H. NO. 788 GRESIK 61124,"112.60233930,-7.16595405",112.60233930,-7.16595405
SKECHERS PLAZA SENAYAN,021-5725622,JL.ASIA AFRIKA PLAZA SENAYAN NO.8 (3 RD FLOOR) UNIT 3,"106.79930360,-6.22450660",106.79930360,-6.22450660
SKECHERS BANDUNG INDAH PLAZA,(022) 4234257,"JL MERDEKA NO 56 LT 1 UNIT 3, CITARUM, BANDUNG WETAN","107.61065390,-6.90844286",107.61065390,-6.90844286
SKECHERS KEMANG VILLAGE,021-29056829,"JL. PANGERAN ANTASARI NO.36, BANGKA, MAMPANG PRAPATAN","106.71860250,-6.12727079",106.71860250,-6.12727079
SKECHERS CILEGON CENTER MALL,0254-7817513,JL.AHMAD YANI KM 3.KEL SUKMA JAYA KEC:JOMBANG  CILEGON BANTEN,"106.06998820,-6.02334753",106.06998820,-6.02334753
SKECHERS CIBUBUR JUNCTION,021-87756433,JL. JAMBORE NO. 1 CIBUBUR ( UG FL ) NO.33 JAKARTA TIMUR - 13720,"106.89423620,-6.36947974",106.89423620,-6.36947974
SKECHERS GRAND INDONESIA,021-23580367,"WEST MALL GRAND INDONESIA SHOPPING TOWN SKY BRIDGE LT 3, SB-312A-12B-15 JL.MH.THAMRIN NO.1","106.82049160,-6.19492117",106.82049160,-6.19492117
SKECHERS TRANS STUDIO MAKASSAR,0411-3604180,"JL.HM.DG PATOMPO- METRO TANJUNG BUNGA, KEC : TAMALATEA","119.47542460,-5.14463138",119.47542460,-5.14463138
SKECHERS MALANG TOWN SQUARE,0341-5085397,JL. VETERAN NO. 2 MALANG 65111,"112.61897070,-7.95668308",112.61897070,-7.95668308
SKECHERS BEACHWALK BALI,0361-8464918,JL.PANTAI KUTA BADUNG BALI,"115.16921060,-8.71900769",115.16921060,-8.71900769
SKECHERS TRANS STUDIO CIBUBUR,021-39715523,"JL. ALTERNATIF CIBUBUR, NO. 230, HARJAMUKTI","106.90266260,-6.37482870",106.90266260,-6.37482870
SKECHERS CENTRAL PARK,021-29200081,JL.LETJEN S.PARMAN KAV.21 JAKARTA 11470,"106.79069650,-6.17784724",106.79069650,-6.17784724
SKECHERS OUTLET RAMAYANA JATINEGARA,(021)21013052,JALAN MATRAMAN RAYA NO. 173-175 13110,"106.86357550,-6.21387836",106.86357550,-6.21387836
SKECHERS MEDAN CENTRE POINT,(061) 80510129,JL. TIMOR BLOK H1,"98.69548384,3.58775096",98.69548384,3.58775096
SKECHERS GRAND MALL BATAM,(0778) 4888928,JLN PEMBANGUNAN LUBUK BAJA MALL GRAND BATAM LANTAI GF UNIT 24,"104.00753850,1.13663555",104.00753850,1.13663555
SKECHERS RAMAYANA PONDOK GEDE,( 021 ) 85511401,JL. RAYA PONDOK GEDE 17411,"106.91331490,-6.28010901",106.91331490,-6.28010901
SKECHERS DP MALL SEMARANG,024-86404284,JL PEMUDA NO 150 SEMARANG,"110.41227900,-6.98302350",110.41227900,-6.98302350
SKECHERS DELI PARK MEDAN,(061) 62000738,JL. PUTRI HIJAU / GURU PATIMPUS BLOK OPQ NO. 1 MEDAN 20111,"98.67969098,3.59597418",98.67969098,3.59597418
SKECHERS GALAXY SURABAYA,031-5915257,JL. DHARMAHUSADA INDAH TIMUR NO. 35 - 37 SURABAYA 60115,"112.78229200,-7.27511791",112.78229200,-7.27511791
SKECHERS RAMAYANA MAKASSAR TOWN SQUARE,0411-587731,"JL.PERINTIS KEMERDEKAAN KM.7 TAMALANREA JAYA,KEC: TAMALANREA","119.47548900,-5.14453521",119.47548900,-5.14453521
SKECHERS RAMAYANA JAMBI,(0741) 7837081,"JL.SULTAN TAHA KOMPLEK BATANG HARI JAMBI RAMAYANA WILTOP TRADE CENTER  LT,2","103.61585000,-1.58877666",103.61585000,-1.58877666
SKECHERS SLEMAN CITY HALL,0274 – 2884352,"JL.MAGELANG KM 9.6 NO.18 DENGGUNG TRIDADI, SLEMAN, YOGYAKARTA 55511","110.36125460,-7.72010337",110.36125460,-7.72010337
SKECHERS GREEN PRAMUKA,021-4206352,"MALL GREEN PRAMUKA SQUARE, LANTAI UG,  JL A. YANI KAV 49, RT.13/RW.09 RAWASARI, CEMPAKA PUTIH, JAKARTA PUSAT, DAERAH KHUSUS IBUKOTA. 10570","106.87360850,-6.18387883",106.87360850,-6.18387883
SKECHERS EMPORIUM PLUIT,021 - 66676511,"JL. PLUIT RAYA SELATAN, JAKARTA UTARA 14440 ,LANTAI G - 26,27,28","106.79106430,-6.12698720",106.79106430,-6.12698720
SKECHERS SUZUYA MALL BANDA ACEH,(0651) 8082262,JL. TEUKU UMAR (EX TERMINAL LAMA) GAMPONG LANTEUMEN TIMUR,"95.31243586,5.61025692",95.31243586,5.61025692
SKECHERS MALL OF INDONESIA,021 - 22459379,"MALL OF INDONESIA LT.GF UNIT D24-25 , JL BOULEVARD BARAT RAYA RT.018/RW.008 KELAPA GADING BARAT KEC.KELAPA GADING, JAKARTA UTARA","106.89128990,-6.15121327",106.89128990,-6.15121327
SKECHERS GRAND GALAXY PARK BEKASI,( 021 ) 82758700,"JL BOULEVARD GRAND GALAXY NO 1, BEKASI SELATAN 17147","106.97426330,-6.27587449",106.97426330,-6.27587449
SKECHERS HARTONO MALL SOLO,0271-5723412,"JL IR. SOEKARNO, MADEGONDO, GROGOL, SUKOHARJO, JAWA TENGAH","110.39899790,-7.75960752",110.39899790,-7.75960752
SKECHERS OLYMPIC GARDEN MALANG,0341-363439,JL. KAWI NO. 24 MALANG 65116,"112.62339390,-7.97645449",112.62339390,-7.97645449
SKECHERS PEJATEN VILLAGE,021-78849216,"JL. WARUNG JATI BARAT NO. 39 JATI PADANG, PASAR MINGGU","106.82771080,-6.27422601",106.82771080,-6.27422601
SKECHERS RITA MALL PURWOKERTO,0281 - 7775323,JL. JEND SUDIRMAN NO.296 PURWOKERTO - JAWA TENGAH,"109.23023900,-7.42510545",109.23023900,-7.42510545
SKECHERS AMBON CITY CENTER,,JL.WOLTER MONGINSIDI DESA /KELURAHAN PASSO KECAMATAN BAGUALA,"128.24925730,-3.63179641",128.24925730,-3.63179641
SKECHERS DIANA SHOPPING CENTER TIMIKA,,"JL.BUDI UTOMO NO.8  ,KEC:MIMIKA BARU","136.88940530,-4.53643374",136.88940530,-4.53643374
SKECHERS KARAWANG CENTRAL PLAZA,( 0267 ) 8411066,"JL. GALUH MAS RAYA, KARAWANG BARAT 41361","106.97426330,-6.27587449",106.97426330,-6.27587449
SKECHERS MEGAMALL BATAM,(0778) 4161589,"JL ENGKU PUTRI DEPAN TERMINAL FERRY, MEGA MALL BATAM CENTER , LT GROUND BLOK G UNIT 237A","104.05541230,1.12975258",104.05541230,1.12975258
SKECHERS SUNTER MALL,021-22656094,"SUNTER MALL UNIT 21 & 22/ LT.2 JL.DANAU SUNTER UTARA,BLOK G7 KAV.II SUNTER AGUNG- TANJUNG PRIOK , JAKARTA UTARA","106.87005100,-6.12825362",106.87005100,-6.12825362
SKECHERS MALL KELAPA GADING,021-4533432,"MALL KELAPA GADING 2 LT GROUND.UNIT 153A , JL. BOULEVARD RAYA BLOK M 13 , RT.13/RW.18 KELAPA GADING,KOTA JAKARTA UTARA ,DKI JAKARTA 14240","106.90648580,-6.15318615",106.90648580,-6.15318615
SKECHERS BG JUNCTION SURABAYA,031 - 99249932,JL. BUBUTAN NO. 1 – 7 SURABAYA 60174,"112.73677300,-7.25303964",112.73677300,-7.25303964
SKECHERS LOTTE SHOPPING AVENUE,021-2529247,Jl. Prof Dr Satrio lt. GF kav 3&5 no. 130 KARET KUNINGAN SETIABUDI JAKARTA SELATAN,"106.82298190,-6.22396816",106.82298190,-6.22396816
SKECHERS SUNRISE MOJOKERTO MALL,0321-5286720,JL. BENTENG PANCASILA NO. 45 MOJOKERTO 61314,"112.44472600,-7.47117930",112.44472600,-7.47117930
SKECHERS DUTA MALL BANJARMASIN,0511-6782759,JL. AHMAD YANI KM. 2,"114.60026300,-3.32374037",114.60026300,-3.32374037
SKECHERS MALUKU CITY MALL,,"JL.JENDERAL SUDIRMAN NO.1 TANTUI ,MALUKU CITY MALL BLOK H-18,KEL:HATIVE KECIL,KEC:SIRIMAU","128.19904080,-3.67186259",128.19904080,-3.67186259
SKECHERS GRAGE CITY MALL CIREBON,(0231) 8332606,"JL. JENDERAL AHMAD YANI, PEGAMBIRAN, KEC. LEMAHWUNGKUK, KOTA CIREBON, JAWA BARAT","108.57087830,-6.73994950",108.57087830,-6.73994950
SKECHERS Q MALL BANJARBARU,0511-4770295,"JL. AHMAD YANI KM. 36,8","114.84885740,-3.43889189",114.84885740,-3.43889189
SKECHERS TRANS STUDIO BANDUNG,022-86012096,"JL. JEND. GATOT SUBROTO NO. 289A, CIBANGKONG, BATU NUNGGAL, BANDUNG","107.63690150,-6.92499386",107.63690150,-6.92499386
SKECHERS CITRA RAYA TANGERANG,,JL.CITRA RAYA BOULEVARD NO. 01 CIAKAR CITRA RAYA TANGERANG,"106.52451550,-6.23206586",106.52451550,-6.23206586
SKECHERS THE PARK SAWANGAN,,JL. RAYA PARUNG CIPUTAT RT 06 / RW 04 NO. 1 SERUA BOJONG SARI,"106.74493530,-6.37615495",106.74493530,-6.37615495
SKECHERS CIBINONG CITY MALL,021-29860149,"Jl. Tegar Beriman No.1, Pakansari, Cibinong, Bogor, West Java 16915","106.84230160,-6.48402430",106.84230160,-6.48402430
SKECHERS  LIVING WORLD PEKANBARU RIAU,(0761) 6706079,"JL.SOEKARNO HATTA,TANGKERANG BARAT MARPOYAN DAMAI ,PEKANBARU RIAU","101.42080940,0.50008251",101.42080940,0.50008251
SKECHERS PLAZA AMBARUKMO YOGYAKARTA ,(0274)4331170,JL. LAKSDA ADISUCIPTO YOGYAKARTA ,"110.40124620,-7.78185746",110.40124620,-7.78185746
SKECHERS A.YANI PONTIANAK,0561-763 498 ,"Jl. Jenderal Ahmad Yani No.4, Parit Tokaya, Kec. Pontianak Sel., Kota Pontianak, Kalimantan Barat 78113","109.34598380,-0.05016505",109.34598380,-0.05016505
SKECHERS MALL PANAKKUKANG,0411-4820492,"JL.BOULEVARD KOMP PANAKKUKANG MAS KEL:MALASE,KEC:PANAKUKANG","119.44671020,-5.15768944",119.44671020,-5.15768944
SKECHERS  SUMMARECON BEKASI,( 021 ) 29572590,JL.BOULEVARD AHMAD YANI BEKASI UTARA 17143,"107.00109900,-6.22584844",107.00109900,-6.22584844
SKECHERS TAMAN ANGGREK MALL,,"JL. S. PARMAN KAV. 21, SLIPI JAKARTA 11470 ","106.79061880,-6.17778015",106.79061880,-6.17778015
SKECHERS SOLO SQUARE,0271-731973,JL SLAMET RIYADI NO 451 - 455 SURAKARTA 57145,"110.78837340,-7.55897045",110.78837340,-7.55897045
SKECHERS RESINDA PARK KARAWANG,( 0267 ) 8407595,"JL.INTERCHANGE KARAWANG BARAT,TELUK JAMBE TIMUR,PURWADANA KABUPATEN KARAWANG BEKASI 41361","107.27777030,-6.30096160",107.27777030,-6.30096160
SKECHERS SUMMARECON SERPONG,021 - 54203431,"JL. BOULEVARD RAYA GADING SERPONG, KELAPA DUA, KEC. KELAPA DUA, TANGERANG, BANTEN 15810","106.62834030,-6.23704802",106.62834030,-6.23704802
 SKECHERS FESTIVAL CITYLINK,(022) 6128728 ,"JL. PETA NO.241, SUKA ASIH, KEC. BOJONGLOA KALER, KOTA BANDUNG, JAWA BARAT ","107.58679080,-6.92853705",107.58679080,-6.92853705
SKECHERS STAR SQUARE MANADO,0431 - 6002027,"JL.RW MONGINSIDI I KOTA MANADO KOMP.BAHU MALL MANADO SULAWESI UTARA,KEL:BAHU,KEC:MALALAYANG","124.82438880,1.46862403",124.82438880,1.46862403
SKECHERS PASIFIC PLACE,021 57973118,JL. JEND. SUDIRMAN NO KAV 52-53 ,"106.80849870,-6.22603694",106.80849870,-6.22603694
SKECHERS MANHATTAN SQUARE MEDAN,(061) 80867013,"JL. GATOT SUBROTO, PETISAH TENGAH, MEDAN PETISAH NO. 217 ","98.62654834,3.59388252",98.62654834,3.59388252
SKECHERS NIPAH MALL MAKASSAR,0411-3663377 EXT: 301,JL.URIP SUMOHARJO EX.TERMINAL PANAIKANG KEL.PANAIKANG KEC.PANAKUKANG,"119.42038810,-5.18652419",119.42038810,-5.18652419
SKECHERS PONDOK INDAH MALL 1,021-75903385,"JL. METRO PONDOK INDAH, PONDOK PINANG, KEBAYORAN LAMA","106.78459170,-6.26491396",106.78459170,-6.26491396
SKECHERS LOMBOK EPICENTRUM,0370-6172228,"JL.SRIWIJAYA NO.333 KEL.PUNIA KEC.MATARAM TIMUR,NTB","116.10466160,-8.59296850",116.10466160,-8.59296850
