storeCode,storeName,orgCode,imageLink,storePhone,storeMobile,managerUserCode,taxCode,bankName,bankAccount,bankAccountName,countryCode,countryName,stateCode,stateName,cityCode,cityName,districtCode,districtName,address1,zipCode,latitude,longitude,openStatus,status,defaultScheduleList,__typename
1024112907558,SPORTS STATION RUKO MANADO,10008529,,6285342897635,,,,,,,1,Indonesia,20003081,Sulawesi Utara,30003237,Kota Manado,40003239,Wenang,"Sports Station Ruko Manado, Jl. Dr. Sutomo, Pinaesaan, Kec. Wenang, Kota Manado, Sulawesi Utara",20232,1.4898731657006172,124.84458380122,1,1,"[{'scheduleStartHour': '0900', 'scheduleEndHour': '1700', '__typename': 'DefaultSchedule'}, {'scheduleStartHour': '0900', 'scheduleEndHour': '1700', '__typename': 'DefaultSchedule'}, {'scheduleStartHour': '0900', 'scheduleEndHour': '1700', '__typename': 'DefaultSchedule'}]",Store
1024102507503,SPORTS STATION LIPPO PLAZA KENDARI,10008456,,082190106274,,,,,,,1,Indonesia,20002507,Sulawesi Tenggara,30002706,Kota Kendari,40002709,Kadia,"Lippo Plaza Kendari unit GF-12, Jl. Jenderal M.t. Haryono No.61 - 63, Bende, Kec. Kadia, Kota Kendari, Sulawesi Tenggara 93117",93117,-3.9921540310188295,122.51220200685442,1,1,"[{'scheduleStartHour': '0900', 'scheduleEndHour': '1700', '__typename': 'DefaultSchedule'}, {'scheduleStartHour': '0900', 'scheduleEndHour': '1700', '__typename': 'DefaultSchedule'}, {'scheduleStartHour': '0900', 'scheduleEndHour': '1700', '__typename': 'DefaultSchedule'}]",Store
1024101407485,SPORTS STATION Q MALL BANJARBARU,10008434,,08115918943,,,,,,,1,Indonesia,20000235,Kalimantan Selatan,30000357,Kota Banjarbaru,40000358,Banjar Baru Utara,"Q Mall Banjarbaru Lt. GF Unit G 29-31, Jl. A. Yani, Komet, Kec. Banjarbaru Utara, Kota Banjar Baru, Kalimantan Selatan 70714",70714,-3.43913243258941,114.84883395101008,1,1,"[{'scheduleStartHour': '0900', 'scheduleEndHour': '1700', '__typename': 'DefaultSchedule'}, {'scheduleStartHour': '0900', 'scheduleEndHour': '1700', '__typename': 'DefaultSchedule'}, {'scheduleStartHour': '0900', 'scheduleEndHour': '1700', '__typename': 'DefaultSchedule'}]",Store
1024093007377,SPORTS STATION SENAYAN PARK,10008325,,0212512030,,,,,,,1,Indonesia,20001388,DKI Jakarta,30001406,Kota Jakarta Pusat,40001406,Tanah Abang,"Senayan Park Jakarta, Jl. Gerbang Pemuda No.3, RT.1/RW.3, Gelora, Kecamatan Tanah Abang, Kota Jakarta Pusat, Daerah Khusus Ibukota Jakarta 10270",10270,-6.212281919623438,106.80530299757129,1,1,"[{'scheduleStartHour': '0900', 'scheduleEndHour': '1700', '__typename': 'DefaultSchedule'}, {'scheduleStartHour': '0900', 'scheduleEndHour': '1700', '__typename': 'DefaultSchedule'}, {'scheduleStartHour': '0900', 'scheduleEndHour': '1700', '__typename': 'DefaultSchedule'}]",Store
1024092507233,SPORTS STATION LIPPO MALL PURI,10008181,,02122582718,,,,,,,1,Indonesia,20001388,DKI Jakarta,30001424,Kota Jakarta Barat,40001428,Kembangan,"Lippo Mall Puri, Jl. Puri Indah Boulevard Kav V RT3/RW2, Kembangan Sel., Kec. Kembangan, Kota Jakarta Barat, Daerah Khusus Ibukota Jakarta 11610",11610,-6.187286556341979,106.73913156792534,1,1,"[{'scheduleStartHour': '0900', 'scheduleEndHour': '1700', '__typename': 'DefaultSchedule'}, {'scheduleStartHour': '0900', 'scheduleEndHour': '1700', '__typename': 'DefaultSchedule'}, {'scheduleStartHour': '0900', 'scheduleEndHour': '1700', '__typename': 'DefaultSchedule'}]",Store
1024092507232,SPORTS STATION PLAZA AMBARRUKMO,10008180,,02744331220,,,,,,,1,Indonesia,20002429,DI Yogyakarta,30002459,Kab. Sleman,40002461,Depok,"Plaza Ambarukmo Lt. 2 Unit A9-11, Jl. Laksda Adisucipto No.80, Ambarukmo, Caturtunggal, Kec. Depok, Kabupaten Sleman, Daerah Istimewa Yogyakarta 55281",55281,-7.7825591716855955,110.40109377602053,1,1,"[{'scheduleStartHour': '0900', 'scheduleEndHour': '1700', '__typename': 'DefaultSchedule'}, {'scheduleStartHour': '0900', 'scheduleEndHour': '1700', '__typename': 'DefaultSchedule'}, {'scheduleStartHour': '0900', 'scheduleEndHour': '1700', '__typename': 'DefaultSchedule'}]",Store
1024090207144,SPORT STATION GREEN SEDAYU MALL,10008089,,081119358100,,,,,,,1,Indonesia,20001388,DKI Jakarta,30001424,Kota Jakarta Barat,40001424,Cengkareng,"Green Sedayu Mall Lantai G Unit 05/07, Blk. B17, Jl. Taman Palem Lestari No.2, RT.7/RW.13, Cengkareng Bar., Kecamatan Cengkareng, Kota Jakarta Barat, Daerah Khusus Ibukota Jakarta 11730",11730,-6.138842992521579,106.72871809049103,1,1,"[{'scheduleStartHour': '0900', 'scheduleEndHour': '1700', '__typename': 'DefaultSchedule'}, {'scheduleStartHour': '0900', 'scheduleEndHour': '1700', '__typename': 'DefaultSchedule'}, {'scheduleStartHour': '0900', 'scheduleEndHour': '1700', '__typename': 'DefaultSchedule'}]",Store
1024082907128,SPORTS STATION LIVING PLAZA BALIKPAPAN,10008073,,05428708531,,,,,,,1,Indonesia,20000856,Kalimantan Timur,30000884,Kota Balikpapan,40000889,Balikpapan Selatan,"Living Plaza Balikpapan, Jl. MT Haryono, Gn. Bahagia, Kecamatan Balikpapan Selatan, Kota Balikpapan, Kalimantan Timur 76114",76114,-1.2421023880785758,116.87313813125411,1,1,"[{'scheduleStartHour': '0900', 'scheduleEndHour': '1700', '__typename': 'DefaultSchedule'}, {'scheduleStartHour': '0900', 'scheduleEndHour': '1700', '__typename': 'DefaultSchedule'}, {'scheduleStartHour': '0900', 'scheduleEndHour': '1700', '__typename': 'DefaultSchedule'}]",Store
1024082907127,SPORTS STATION RUKO BERAU,10008072,,08115808260,,,,,,,1,Indonesia,20000856,Kalimantan Timur,30000860,Kab. Berau,40000872,Tanjung Redeb,"Ruko Sports Station, Jl. Durian III No.106, Tj. Redeb, Kec. Tj. Redeb, Kabupaten Berau, Kalimantan Timur 77311",77311,2.147507440314663,117.48427745561686,1,1,"[{'scheduleStartHour': '0900', 'scheduleEndHour': '1700', '__typename': 'DefaultSchedule'}, {'scheduleStartHour': '0900', 'scheduleEndHour': '1700', '__typename': 'DefaultSchedule'}, {'scheduleStartHour': '0900', 'scheduleEndHour': '1700', '__typename': 'DefaultSchedule'}]",Store
1024081907118,SPORTS STATION TRANS STUDIO MAKASSAR,10008059,,081142501391,,,,,,,1,Indonesia,20006724,Sulawesi Selatan,30006724,Kota Makassar,40006725,Tamalate,"Trans Studio Mall Makassar, Jl. Metro Tj. Bunga, Maccini Sombala, Kec. Tamalate, Kota Makassar, Sulawesi Selatan 90224",90224,-5.159224773411469,119.39427262848393,1,1,"[{'scheduleStartHour': '0900', 'scheduleEndHour': '1700', '__typename': 'DefaultSchedule'}, {'scheduleStartHour': '0900', 'scheduleEndHour': '1700', '__typename': 'DefaultSchedule'}, {'scheduleStartHour': '0900', 'scheduleEndHour': '1700', '__typename': 'DefaultSchedule'}]",Store
1024081507117,SPORTS STATION MALL OF INDONESIA,10008058,,0214586830102,,,,,,,1,Indonesia,20001388,DKI Jakarta,30001400,Kota Jakarta Utara,40001405,Kelapa Gading,"Mall Of Indonesia Lt. 2F Unit A8 - A11, Jl. Boulevard Bar. Raya No.12, RT.18/RW.19, Klp. Gading Bar., Kec. Klp. Gading, Jkt Utara, Daerah Khusus Ibukota Jakarta 14240",14240,-6.151440278521612,106.89189074591616,1,1,"[{'scheduleStartHour': '0900', 'scheduleEndHour': '1700', '__typename': 'DefaultSchedule'}, {'scheduleStartHour': '0900', 'scheduleEndHour': '1700', '__typename': 'DefaultSchedule'}, {'scheduleStartHour': '0900', 'scheduleEndHour': '1700', '__typename': 'DefaultSchedule'}]",Store
1024073107074,SPORTS STATION GRAGE MALL CIREBON SSEN,10008009,,0231222888,,,,,,,1,Indonesia,20000422,Jawa Barat,30001383,Kota Cirebon,40001384,Lemahwungkuk,"Grage City Mall Lt.2 Unit F2, RT.002-025 Jl. Tentara Pelajar No.1, Kejaksan, Kec. Kejaksan, Kota Cirebon, Jawa Barat 45123",45123,-6.7401527567449895,108.5708871169558,1,1,"[{'scheduleStartHour': '0900', 'scheduleEndHour': '1700', '__typename': 'DefaultSchedule'}, {'scheduleStartHour': '0900', 'scheduleEndHour': '1700', '__typename': 'DefaultSchedule'}, {'scheduleStartHour': '0900', 'scheduleEndHour': '1700', '__typename': 'DefaultSchedule'}]",Store
1024071606975,SPORTS STATION LIPPO PLAZA JAMBI,10007864,,07415780060,,,,,sser-1,Staff,1,Indonesia,20001562,Jambi,30001692,Kota Jambi,40001697,Jambi Timur,"Lippo Plaza Jambi Lantai GF No.GF-12, Jl. Mayor Abd. Karta Wirana No.RT.15, Budiman, Kec. Jambi Tim., Kota Jambi, Jambi 36123",36123,-1.596895790297639,103.62556180331059,1,1,"[{'scheduleStartHour': '0900', 'scheduleEndHour': '1700', '__typename': 'DefaultSchedule'}, {'scheduleStartHour': '0900', 'scheduleEndHour': '1700', '__typename': 'DefaultSchedule'}, {'scheduleStartHour': '0900', 'scheduleEndHour': '1700', '__typename': 'DefaultSchedule'}]",Store
1024071606974,SPORTS STATION PLAZA ASIA SUMEDANG,10007863,,02612401025,,,,,sset-1,Staff,1,Indonesia,20000422,Jawa Barat,30000559,Kab. Sumedang,40000560,Sumedang Utara,"Plaza Asia Sumedang Lantai 1st Floor Unit 12-19, Jl. Mayor Abdurahman No.225, Kotakaler, Kec. Sumedang Utara, Kabupaten Sumedang, Jawa Barat 45322",45322,-6.8353434775531765,107.92871206868104,1,1,"[{'scheduleStartHour': '0900', 'scheduleEndHour': '1700', '__typename': 'DefaultSchedule'}, {'scheduleStartHour': '0900', 'scheduleEndHour': '1700', '__typename': 'DefaultSchedule'}, {'scheduleStartHour': '0900', 'scheduleEndHour': '1700', '__typename': 'DefaultSchedule'}]",Store
1024071606973,SPORTS STATION CITIMALL GARUT,10007862,,089662036469,,,,,sseo-1,Staff,1,Indonesia,20000422,Jawa Barat,30000516,Kab. Garut,40000542,Karangpawitan,"Citimall Garut Ground Floor Unit G-0015, Jl. Jendral Sudirman No.31, Sucikaler, Kec. Karangpawitan, Kabupaten Garut, Jawa Barat 44182",44182,-7.214449958313142,107.92022466737626,1,1,"[{'scheduleStartHour': '0900', 'scheduleEndHour': '1700', '__typename': 'DefaultSchedule'}, {'scheduleStartHour': '0900', 'scheduleEndHour': '1700', '__typename': 'DefaultSchedule'}, {'scheduleStartHour': '0900', 'scheduleEndHour': '1700', '__typename': 'DefaultSchedule'}]",Store
1024062706850,SPORTS STATION SANUR ICON BALI,10007737,,081138310945,,,,,,,1,Indonesia,20002217,Bali,30002270,Kota Denpasar,40002272,Denpasar Selatan,"Sanur Icon UG-28&29, Jl. Danau Tamblingan No.27, Sanur, Denpasar Selatan, Kota Denpasar, Bali 80228",80228,-8.686635500448698,115.26279111697707,1,1,"[{'scheduleStartHour': '0900', 'scheduleEndHour': '1700', '__typename': 'DefaultSchedule'}, {'scheduleStartHour': '0900', 'scheduleEndHour': '1700', '__typename': 'DefaultSchedule'}, {'scheduleStartHour': '0900', 'scheduleEndHour': '1700', '__typename': 'DefaultSchedule'}]",Store
1024062506798,SPORT STATION LIPPO PLAZA SIDOARJO,10007685,,085646702966,,,,,,,1,Indonesia,20002351,Jawa Timur,30003914,Kab. Sidoarjo,40006030,Sidoarjo,"Lippo Plaza Sidoarjo Ground Floor (GF) Unit 03-07, Jl. Jati Raya No.1, Jati, Kec. Sidoarjo, Kabupaten Sidoarjo, Jawa Timur 61226",61226,-7.446011757263032,112.6983950318842,1,1,"[{'scheduleStartHour': '0900', 'scheduleEndHour': '1700', '__typename': 'DefaultSchedule'}, {'scheduleStartHour': '0900', 'scheduleEndHour': '1700', '__typename': 'DefaultSchedule'}, {'scheduleStartHour': '0900', 'scheduleEndHour': '1700', '__typename': 'DefaultSchedule'}]",Store
1024051306611,SPORTS STATION FESTIVAL CITYLINK,10007494,,0226128556,,,,,,,1,Indonesia,20000422,Jawa Barat,30000619,Kota Bandung,40000634,Bojongloa Kaler,"FESTIVAL CITYLINK GROUND FLOOR UNIT 15-15A, Jl. Peta No.241, Suka Asih, Kec. Bojongloa Kaler, Kota Bandung, Jawa Barat 40232",40232,-6.929350695649865,107.58601425500211,1,1,"[{'scheduleStartHour': '0900', 'scheduleEndHour': '1700', '__typename': 'DefaultSchedule'}, {'scheduleStartHour': '0900', 'scheduleEndHour': '1700', '__typename': 'DefaultSchedule'}, {'scheduleStartHour': '0900', 'scheduleEndHour': '1700', '__typename': 'DefaultSchedule'}]",Store
1024051306598,SPORTS STATION SUMMARECON MALL BANDUNG,10007481,,02287301589,,,,,,,1,Indonesia,20000422,Jawa Barat,30000619,Kota Bandung,40000621,Gedebage,"Summarecon Mall Bandung Lt 1F - 801, 802 & 803, Jl. Bulevar Barat No. 75-89, Summarecon Bandung, Kec. Gedebage, Kota Bandung, Jawa Barat 40295",40295,-6.9557237274309935,107.69387350882273,1,1,"[{'scheduleStartHour': '0900', 'scheduleEndHour': '1700', '__typename': 'DefaultSchedule'}, {'scheduleStartHour': '0900', 'scheduleEndHour': '1700', '__typename': 'DefaultSchedule'}, {'scheduleStartHour': '0900', 'scheduleEndHour': '1700', '__typename': 'DefaultSchedule'}]",Store
1024051306597,SPORTS STATION PALEMBANG TRADE CENTER,10007480,,07115700001,,,,,,,1,Indonesia,20004548,Sumatera Selatan,30004763,Kota Palembang,40004771,Ilir Timur II,"SPORTS STATION PALEMBANG TRADE CENTER,  Jl. R. Sukamto, 8 Ilir, Kec. Ilir Timur II, Kota Palembang, Sumatera Selatan 30164",30114,-2.9512084920822277,104.76110870942097,1,1,"[{'scheduleStartHour': '0900', 'scheduleEndHour': '1700', '__typename': 'DefaultSchedule'}, {'scheduleStartHour': '0900', 'scheduleEndHour': '1700', '__typename': 'DefaultSchedule'}, {'scheduleStartHour': '0900', 'scheduleEndHour': '1700', '__typename': 'DefaultSchedule'}]",Store
1024051306596,SPORTS STATION CITIMALL BONTANG,10007479,,1500627,,,,,,,1,Indonesia,20000856,Kalimantan Timur,30000910,Kota Bontang,40000911,Bontang Selatan,"Citimall Bontang, Tj. Laut, Kec. Bontang Sel., Kota Bontang, Kalimantan Timur 75325",75325,0.11998929191555782,117.48463713694072,1,1,"[{'scheduleStartHour': '0900', 'scheduleEndHour': '1700', '__typename': 'DefaultSchedule'}, {'scheduleStartHour': '0900', 'scheduleEndHour': '1700', '__typename': 'DefaultSchedule'}, {'scheduleStartHour': '0900', 'scheduleEndHour': '1700', '__typename': 'DefaultSchedule'}]",Store
1024051306595,SPORT STATION CILANDAK TOWN SQUARE,10007478,,021800002,,,,,,,1,Indonesia,20001388,DKI Jakarta,30001414,Kota Jakarta Selatan,40001414,Cilandak,"MALL  CILANDAK TOWN SQUARE, LT GF UNIT 169, JL.TB SIMATUPANG KAV. 17, CILANDAK BARAT, CILANDAK – JAKARTA SELATAN 12430",12430,-6.291762540357702,106.7989726729354,1,1,"[{'scheduleStartHour': '0900', 'scheduleEndHour': '1700', '__typename': 'DefaultSchedule'}, {'scheduleStartHour': '0900', 'scheduleEndHour': '1700', '__typename': 'DefaultSchedule'}, {'scheduleStartHour': '0900', 'scheduleEndHour': '1700', '__typename': 'DefaultSchedule'}]",Store
1024051306594,SPORTS STATION GANDARIA CITY,10007477,,02129052920,,,,,,,1,Indonesia,20001388,DKI Jakarta,30001414,Kota Jakarta Selatan,40001421,Kebayoran Lama,"Mall Gandaria City LT.1 Unit 130, Jl. Arteri Pd. Indah, RT.10/RW.6, Kby. Lama Utara, Kec. Kby. Lama, Kota Jakarta Selatan, Daerah Khusus Ibukota Jakarta 12240",12240,-6.245386283856293,106.78370049218314,1,1,"[{'scheduleStartHour': '0900', 'scheduleEndHour': '1700', '__typename': 'DefaultSchedule'}, {'scheduleStartHour': '0900', 'scheduleEndHour': '1700', '__typename': 'DefaultSchedule'}, {'scheduleStartHour': '0900', 'scheduleEndHour': '1700', '__typename': 'DefaultSchedule'}]",Store
1024050106584,SPORTS STATION LIPPO PLAZA JEMBER,10007467,,081133379040,,,,,ssdu-1,SPORTS STATION LIPPO PLAZA JEMBER,1,Indonesia,20002351,Jawa Timur,30002398,Kab. Jember,40002401,Kaliwates,"Lippo Plaza Jember Lt. 1F Unit L1-08, Jl. Gajah Mada No.106, Kb. Kidul, Jember Kidul, Kec. Kaliwates, Kabupaten Jember, Jawa Timur 68131",68131,-8.173887364867994,113.68784233873019,1,1,"[{'scheduleStartHour': '0900', 'scheduleEndHour': '1700', '__typename': 'DefaultSchedule'}, {'scheduleStartHour': '0900', 'scheduleEndHour': '1700', '__typename': 'DefaultSchedule'}, {'scheduleStartHour': '0900', 'scheduleEndHour': '1700', '__typename': 'DefaultSchedule'}]",Store
1024040306554,SPORTS STATION GALAXY MALL SURABAYA,10007436,,081132049299,,,,,sseb-1,SPORTS STATION GALAXY MALL SURABAYA,1,Indonesia,20002351,Jawa Timur,30006122,Kota Surabaya,40006138,Mulyorejo,"SportStation Galaxy Mall 2 lantai Ground, Jl. Dharmahusada Indah Timur No.35-37, Mulyorejo, Kec. Mulyorejo, Surabaya, Jawa Timur 60115",60115,-7.27414736472043,112.78206252342544,1,1,"[{'scheduleStartHour': '0900', 'scheduleEndHour': '1700', '__typename': 'DefaultSchedule'}, {'scheduleStartHour': '0900', 'scheduleEndHour': '1700', '__typename': 'DefaultSchedule'}, {'scheduleStartHour': '0900', 'scheduleEndHour': '1700', '__typename': 'DefaultSchedule'}]",Store
1023111406025,SPORT STATION PLAZA AMBARUKMO YOGYAKARTA,10006887,,02744331031,,,,,,,1,Indonesia,20002429,DI Yogyakarta,30002459,Kab. Sleman,40002461,Depok,"PLAZA AMBARUKMO YOGYAKARTA LT 2,  Jl. Laksda Adisucipto Blok A No.13 - 14, Ambarukmo, Caturtunggal, Kec. Depok, Kabupaten Sleman, Daerah Istimewa Yogyakarta 55281",55281,-7.782525375041387,110.4010335129115,1,1,"[{'scheduleStartHour': '0900', 'scheduleEndHour': '1700', '__typename': 'DefaultSchedule'}, {'scheduleStartHour': '0900', 'scheduleEndHour': '1700', '__typename': 'DefaultSchedule'}, {'scheduleStartHour': '0900', 'scheduleEndHour': '1700', '__typename': 'DefaultSchedule'}]",Store
1023051105667,SPORTS STATION FX SUDIRMAN JAKARTA,10006467,,02125554421,,,,,,,1,Indonesia,20001388,DKI Jakarta,30001406,Kota Jakarta Pusat,40001406,Tanah Abang,"MALL FX SUDIRMAN Lantai 2, Jl. Jenderal Sudirman, RT.1/RW.3, Gelora, Kec. Tanah Abang, Kota Jakarta Pusat, DKI Jakarta 10270",10270,-6.22462455973939,106.80399487327286,1,1,"[{'scheduleStartHour': '0900', 'scheduleEndHour': '1700', '__typename': 'DefaultSchedule'}, {'scheduleStartHour': '0900', 'scheduleEndHour': '1700', '__typename': 'DefaultSchedule'}, {'scheduleStartHour': '0900', 'scheduleEndHour': '1700', '__typename': 'DefaultSchedule'}]",Store
1023051005665,SS TRANSPARK BINTARO,10006465,,1500627,,,,,,,1,Indonesia,20001432,Banten,30006153,Kota Tangerang Selatan,40006173,Pondok Aren,"Mall  Transpark Bintaro, Lt. F1 -Jl. Prof. Dr. Satrio No.5, Pd. Jaya, Kec. Pd. Aren, Kota Tangerang Selatan, Banten 15220",15220,-6.2775952344198,106.719975138789,1,1,"[{'scheduleStartHour': '0900', 'scheduleEndHour': '1700', '__typename': 'DefaultSchedule'}, {'scheduleStartHour': '0900', 'scheduleEndHour': '1700', '__typename': 'DefaultSchedule'}, {'scheduleStartHour': '0900', 'scheduleEndHour': '1700', '__typename': 'DefaultSchedule'}]",Store
1023030205198,SS JATILAND MALL TERNATE,10005969,,1500627,,,,,,,1,Indonesia,20006610,Maluku Utara,30006717,Kota Ternate,40006720,Ternate Tengah (Kota),"Jalan Pahlawan Revolusi, GaMallama, Ternate Tengah, Kota Ternate, Malluku Utara",97721,0.791229,127.39085,1,1,"[{'scheduleStartHour': '0900', 'scheduleEndHour': '1700', '__typename': 'DefaultSchedule'}, {'scheduleStartHour': '0900', 'scheduleEndHour': '1700', '__typename': 'DefaultSchedule'}, {'scheduleStartHour': '0900', 'scheduleEndHour': '1700', '__typename': 'DefaultSchedule'}]",Store
1023030205197,SS SAGA MALL ABEPURA,10005968,,217887889,,,,,,,1,Indonesia,20001700,Papua,30002190,Kota Jayapura,40002205,Abepura,"Kota Baru, Abepura, Kota Jayapura, Papua",99351,-2.61033,140.66553,1,1,"[{'scheduleStartHour': '0900', 'scheduleEndHour': '1700', '__typename': 'DefaultSchedule'}, {'scheduleStartHour': '0900', 'scheduleEndHour': '1700', '__typename': 'DefaultSchedule'}, {'scheduleStartHour': '0900', 'scheduleEndHour': '1700', '__typename': 'DefaultSchedule'}]",Store
1022080604582,PLANET SPORTS [AGILITY BEKASI],10005283,,087775045809,,,,,,,1,Indonesia,20000422,Jawa Barat,30000672,Kota Bekasi,40000676,Medan Satria,PT. Agility International Jl.Wahab Affan Komplek Pergudangan Metrofeed No 5-6 ,17132,-6.20729271692372,106.967908057933,1,1,"[{'scheduleStartHour': '0900', 'scheduleEndHour': '1700', '__typename': 'DefaultSchedule'}, {'scheduleStartHour': '0900', 'scheduleEndHour': '1700', '__typename': 'DefaultSchedule'}, {'scheduleStartHour': '0900', 'scheduleEndHour': '1700', '__typename': 'DefaultSchedule'}]",Store
1022062804480,SPORTS STATION [ROYAL PLAZA],10005163,,0318271605,,,,,,,1,Indonesia,20002351,Jawa Timur,30006122,Kota Surabaya,40006122,Wonokromo,"Jl. A Yani No.16-18, Wonokromo",60243,-7.3089628,112.7345652,1,1,"[{'scheduleStartHour': '0900', 'scheduleEndHour': '1700', '__typename': 'DefaultSchedule'}, {'scheduleStartHour': '0900', 'scheduleEndHour': '1700', '__typename': 'DefaultSchedule'}, {'scheduleStartHour': '0900', 'scheduleEndHour': '1700', '__typename': 'DefaultSchedule'}]",Store
1022062804479,SPORTS STATION [ARTHA GADING],10005162,,02145863784,,,,,,,1,Indonesia,20001388,DKI Jakarta,30001400,Kota Jakarta Utara,40001405,Kelapa Gading,"Mall Artha Gading GF / A7 / 214, Jl. Artha Gading Sel. No.1",14240,-6.1455133,106.8928756,1,1,"[{'scheduleStartHour': '0900', 'scheduleEndHour': '1700', '__typename': 'DefaultSchedule'}, {'scheduleStartHour': '0900', 'scheduleEndHour': '1700', '__typename': 'DefaultSchedule'}, {'scheduleStartHour': '0900', 'scheduleEndHour': '1700', '__typename': 'DefaultSchedule'}]",Store
1022062804478,SPORTS STATION [DJAKARTA THEATER],10005161,,0213159332,,,,,,,1,Indonesia,20001388,DKI Jakarta,30001406,Kota Jakarta Pusat,40001409,Menteng,"Jl. M.H. Thamrin, RT.9/RW.5, Gondangdia, Kec. Menteng, Kota Jakarta Pusat",10340,-6.186505104011345,106.824196910577,1,1,"[{'scheduleStartHour': '0900', 'scheduleEndHour': '1700', '__typename': 'DefaultSchedule'}, {'scheduleStartHour': '0900', 'scheduleEndHour': '1700', '__typename': 'DefaultSchedule'}, {'scheduleStartHour': '0900', 'scheduleEndHour': '1700', '__typename': 'DefaultSchedule'}]",Store
1022062804477,SPORTS STATION [SUPERMAL KARAWACI],10005160,,02154210142,,,,,,,1,Indonesia,20001432,Banten,30006154,Kab. Tangerang,40006155,Kelapa Dua,"Komplek Lippo Karawaci 1200, Jl. Boulevard Diponegoro, Bencongan, Kec. Klp. Dua, Tangerang",15810,-6.2273949475055295,106.608559817706,1,1,"[{'scheduleStartHour': '0900', 'scheduleEndHour': '1700', '__typename': 'DefaultSchedule'}, {'scheduleStartHour': '0900', 'scheduleEndHour': '1700', '__typename': 'DefaultSchedule'}, {'scheduleStartHour': '0900', 'scheduleEndHour': '1700', '__typename': 'DefaultSchedule'}]",Store
1022062804476,SPORTS STATION [SUMMARECON MAL],10005159,,0215464254,,,,,,,1,Indonesia,20001432,Banten,30006154,Kab. Tangerang,40006155,Kelapa Dua,"Jl. Boulevard Raya Gading Serpong, Pakulonan Bar., Kec. Klp. Dua, Tangerang",15810,-6.239575878999012,106.62860624492168,1,1,"[{'scheduleStartHour': '0900', 'scheduleEndHour': '1700', '__typename': 'DefaultSchedule'}, {'scheduleStartHour': '0900', 'scheduleEndHour': '1700', '__typename': 'DefaultSchedule'}, {'scheduleStartHour': '0900', 'scheduleEndHour': '1700', '__typename': 'DefaultSchedule'}]",Store
1022062804475,SPORTS STATION [MALL TAMAN ANGGREK],10005158,,0215639117,,,,,,,1,Indonesia,20001388,DKI Jakarta,30001424,Kota Jakarta Barat,40001431,Grogol Petamburan,"Jl. Letjen S. Parman No.Kav 21, RT.12/RW.1, Tj. Duren Sel., Kec. Grogol petamburan",11470,-6.178327099107913,106.792202068248,1,1,"[{'scheduleStartHour': '0900', 'scheduleEndHour': '1700', '__typename': 'DefaultSchedule'}, {'scheduleStartHour': '0900', 'scheduleEndHour': '1700', '__typename': 'DefaultSchedule'}, {'scheduleStartHour': '0900', 'scheduleEndHour': '1700', '__typename': 'DefaultSchedule'}]",Store
1022062804474,SPORTS STATION [PVJ BANDUNG],10005157,,02282063863,,,,,,,1,Indonesia,20000422,Jawa Barat,30000619,Kota Bandung,40000624,Sukajadi,"Paris Van Java Lt. Glamour Level, Jl. Sukajadi No.131-139, Cipedes, Kec. Sukajadi",40162,-6.889199119382634,107.595808465139,1,1,"[{'scheduleStartHour': '0900', 'scheduleEndHour': '1700', '__typename': 'DefaultSchedule'}, {'scheduleStartHour': '0900', 'scheduleEndHour': '1700', '__typename': 'DefaultSchedule'}, {'scheduleStartHour': '0900', 'scheduleEndHour': '1700', '__typename': 'DefaultSchedule'}]",Store
1022062804472,SPORTS STATION [BANDUNG INDAH PLAZA],10005155,,0224215918,,,,,,,1,Indonesia,20000422,Jawa Barat,30000619,Kota Bandung,40000636,Bandung Wetan,"Bandung Indah Plaza, Jl. Merdeka No.56, Citarum, Kec. Bandung Wetan",40115,-6.90835612137254,107.610815962399,1,1,"[{'scheduleStartHour': '0900', 'scheduleEndHour': '1700', '__typename': 'DefaultSchedule'}, {'scheduleStartHour': '0900', 'scheduleEndHour': '1700', '__typename': 'DefaultSchedule'}, {'scheduleStartHour': '0900', 'scheduleEndHour': '1700', '__typename': 'DefaultSchedule'}]",Store
1022062804471,SPORTS STATION [BINTARO LIFESTYLE MALL],10005154,,02129864818,,,,,,,1,Indonesia,20001432,Banten,30006153,Kota Tangerang Selatan,40006173,Pondok Aren,"Bintaro Xchange Mall Lt. UG # Unit 324, Bintaro Jaya Blok O-2 Bintaro Jaya Sektor VII",15227,-6.285055601336359,106.728094716357,1,1,"[{'scheduleStartHour': '0900', 'scheduleEndHour': '1700', '__typename': 'DefaultSchedule'}, {'scheduleStartHour': '0900', 'scheduleEndHour': '1700', '__typename': 'DefaultSchedule'}, {'scheduleStartHour': '0900', 'scheduleEndHour': '1700', '__typename': 'DefaultSchedule'}]",Store
1022062804470,SPORTS STATION [SUPERMAL PAKUWON],10005153,,03199148955,,,,,,,1,Indonesia,20002351,Jawa Timur,30006122,Kota Surabaya,40006148,Dukuh Pakis,"Jl. Mayjen Yono Suwoyo, Pradahkalikendal, Kec. Dukuhpakis",60216,-7.287977545969088,112.676193975361,1,1,"[{'scheduleStartHour': '0900', 'scheduleEndHour': '1700', '__typename': 'DefaultSchedule'}, {'scheduleStartHour': '0900', 'scheduleEndHour': '1700', '__typename': 'DefaultSchedule'}, {'scheduleStartHour': '0900', 'scheduleEndHour': '1700', '__typename': 'DefaultSchedule'}]",Store
1022062804469,SPORTS STATION [KUNINGAN CITY],10005152,,02130056038,,,,,,,1,Indonesia,20001388,DKI Jakarta,30001414,Kota Jakarta Selatan,40001416,Setia Budi,"Kuningan City, Jl. Prof. DR. Satrio No.18, RT.7/RW.4, Kuningan, Setiabudi, Kota Jakarta Selatan",12940,-6.22452276169211,106.830126080623,1,1,"[{'scheduleStartHour': '0900', 'scheduleEndHour': '1700', '__typename': 'DefaultSchedule'}, {'scheduleStartHour': '0900', 'scheduleEndHour': '1700', '__typename': 'DefaultSchedule'}, {'scheduleStartHour': '0900', 'scheduleEndHour': '1700', '__typename': 'DefaultSchedule'}]",Store
1022062804468,SPORTS STATION [PALEMBANG ICON],10005151,,089678110982,,,,,,,1,Indonesia,20004548,Sumatera Selatan,30004763,Kota Palembang,40004774,Ilir Barat I,"Jl. POM IX, Lorok Pakjo, Kec. Ilir Bar. I, Kota Palembang, Sumatera Selatan 30137",30137,-2.97870845425698,104.745673939487,1,1,"[{'scheduleStartHour': '0900', 'scheduleEndHour': '1700', '__typename': 'DefaultSchedule'}, {'scheduleStartHour': '0900', 'scheduleEndHour': '1700', '__typename': 'DefaultSchedule'}, {'scheduleStartHour': '0900', 'scheduleEndHour': '1700', '__typename': 'DefaultSchedule'}]",Store
1022062804467,SPORTS STATION [PLAZA FESTIVAL],10005150,,0211500627,,,,,,,1,Indonesia,20001388,DKI Jakarta,30001414,Kota Jakarta Selatan,40001416,Setia Budi,"Jl. H. R. Rasuna Said No.2, RT.2/RW.5, Karet Kuningan, Kecamatan Setiabudi",12940,-6.22065264791705,106.833219512427,1,1,"[{'scheduleStartHour': '0900', 'scheduleEndHour': '1700', '__typename': 'DefaultSchedule'}, {'scheduleStartHour': '0900', 'scheduleEndHour': '1700', '__typename': 'DefaultSchedule'}, {'scheduleStartHour': '0900', 'scheduleEndHour': '1700', '__typename': 'DefaultSchedule'}]",Store
1022062804466,SPORTS STATION [BSD PLAZA SERPONG],10005149,,0215371429,,,,,,,1,Indonesia,20001432,Banten,30006153,Kota Tangerang Selatan,40006175,Serpong,"Jl. Pahlawan Seribu Sektor 4, Lengkong Wetan, Kec. Serpong",15322,-6.27913491265766,106.662991212427,1,1,"[{'scheduleStartHour': '0900', 'scheduleEndHour': '1700', '__typename': 'DefaultSchedule'}, {'scheduleStartHour': '0900', 'scheduleEndHour': '1700', '__typename': 'DefaultSchedule'}, {'scheduleStartHour': '0900', 'scheduleEndHour': '1700', '__typename': 'DefaultSchedule'}]",Store
1022062804465,SPORTS STATION [KEMANG VILLAGE],10005148,,02129056710,,,,,,,1,Indonesia,20001388,DKI Jakarta,30001414,Kota Jakarta Selatan,40001420,Mampang Prapatan,"Jl. Pangeran Antasari No.36, RT.11/RW.5, Bangka, Kec. Mampang Prapatan",12150,-6.260987285,106.8126546,1,1,"[{'scheduleStartHour': '0900', 'scheduleEndHour': '1700', '__typename': 'DefaultSchedule'}, {'scheduleStartHour': '0900', 'scheduleEndHour': '1700', '__typename': 'DefaultSchedule'}, {'scheduleStartHour': '0900', 'scheduleEndHour': '1700', '__typename': 'DefaultSchedule'}]",Store
1022062804464,SPORTS STATION [MEDAN CENTRE POINT],10005147,,0211500627,,,,,,,1,Indonesia,20003336,Sumatera Utara,30003751,Kota Medan,40003754,Medan Timur,"Jl. Jawa No.8, Gg. Buntu, Kec. Medan Tim., Kota Medan",20231,3.592047643,98.68116422,1,1,"[{'scheduleStartHour': '0900', 'scheduleEndHour': '1700', '__typename': 'DefaultSchedule'}, {'scheduleStartHour': '0900', 'scheduleEndHour': '1700', '__typename': 'DefaultSchedule'}, {'scheduleStartHour': '0900', 'scheduleEndHour': '1700', '__typename': 'DefaultSchedule'}]",Store
1022062804463,SPORTS STATION [LOTTE SHOPPING AVENUE],10005146,,0211500627,,,,,,,1,Indonesia,20001388,DKI Jakarta,30001414,Kota Jakarta Selatan,40001416,Setia Budi,"Lotte Shopping Avenue, Jl. Prof. DR. Satrio No.3, RW.4, Kuningan",12940,-6.224857729,106.8231612,1,1,"[{'scheduleStartHour': '0900', 'scheduleEndHour': '1700', '__typename': 'DefaultSchedule'}, {'scheduleStartHour': '0900', 'scheduleEndHour': '1700', '__typename': 'DefaultSchedule'}, {'scheduleStartHour': '0900', 'scheduleEndHour': '1700', '__typename': 'DefaultSchedule'}]",Store
1022062804462,SPORTS STATION [DELI PARK],10005145,,0211500627,,,,,,,1,Indonesia,20003336,Sumatera Utara,30003751,Kota Medan,40003769,Medan Barat,"Jl. Putri Hijau No.1, Kesawan, OPQ, Kota Medan",20111,3.594420583,98.67459122,1,1,"[{'scheduleStartHour': '0900', 'scheduleEndHour': '1700', '__typename': 'DefaultSchedule'}, {'scheduleStartHour': '0900', 'scheduleEndHour': '1700', '__typename': 'DefaultSchedule'}, {'scheduleStartHour': '0900', 'scheduleEndHour': '1700', '__typename': 'DefaultSchedule'}]",Store
1022062804460,SPORTS STATION [TRANS STUDIO CIBUBUR],10005143,,02139705050,,,,,,,1,Indonesia,20000422,Jawa Barat,30002206,Kota Depok,40002216,Cimanggis,"Jl. Alternatif Cibubur No.230, Harjamukti, Kec. Cimanggis, Kota Depok",16454,-6.37477082,106.9019301,1,1,"[{'scheduleStartHour': '0900', 'scheduleEndHour': '1700', '__typename': 'DefaultSchedule'}, {'scheduleStartHour': '0900', 'scheduleEndHour': '1700', '__typename': 'DefaultSchedule'}, {'scheduleStartHour': '0900', 'scheduleEndHour': '1700', '__typename': 'DefaultSchedule'}]",Store
1022062804459,SPORTS STATION [PEJATEN VILLAGE],10005142,,02178832341,,,,,,,1,Indonesia,20001388,DKI Jakarta,30001414,Kota Jakarta Selatan,40001418,Pasar Minggu,"Jl. Warung Jati Barat, RT.1/RW.5, Jati Padang, Kec. Ps. Minggu",12540,-6.280458229,106.828612,1,1,"[{'scheduleStartHour': '0900', 'scheduleEndHour': '1700', '__typename': 'DefaultSchedule'}, {'scheduleStartHour': '0900', 'scheduleEndHour': '1700', '__typename': 'DefaultSchedule'}, {'scheduleStartHour': '0900', 'scheduleEndHour': '1700', '__typename': 'DefaultSchedule'}]",Store
1022062804458,SPORTS STATION [PLAZA MEDAN FAIR],10005141,,0614140559,,,,,,,1,Indonesia,20003336,Sumatera Utara,30003751,Kota Medan,40003758,Medan Petisah,"Jl. Gatot Subroto No.30, Sekip, Kec. Medan Petisah, Kota Medan",20113,3.593466602,98.66407179,1,1,"[{'scheduleStartHour': '0900', 'scheduleEndHour': '1700', '__typename': 'DefaultSchedule'}, {'scheduleStartHour': '0900', 'scheduleEndHour': '1700', '__typename': 'DefaultSchedule'}, {'scheduleStartHour': '0900', 'scheduleEndHour': '1700', '__typename': 'DefaultSchedule'}]",Store
1022062804457,SPORTS STATION [KOTA KASABLANKA],10005140,,02129465125,,,,,,,1,Indonesia,20001388,DKI Jakarta,30001414,Kota Jakarta Selatan,40001415,Tebet,"Jl. Casablanca Raya Kav. 88, Menteng Dalam, Kec. Tebet",12870,-6.223959181,106.843153,1,1,"[{'scheduleStartHour': '0900', 'scheduleEndHour': '1700', '__typename': 'DefaultSchedule'}, {'scheduleStartHour': '0900', 'scheduleEndHour': '1700', '__typename': 'DefaultSchedule'}, {'scheduleStartHour': '0900', 'scheduleEndHour': '1700', '__typename': 'DefaultSchedule'}]",Store
1022062804456,SPORTS STATION [CIBUBUR JUNCTION],10005139,,02187756463,,,,,,,1,Indonesia,20001388,DKI Jakarta,30001390,Kota Jakarta Timur,40001397,Ciracas,"Jl. Jambore No.1, RW.7, Cibubur, Kec. Ciracas, Kota Jakarta Timur",13720,-6.370128115813241,106.89435228811544,1,1,"[{'scheduleStartHour': '0900', 'scheduleEndHour': '1700', '__typename': 'DefaultSchedule'}, {'scheduleStartHour': '0900', 'scheduleEndHour': '1700', '__typename': 'DefaultSchedule'}, {'scheduleStartHour': '0900', 'scheduleEndHour': '1700', '__typename': 'DefaultSchedule'}]",Store
1022062804455,SPORTS STATION [GRAND METROPOLITAN],10005138,,02129579962,,,,,,,1,Indonesia,20000422,Jawa Barat,30000672,Kota Bekasi,40000681,Bekasi Selatan,"Jl. KH. Noer Ali, RT.007/RW.003, Pekayon Jaya, Kec. Bekasi Selatan",17148,-6.249183699,106.983516,1,1,"[{'scheduleStartHour': '0900', 'scheduleEndHour': '1700', '__typename': 'DefaultSchedule'}, {'scheduleStartHour': '0900', 'scheduleEndHour': '1700', '__typename': 'DefaultSchedule'}, {'scheduleStartHour': '0900', 'scheduleEndHour': '1700', '__typename': 'DefaultSchedule'}]",Store
1022062804454,SPORTS STATION [PLUIT VILLAGE],10005137,,02166602183,,,,,,,1,Indonesia,20001388,DKI Jakarta,30001400,Kota Jakarta Utara,40001402,Penjaringan,"Jl. Pluit Indah No.12, RT.1/RW.4, Pluit, Kec. Penjaringan",14450,-6.116432851919753,106.78963869810104,1,1,"[{'scheduleStartHour': '0900', 'scheduleEndHour': '1700', '__typename': 'DefaultSchedule'}, {'scheduleStartHour': '0900', 'scheduleEndHour': '1700', '__typename': 'DefaultSchedule'}, {'scheduleStartHour': '0900', 'scheduleEndHour': '1700', '__typename': 'DefaultSchedule'}]",Store
1022062804453,SPORTS STATION PALEMBANG INDAH MALL,10005136,,217887889,,,,,,,1,Indonesia,20004548,Sumatera Selatan,30004763,Kota Palembang,40004776,Bukit Kecil,"Jl. Letkol Iskandar No.18, 24 Ilir, Bukit Kecil, Kota Palembang, Sumatera Selatan 30134",30134,-2.98457,104.75356,1,1,"[{'scheduleStartHour': '0900', 'scheduleEndHour': '1700', '__typename': 'DefaultSchedule'}, {'scheduleStartHour': '0900', 'scheduleEndHour': '1700', '__typename': 'DefaultSchedule'}, {'scheduleStartHour': '0900', 'scheduleEndHour': '1700', '__typename': 'DefaultSchedule'}]",Store
1022062804452,SPORTS STATION SOGO MALL KELAPA GADING,10005135,,217887889,,,,,,,1,Indonesia,20001388,DKI Jakarta,30001400,Kota Jakarta Utara,40001405,Kelapa Gading,"Jl. Boulevard Raya, RT.13/RW.18, Klp. Gading Tim., Klp. Gading, Kota Jkt Utara, DKI Jakarta 14240",14240,-6.157519,106.908021,1,1,"[{'scheduleStartHour': '0900', 'scheduleEndHour': '1700', '__typename': 'DefaultSchedule'}, {'scheduleStartHour': '0900', 'scheduleEndHour': '1700', '__typename': 'DefaultSchedule'}, {'scheduleStartHour': '0900', 'scheduleEndHour': '1700', '__typename': 'DefaultSchedule'}]",Store
1022062804451,SPORTS STATION SOGO DISCOVERY BALI,10005134,,217887889,,,,,,,1,Indonesia,20002217,Bali,30002217,Kab. Badung,40002220,Kuta,"Jl. Kartika Plaza, Kuta, Kabupaten Badung, Bali 80361",80361,-8.72876,115.16831,1,1,"[{'scheduleStartHour': '0900', 'scheduleEndHour': '1700', '__typename': 'DefaultSchedule'}, {'scheduleStartHour': '0900', 'scheduleEndHour': '1700', '__typename': 'DefaultSchedule'}, {'scheduleStartHour': '0900', 'scheduleEndHour': '1700', '__typename': 'DefaultSchedule'}]",Store
1022062804450,SPORTS STATION MALL WTC MATAHARI SERPONG,10005133,,217887889,,,,,,,1,Indonesia,20001432,Banten,30006153,Kota Tangerang Selatan,40006158,Serpong Utara,"Blok P, Jl. Bukit Golf I No.17, Lengkong Karya, Serpong Utara, Kota Tangerang Selatan, Banten 15310",15310,-6.28164,106.65219,1,1,"[{'scheduleStartHour': '0900', 'scheduleEndHour': '1700', '__typename': 'DefaultSchedule'}, {'scheduleStartHour': '0900', 'scheduleEndHour': '1700', '__typename': 'DefaultSchedule'}, {'scheduleStartHour': '0900', 'scheduleEndHour': '1700', '__typename': 'DefaultSchedule'}]",Store
1022062804449,SPORTS STATION KARAWANG CENTRAL PLAZA,10005132,,217887889,,,,,,,1,Indonesia,20000422,Jawa Barat,30003051,Kab. Karawang,40003067,Telukjambe Barat,"Kawasan Galuh Mas, Jalan Galuh Mas Raya, Sukaharja, Telukjambe Timur, Karawang, Jawa Barat 41361",41361,-6.32782,107.29231,1,1,"[{'scheduleStartHour': '0900', 'scheduleEndHour': '1700', '__typename': 'DefaultSchedule'}, {'scheduleStartHour': '0900', 'scheduleEndHour': '1700', '__typename': 'DefaultSchedule'}, {'scheduleStartHour': '0900', 'scheduleEndHour': '1700', '__typename': 'DefaultSchedule'}]",Store
1022062804448,SPORTS STATION BASKO GRAND MALL PADANG,10005131,,217887889,,,,,,,1,Indonesia,20004070,Sumatera Barat,30004238,Kota Padang,40004239,Padang Utara,"Jl.Prof.Dr.Hamka no.2A, Air Tawar Timur, Padang Utara, Kota Padang, Sumatera Barat, 25173",25173,-0.902119,100.35109,1,1,"[{'scheduleStartHour': '0900', 'scheduleEndHour': '1700', '__typename': 'DefaultSchedule'}, {'scheduleStartHour': '0900', 'scheduleEndHour': '1700', '__typename': 'DefaultSchedule'}, {'scheduleStartHour': '0900', 'scheduleEndHour': '1700', '__typename': 'DefaultSchedule'}]",Store
1022062804447,SPORTS STATION DUTA MAL BANJARMASIN,10005130,,217887889,,,,,,,1,Indonesia,20000235,Kalimantan Selatan,30000417,Kota Banjarmasin,40000419,Banjarmasin Tengah,"Jl. Ahmad Yani KM.2, Melayu, Banjarmasin Tengah, Kota Banjarmasin, Provinsi Kalimantan Sel. 70232",70232,-3.32263,114.60322,1,1,"[{'scheduleStartHour': '0900', 'scheduleEndHour': '1700', '__typename': 'DefaultSchedule'}, {'scheduleStartHour': '0900', 'scheduleEndHour': '1700', '__typename': 'DefaultSchedule'}, {'scheduleStartHour': '0900', 'scheduleEndHour': '1700', '__typename': 'DefaultSchedule'}]",Store
1022062804446,SPORTS STATION THE PARK SAWANGAN DEPOK,10005129,,217887889,,,,,,,1,Indonesia,20000422,Jawa Barat,30002206,Kota Depok,40002215,Sawangan,"Serua, Kec. Bojongsari, Kota Depok, Jawa Barat 16517",16517,-6.37623,106.74466,1,1,"[{'scheduleStartHour': '0900', 'scheduleEndHour': '1700', '__typename': 'DefaultSchedule'}, {'scheduleStartHour': '0900', 'scheduleEndHour': '1700', '__typename': 'DefaultSchedule'}, {'scheduleStartHour': '0900', 'scheduleEndHour': '1700', '__typename': 'DefaultSchedule'}]",Store
1022062804445,SPORTS STATION SOGO GALAXY SURABAYA,10005128,,217887889,,,,,,,1,Indonesia,20002351,Jawa Timur,30006122,Kota Surabaya,40006138,Mulyorejo,"Jalan Dharmahusada Indah Timur No.35-37, Mulyorejo, Kota SBY, Jawa Timur 60115",60115,-7.275066,112.782412,1,1,"[{'scheduleStartHour': '0900', 'scheduleEndHour': '1700', '__typename': 'DefaultSchedule'}, {'scheduleStartHour': '0900', 'scheduleEndHour': '1700', '__typename': 'DefaultSchedule'}, {'scheduleStartHour': '0900', 'scheduleEndHour': '1700', '__typename': 'DefaultSchedule'}]",Store
1022062804444,SPORTS STATION BUMI RAYA PONTIANAK,10005127,,217887889,,,,,,,1,Indonesia,20004954,Kalimantan Barat,30005122,Kota Pontianak,40005125,Pontianak Selatan,"Jl. Adisucipto Km. 8, Sei Raya, Tengah, Pontianak Kota, Kota Pontianak, Kalimantan Barat 78124",78124,-0.065509,109.358587,1,1,"[{'scheduleStartHour': '0900', 'scheduleEndHour': '1700', '__typename': 'DefaultSchedule'}, {'scheduleStartHour': '0900', 'scheduleEndHour': '1700', '__typename': 'DefaultSchedule'}, {'scheduleStartHour': '0900', 'scheduleEndHour': '1700', '__typename': 'DefaultSchedule'}]",Store
1022062804443,SPORTS STATION GREEN SEDAYU MALL,10005126,,217887889,,,,,,,1,Indonesia,20001388,DKI Jakarta,30001424,Kota Jakarta Barat,40001424,Cengkareng,"Jl. Taman Palem Lestari Blok B13 No.1, RT.7/RW.8, Cengkareng Bar., Kecamatan Cengkareng, Kota Jakarta Barat, DKI Jakarta 11730",11730,-6.139179,106.729385,1,1,"[{'scheduleStartHour': '0900', 'scheduleEndHour': '1700', '__typename': 'DefaultSchedule'}, {'scheduleStartHour': '0900', 'scheduleEndHour': '1700', '__typename': 'DefaultSchedule'}, {'scheduleStartHour': '0900', 'scheduleEndHour': '1700', '__typename': 'DefaultSchedule'}]",Store
1022062804442,SPORTS STATION SOGO LIPPO MALL PURI,10005125,,217887889,,,,,,,1,Indonesia,20001388,DKI Jakarta,30001424,Kota Jakarta Barat,40001428,Kembangan,"Jl. Puri Indah Raya, RT.3/RW.2, Kembangan Sel., Kembangan, Kota Jakarta Barat, DKI Jakarta 11610",11610,-6.187858,106.738718,1,1,"[{'scheduleStartHour': '0900', 'scheduleEndHour': '1700', '__typename': 'DefaultSchedule'}, {'scheduleStartHour': '0900', 'scheduleEndHour': '1700', '__typename': 'DefaultSchedule'}, {'scheduleStartHour': '0900', 'scheduleEndHour': '1700', '__typename': 'DefaultSchedule'}]",Store
1022062804441,SPORTS STATION TRANS STUDIO MALL BANDUNG,10005124,,217887889,,,,,,,1,Indonesia,20000422,Jawa Barat,30000619,Kota Bandung,40000635,Batununggal,"Jl. Jendral Gatot Subroto No.289, Cibangkong, Batununggal, Kota Bandung, Jawa Barat 40273",40273,-6.92524,107.636701,1,1,"[{'scheduleStartHour': '0900', 'scheduleEndHour': '1700', '__typename': 'DefaultSchedule'}, {'scheduleStartHour': '0900', 'scheduleEndHour': '1700', '__typename': 'DefaultSchedule'}, {'scheduleStartHour': '0900', 'scheduleEndHour': '1700', '__typename': 'DefaultSchedule'}]",Store
1022062804440,SPORTS STATION AEON MALL SENTUL CITY,10005123,,217887889,,,,,,,1,Indonesia,20000422,Jawa Barat,30000810,Kab. Bogor,40000826,Babakan Madang,"Jl. MH. Thamrin, Citaringgul, Kec. Babakan Madang, Bogor, Jawa Barat 16810",16810,-6.567758,106.858080,1,1,"[{'scheduleStartHour': '0900', 'scheduleEndHour': '1700', '__typename': 'DefaultSchedule'}, {'scheduleStartHour': '0900', 'scheduleEndHour': '1700', '__typename': 'DefaultSchedule'}, {'scheduleStartHour': '0900', 'scheduleEndHour': '1700', '__typename': 'DefaultSchedule'}]",Store
1022062804439,SPORTS STATION BANJARMASIN,10005122,,217887889,,,,,,,1,Indonesia,20000235,Kalimantan Selatan,30000417,Kota Banjarmasin,40000419,Banjarmasin Tengah,"Jl. Ahmad Yani KM.2, Melayu, Banjarmasin Tengah, Kota Banjarmasin, Provinsi Kalimantan Sel. 70232",70232,-3.32263,114.60322,1,1,"[{'scheduleStartHour': '0900', 'scheduleEndHour': '1700', '__typename': 'DefaultSchedule'}, {'scheduleStartHour': '0900', 'scheduleEndHour': '1700', '__typename': 'DefaultSchedule'}, {'scheduleStartHour': '0900', 'scheduleEndHour': '1700', '__typename': 'DefaultSchedule'}]",Store
1022062804438,SPORTS STATION BALIKPAPAN PERMAI,10005121,,217887889,,,,,,,1,Indonesia,20000856,Kalimantan Timur,30000884,Kota Balikpapan,40000884,Balikpapan Kota,"Jl. Jend.Sudirman Blok F1 No.15, Damai, Balikpapan, Kota Balikpapan, Kalimantan timir, 76114",76114,-1.27202,116.85352,1,1,"[{'scheduleStartHour': '0900', 'scheduleEndHour': '1700', '__typename': 'DefaultSchedule'}, {'scheduleStartHour': '0900', 'scheduleEndHour': '1700', '__typename': 'DefaultSchedule'}, {'scheduleStartHour': '0900', 'scheduleEndHour': '1700', '__typename': 'DefaultSchedule'}]",Store
1022062804437,SPORTS STATION MATAHARI DAANMOGOT JAKARTA,10005120,,217887889,,,,,,,1,Indonesia,20001388,DKI Jakarta,30001424,Kota Jakarta Barat,40001428,Kembangan,"Jl. Puri Agung, Puri Indah, Kembangan Selatan, RT.1/RW.2, Jakarta Barat, 11610",11610,-6.18833,106.73414,1,1,"[{'scheduleStartHour': '0900', 'scheduleEndHour': '1700', '__typename': 'DefaultSchedule'}, {'scheduleStartHour': '0900', 'scheduleEndHour': '1700', '__typename': 'DefaultSchedule'}, {'scheduleStartHour': '0900', 'scheduleEndHour': '1700', '__typename': 'DefaultSchedule'}]",Store
1022062804436,SPORTS STATION GAJAH MADA JAKARTA,10005119,,217887889,,,,,,,1,Indonesia,20001388,DKI Jakarta,30001406,Kota Jakarta Pusat,40001412,Gambir,"Jl. Gajah Mada No.19-26, RT.2/RW.1, Petojo Utara, Gambir, Kota Jakarta Pusat, DKI Jakarta 10130",10130,-6.16071,106.81834,1,1,"[{'scheduleStartHour': '0900', 'scheduleEndHour': '1700', '__typename': 'DefaultSchedule'}, {'scheduleStartHour': '0900', 'scheduleEndHour': '1700', '__typename': 'DefaultSchedule'}, {'scheduleStartHour': '0900', 'scheduleEndHour': '1700', '__typename': 'DefaultSchedule'}]",Store
1022062804435,SPORTS STATION GRAGE MALL CIREBON,10005118,,217887889,,,,,,,1,Indonesia,20000422,Jawa Barat,30001383,Kota Cirebon,40001384,Lemahwungkuk,"Jalan Ahmad Yani No.60, Pegambiran, Lemahwungkuk, Pegambiran, Kota Cirebon, Jawa Barat 45113",45113,-6.74122,108.57089,1,1,"[{'scheduleStartHour': '0900', 'scheduleEndHour': '1700', '__typename': 'DefaultSchedule'}, {'scheduleStartHour': '0900', 'scheduleEndHour': '1700', '__typename': 'DefaultSchedule'}, {'scheduleStartHour': '0900', 'scheduleEndHour': '1700', '__typename': 'DefaultSchedule'}]",Store
1022062804434,SPORTS STATION GRAGE MALL 2 CIREBON,10005117,,217887889,,,,,,,1,Indonesia,20000422,Jawa Barat,30001383,Kota Cirebon,40001384,Lemahwungkuk,"Jalan Ahmad Yani No.60, Pegambiran, Lemahwungkuk, Pegambiran, Kota Cirebon, Jawa Barat 45113",45113,-6.74122,108.57089,1,1,"[{'scheduleStartHour': '0900', 'scheduleEndHour': '1700', '__typename': 'DefaultSchedule'}, {'scheduleStartHour': '0900', 'scheduleEndHour': '1700', '__typename': 'DefaultSchedule'}, {'scheduleStartHour': '0900', 'scheduleEndHour': '1700', '__typename': 'DefaultSchedule'}]",Store
1022062804433,SPORTS STATION FX SUDIRMAN JAKARTA,10005116,,217887889,,,,,,,1,Indonesia,20001388,DKI Jakarta,30001406,Kota Jakarta Pusat,40001406,Tanah Abang,"Jl. Jend. Sudirman, RT.1/RW.3, Gelora, Tanah Abang, Kota Jakarta Pusat, DKI Jakarta 10270",10270,-6.22453,106.80383,1,1,"[{'scheduleStartHour': '0900', 'scheduleEndHour': '1700', '__typename': 'DefaultSchedule'}, {'scheduleStartHour': '0900', 'scheduleEndHour': '1700', '__typename': 'DefaultSchedule'}, {'scheduleStartHour': '0900', 'scheduleEndHour': '1700', '__typename': 'DefaultSchedule'}]",Store
1022062804432,SPORTS STATION THE PARK SOLO,10005115,,217887889,,,,,,,1,Indonesia,20001538,Jawa Tengah,30005282,Kab. Sukoharjo,40005283,Grogol,"Jalan Ir. Soekarno Solo Baru, Desa Madegondo, Kecamatan Grogol, Madegondo, Grogol, Kabupaten Sukoharjo, Jawa Tengah 57552",57552,-7.59896,110.816343,1,1,"[{'scheduleStartHour': '0900', 'scheduleEndHour': '1700', '__typename': 'DefaultSchedule'}, {'scheduleStartHour': '0900', 'scheduleEndHour': '1700', '__typename': 'DefaultSchedule'}, {'scheduleStartHour': '0900', 'scheduleEndHour': '1700', '__typename': 'DefaultSchedule'}]",Store
1022062804431,SPORTS STATION JOGJA CITY MALL,10005114,,217887889,,,,,,,1,Indonesia,20002429,DI Yogyakarta,30002459,Kab. Sleman,40002459,Mlati,"Jl. Magelang KM.6 No.18, Sinduadi, Mlati, Kabupaten Sleman, Daerah Istimewa Yogyakarta 55284",55284,-7.75333,110.36059,1,1,"[{'scheduleStartHour': '0900', 'scheduleEndHour': '1700', '__typename': 'DefaultSchedule'}, {'scheduleStartHour': '0900', 'scheduleEndHour': '1700', '__typename': 'DefaultSchedule'}, {'scheduleStartHour': '0900', 'scheduleEndHour': '1700', '__typename': 'DefaultSchedule'}]",Store
1022062804430,SPORTS STATION TIARA DEWATA BALI,10005113,,217887889,,,,,,,1,Indonesia,20002217,Bali,30002217,Kab. Badung,40002220,Kuta,"Jalan Patai Kuta, Badung",80361,-8.638407,115.162739,1,1,"[{'scheduleStartHour': '0900', 'scheduleEndHour': '1700', '__typename': 'DefaultSchedule'}, {'scheduleStartHour': '0900', 'scheduleEndHour': '1700', '__typename': 'DefaultSchedule'}, {'scheduleStartHour': '0900', 'scheduleEndHour': '1700', '__typename': 'DefaultSchedule'}]",Store
1022062804428,SPORTS STATION RUKO YOSODIPURO SURAKARTA,10005111,,217887889,,,,,,,1,Indonesia,20001538,Jawa Tengah,30005376,Kota Surakarta,40005380,Banjarsari,Jl. Yosodipuro No. 140 57132,57132,-7.56284,110.80985,1,1,"[{'scheduleStartHour': '0900', 'scheduleEndHour': '1700', '__typename': 'DefaultSchedule'}, {'scheduleStartHour': '0900', 'scheduleEndHour': '1700', '__typename': 'DefaultSchedule'}, {'scheduleStartHour': '0900', 'scheduleEndHour': '1700', '__typename': 'DefaultSchedule'}]",Store
1022062804427,SPORTS STATION BOEMI KEDATON LAMPUNG,10005110,,217887889,,,,,,,1,Indonesia,20006232,Lampung,30006437,Kota Bandar Lampung,40006456,Kedaton,"Jl. Teuku Umar No.1, Kedaton, Kota Bandar Lampung, Lampung 35132",35132,-5.38171,105.25957,1,1,"[{'scheduleStartHour': '0900', 'scheduleEndHour': '1700', '__typename': 'DefaultSchedule'}, {'scheduleStartHour': '0900', 'scheduleEndHour': '1700', '__typename': 'DefaultSchedule'}, {'scheduleStartHour': '0900', 'scheduleEndHour': '1700', '__typename': 'DefaultSchedule'}]",Store
1022062804426,SPORTS STATION PLAZA ASIA TASIKMALAYA,10005109,,217887889,,,,,,,1,Indonesia,20000422,Jawa Barat,30006600,Kota Tasikmalaya,40006606,Cihideung,"Jl. K. H. Z. Mustofa No.326, Tugujaya, Cihideung, TASIKMALAYA, Jawa Barat 46126",46126,-7.34279,108.21666,1,1,"[{'scheduleStartHour': '0900', 'scheduleEndHour': '1700', '__typename': 'DefaultSchedule'}, {'scheduleStartHour': '0900', 'scheduleEndHour': '1700', '__typename': 'DefaultSchedule'}, {'scheduleStartHour': '0900', 'scheduleEndHour': '1700', '__typename': 'DefaultSchedule'}]",Store
1022062804425,SPORTS STATION MALANG CITY POINT,10005108,,217887889,,,,,,,1,Indonesia,20002351,Jawa Timur,30003998,Kota Malang,40003998,Sukun,"Jalan Raya Dieng 31, Pisang Candi, Sukun, Pisang Candi, Sukun, Kota MALANG, Jawa Timur 65146",65146,-7.97703,112.62375,1,1,"[{'scheduleStartHour': '0900', 'scheduleEndHour': '1700', '__typename': 'DefaultSchedule'}, {'scheduleStartHour': '0900', 'scheduleEndHour': '1700', '__typename': 'DefaultSchedule'}, {'scheduleStartHour': '0900', 'scheduleEndHour': '1700', '__typename': 'DefaultSchedule'}]",Store
1022062804424,SPORTS STATION CITY MARKET PALOPO,10005107,,217887889,,,,,,,1,Indonesia,20006724,Sulawesi Selatan,30006864,Kota Palopo,40006867,Wara Utara,"Jl. Manunggal, Luminda, Wara Utara, Kota Palopo, Sulawesi Selatan 91913",91913,-2.99015,120.18704,1,1,"[{'scheduleStartHour': '0900', 'scheduleEndHour': '1700', '__typename': 'DefaultSchedule'}, {'scheduleStartHour': '0900', 'scheduleEndHour': '1700', '__typename': 'DefaultSchedule'}, {'scheduleStartHour': '0900', 'scheduleEndHour': '1700', '__typename': 'DefaultSchedule'}]",Store
1022062804423,SPORTS STATION CIPINANG INDAH MALL JAKARTA,10005106,,217887889,,,,,,,1,Indonesia,20001388,DKI Jakarta,30001390,Kota Jakarta Timur,40001396,Duren Sawit,"Jalan Raya Kalimalang No.88, RT.18/RW.3, Pd. Bambu, Duren Sawit, Jakarta Timur, DKI Jakarta 13420",13420,-6.23866,106.89428,1,1,"[{'scheduleStartHour': '0900', 'scheduleEndHour': '1700', '__typename': 'DefaultSchedule'}, {'scheduleStartHour': '0900', 'scheduleEndHour': '1700', '__typename': 'DefaultSchedule'}, {'scheduleStartHour': '0900', 'scheduleEndHour': '1700', '__typename': 'DefaultSchedule'}]",Store
1022062804422,SPORTS STATION LIPPO PURI MALL JAKARTA,10005105,,217887889,,,,,,,1,Indonesia,20001388,DKI Jakarta,30001424,Kota Jakarta Barat,40001428,Kembangan,"Jl. Puri Indah Raya, RT.3/RW.2, Kembangan Sel., Kembangan, Kota Jakarta Barat, DKI Jakarta 11610",11610,-6.187858,106.738718,1,1,"[{'scheduleStartHour': '0900', 'scheduleEndHour': '1700', '__typename': 'DefaultSchedule'}, {'scheduleStartHour': '0900', 'scheduleEndHour': '1700', '__typename': 'DefaultSchedule'}, {'scheduleStartHour': '0900', 'scheduleEndHour': '1700', '__typename': 'DefaultSchedule'}]",Store
1022062804421,SPORTS STATION EPICENTRUM MALL LOMBOK,10005104,,217887889,,,,,,,1,Indonesia,20000001,Nusa Tenggara Barat (NTB),30000111,Kota Mataram,40000116,Mataram,"Jl. Sriwijaya No.333, Punia, Kec. Mataram, Kota Mataram, Nusa Tenggara Bar. 83127",83127,-8.594321,116.10522,1,1,"[{'scheduleStartHour': '0900', 'scheduleEndHour': '1700', '__typename': 'DefaultSchedule'}, {'scheduleStartHour': '0900', 'scheduleEndHour': '1700', '__typename': 'DefaultSchedule'}, {'scheduleStartHour': '0900', 'scheduleEndHour': '1700', '__typename': 'DefaultSchedule'}]",Store
1022062804420,SPORTS STATION HARTONO MALL YOGYAKARTA,10005103,,217887889,,,,,,,1,Indonesia,20002429,DI Yogyakarta,30002459,Kab. Sleman,40002461,Depok,"Jalan Ringroad Utara, Sanggrahan, Kaliwaru Condong Catur, Sleman, Daerah Istimewa Yogyakarta 55281",55281,-7.75966,110.39849,1,1,"[{'scheduleStartHour': '0900', 'scheduleEndHour': '1700', '__typename': 'DefaultSchedule'}, {'scheduleStartHour': '0900', 'scheduleEndHour': '1700', '__typename': 'DefaultSchedule'}, {'scheduleStartHour': '0900', 'scheduleEndHour': '1700', '__typename': 'DefaultSchedule'}]",Store
1022062804419,SPORTS STATION PLAZA BEC BANDUNG,10005102,,217887889,,,,,,,1,Indonesia,20000422,Jawa Barat,30000619,Kota Bandung,40000623,Sumur Bandung,"Jl. Purnawarman No.13-15, Babakan Ciamis, Sumur Bandung, Kota Bandung, Jawa barat, 40116",40116,-6.90802,107.60890,1,1,"[{'scheduleStartHour': '0900', 'scheduleEndHour': '1700', '__typename': 'DefaultSchedule'}, {'scheduleStartHour': '0900', 'scheduleEndHour': '1700', '__typename': 'DefaultSchedule'}, {'scheduleStartHour': '0900', 'scheduleEndHour': '1700', '__typename': 'DefaultSchedule'}]",Store
1022062804418,SPORTS STATION SUNRISE MOJOKERTO,10005101,,217887889,,,,,,,1,Indonesia,20002351,Jawa Timur,30003916,Kota Mojokerto,40003917,Magersari,"Jl. Benteng Pancasila No.9, Mergelo, Balongsari, Magersari, Kota Mojokerto, Jawa Timur 61314",61314,-7.47152,112.44350,1,1,"[{'scheduleStartHour': '0900', 'scheduleEndHour': '1700', '__typename': 'DefaultSchedule'}, {'scheduleStartHour': '0900', 'scheduleEndHour': '1700', '__typename': 'DefaultSchedule'}, {'scheduleStartHour': '0900', 'scheduleEndHour': '1700', '__typename': 'DefaultSchedule'}]",Store
1022062804417,SPORTS STATION NGURAH RAI BALI,10005100,,217887889,,,,,,,1,Indonesia,20002217,Bali,30002217,Kab. Badung,40002220,Kuta,"Bandar Udara Internasional Ngurah Rai, Tuban, Kuta, Kabupaten Badung, Bali 80361",80361,-8.746717,115.166787,1,1,"[{'scheduleStartHour': '0900', 'scheduleEndHour': '1700', '__typename': 'DefaultSchedule'}, {'scheduleStartHour': '0900', 'scheduleEndHour': '1700', '__typename': 'DefaultSchedule'}, {'scheduleStartHour': '0900', 'scheduleEndHour': '1700', '__typename': 'DefaultSchedule'}]",Store
1022062804416,SPORTS STATION DEPOK TOWN SQUARE,10005099,,217887889,,,,,,,1,Indonesia,20000422,Jawa Barat,30002206,Kota Depok,40002214,Beji,"Jalan Margonda Raya No.1, Kemiri Muka, Beji, Kota Depok, Jawa Barat 16424",16424,-6.38707,106.82680,1,1,"[{'scheduleStartHour': '0900', 'scheduleEndHour': '1700', '__typename': 'DefaultSchedule'}, {'scheduleStartHour': '0900', 'scheduleEndHour': '1700', '__typename': 'DefaultSchedule'}, {'scheduleStartHour': '0900', 'scheduleEndHour': '1700', '__typename': 'DefaultSchedule'}]",Store
1022062804415,SPORTS STATION PESONA SQUARE DEPOK,10005098,,217887889,,,,,,,1,Indonesia,20000422,Jawa Barat,30002206,Kota Depok,40002211,Sukmajaya,"Jl. IR. Haji Juanda No. 99, Bakti Jaya, Sukmajaya, Bakti Jaya, Sukmajaya, Kota Depok, Jawa Barat 16418",16418,-6.38041,106.84685,1,1,"[{'scheduleStartHour': '0900', 'scheduleEndHour': '1700', '__typename': 'DefaultSchedule'}, {'scheduleStartHour': '0900', 'scheduleEndHour': '1700', '__typename': 'DefaultSchedule'}, {'scheduleStartHour': '0900', 'scheduleEndHour': '1700', '__typename': 'DefaultSchedule'}]",Store
1022062804414,SPORTS STATION LEVEL 21 MAL BALI,10005097,,217887889,,,,,,,1,Indonesia,20002217,Bali,30002270,Kota Denpasar,40002273,Denpasar Barat,"Jalan Teuku Umar No.1, Dauh Puri Klod, Denpasar Barat, Kota Denpasar, Bali 80113",80113,-8.66981,115.21449,1,1,"[{'scheduleStartHour': '0900', 'scheduleEndHour': '1700', '__typename': 'DefaultSchedule'}, {'scheduleStartHour': '0900', 'scheduleEndHour': '1700', '__typename': 'DefaultSchedule'}, {'scheduleStartHour': '0900', 'scheduleEndHour': '1700', '__typename': 'DefaultSchedule'}]",Store
1022062804413,SPORTS STATION BRAGA CITYWALK BANDUNG,10005096,,217887889,,,,,,,1,Indonesia,20000422,Jawa Barat,30000619,Kota Bandung,40000623,Sumur Bandung,"Jl. Braga No.99 - 101, Braga, Sumur Bandung, Kota Bandung, Jawa Barat 40111",40111,-6.91694,107.60912,1,1,"[{'scheduleStartHour': '0900', 'scheduleEndHour': '1700', '__typename': 'DefaultSchedule'}, {'scheduleStartHour': '0900', 'scheduleEndHour': '1700', '__typename': 'DefaultSchedule'}, {'scheduleStartHour': '0900', 'scheduleEndHour': '1700', '__typename': 'DefaultSchedule'}]",Store
1022062804412,SPORTS STATION GREEN PRAMUKA CITY JAKARTA,10005095,,217887889,,,,,,,1,Indonesia,20001388,DKI Jakarta,30001406,Kota Jakarta Pusat,40001413,Cempaka Putih,"Jl. Jenderal Ahmad. Yani Kav 49, Rawasari, Cempaka Putih, RT.13/RW.9, Rawasari, DKI Jakarta 10570",10570,-6.18964,106.87428,1,1,"[{'scheduleStartHour': '0900', 'scheduleEndHour': '1700', '__typename': 'DefaultSchedule'}, {'scheduleStartHour': '0900', 'scheduleEndHour': '1700', '__typename': 'DefaultSchedule'}, {'scheduleStartHour': '0900', 'scheduleEndHour': '1700', '__typename': 'DefaultSchedule'}]",Store
1022062804411,SPORTS STATION MALL BASSURA JAKARTA,10005094,,217887889,,,,,,,1,Indonesia,20001388,DKI Jakarta,30001390,Kota Jakarta Timur,40001395,Jatinegara,"Mall Bassura, Jl. Basuki Rahmat No.1A, RT.8/RW.10, Bali Mester, Cipinang Besar Selatan 13410",13410,-6.22444,106.87779,1,1,"[{'scheduleStartHour': '0900', 'scheduleEndHour': '1700', '__typename': 'DefaultSchedule'}, {'scheduleStartHour': '0900', 'scheduleEndHour': '1700', '__typename': 'DefaultSchedule'}, {'scheduleStartHour': '0900', 'scheduleEndHour': '1700', '__typename': 'DefaultSchedule'}]",Store
1022062804410,Sports Station Resinda Park Karawang,10005093,,217887889,,,,,,,1,Indonesia,20000422,Jawa Barat,30003051,Kab. Karawang,40003067,Telukjambe Barat,"Jl. Interchange Karawang Barat, Purwadana, Kec. Telukjambe Tim., Kabupaten Karawang, Jawa Barat 41361",41361,-6.30168,107.27793,1,1,"[{'scheduleStartHour': '0900', 'scheduleEndHour': '1700', '__typename': 'DefaultSchedule'}, {'scheduleStartHour': '0900', 'scheduleEndHour': '1700', '__typename': 'DefaultSchedule'}, {'scheduleStartHour': '0900', 'scheduleEndHour': '1700', '__typename': 'DefaultSchedule'}]",Store
1022062804409,Sports Station Plaza Balikpapan,10005092,,217887889,,,,,,,1,Indonesia,20000856,Kalimantan Timur,30000884,Kota Balikpapan,40000884,Balikpapan Kota,"Jl. Jenderal Sudirman No.1, Klandasan Ilir, Balikpapan Kota, Kota Balikpapan, Kalimantan Timur 76114",76114,-1.27741,116.83864,1,1,"[{'scheduleStartHour': '0900', 'scheduleEndHour': '1700', '__typename': 'DefaultSchedule'}, {'scheduleStartHour': '0900', 'scheduleEndHour': '1700', '__typename': 'DefaultSchedule'}, {'scheduleStartHour': '0900', 'scheduleEndHour': '1700', '__typename': 'DefaultSchedule'}]",Store
1022062804408,SPORTS STATION Qbig BSD CITY MALL,10005091,,217887889,,,,,,,1,Indonesia,20001432,Banten,30006154,Kab. Tangerang,40006170,Cisauk,"Jl. BSD Raya Utama, BSD City, Desa Sampora, Kecamatan Cisauk, Kabupaten Tangerang, 15345",15345,-6.304715,106.643998,1,1,"[{'scheduleStartHour': '0900', 'scheduleEndHour': '1700', '__typename': 'DefaultSchedule'}, {'scheduleStartHour': '0900', 'scheduleEndHour': '1700', '__typename': 'DefaultSchedule'}, {'scheduleStartHour': '0900', 'scheduleEndHour': '1700', '__typename': 'DefaultSchedule'}]",Store
1022062804407,SPORTS STATION BTC FASHION MALL BANDUNG,10005090,,217887889,,,,,,,1,Indonesia,20000422,Jawa Barat,30000619,Kota Bandung,40000630,Cicendo,"Jl. Dr. Djunjunan No.143-149, Pajajaran, Cicendo, Kota Bandung, Jawa Barat 40163",40163,-6.89315,107.58512,1,1,"[{'scheduleStartHour': '0900', 'scheduleEndHour': '1700', '__typename': 'DefaultSchedule'}, {'scheduleStartHour': '0900', 'scheduleEndHour': '1700', '__typename': 'DefaultSchedule'}, {'scheduleStartHour': '0900', 'scheduleEndHour': '1700', '__typename': 'DefaultSchedule'}]",Store
1022062804406,SPORTS STATION RUKO ANNA PADANG,10005089,,217887889,,,,,,,1,Indonesia,20004070,Sumatera Barat,30004238,Kota Padang,40004241,Padang Selatan,Jl. Batang Arau No.88 25118,25118,-0.947083,100.41718,1,1,"[{'scheduleStartHour': '0900', 'scheduleEndHour': '1700', '__typename': 'DefaultSchedule'}, {'scheduleStartHour': '0900', 'scheduleEndHour': '1700', '__typename': 'DefaultSchedule'}, {'scheduleStartHour': '0900', 'scheduleEndHour': '1700', '__typename': 'DefaultSchedule'}]",Store
1022062804405,SPORTS STATION STAR SQUARE MANADO,10005088,,217887889,,,,,,,1,Indonesia,20003081,Sulawesi Utara,30003237,Kota Manado,40007121,Manado,"Jl. Komp. Bahu Mal gedung Star Square Manado, Sulawesi Utara, 95114",95114,1.462716,124.82521,1,1,"[{'scheduleStartHour': '0900', 'scheduleEndHour': '1700', '__typename': 'DefaultSchedule'}, {'scheduleStartHour': '0900', 'scheduleEndHour': '1700', '__typename': 'DefaultSchedule'}, {'scheduleStartHour': '0900', 'scheduleEndHour': '1700', '__typename': 'DefaultSchedule'}]",Store
1022062804404,SPORTS STATION KAZA CITY MALL SURABAYA,10005087,,217887889,,,,,,,1,Indonesia,20002351,Jawa Timur,30006122,Kota Surabaya,40006131,Simokerto,"Jl. Kapas Krampung No.45, Tambakrejo, Simokerto, Kota SBY, Jawa Timur 60142",60142,-7.24814,112.75864,1,1,"[{'scheduleStartHour': '0900', 'scheduleEndHour': '1700', '__typename': 'DefaultSchedule'}, {'scheduleStartHour': '0900', 'scheduleEndHour': '1700', '__typename': 'DefaultSchedule'}, {'scheduleStartHour': '0900', 'scheduleEndHour': '1700', '__typename': 'DefaultSchedule'}]",Store
1022062804403,SPORTS STATION AEON MALL JGC JAKARTA,10005086,,217887889,,,,,,,1,Indonesia,20001388,DKI Jakarta,30001390,Kota Jakarta Timur,40001399,Cakung,"Jl. Jkt Garden City, RT.1/RW.6, Cakung Tim., Cakung, Kota Jakarta Timur, DKI Jakarta 13910",13910,-6.172449,106.951936,1,1,"[{'scheduleStartHour': '0900', 'scheduleEndHour': '1700', '__typename': 'DefaultSchedule'}, {'scheduleStartHour': '0900', 'scheduleEndHour': '1700', '__typename': 'DefaultSchedule'}, {'scheduleStartHour': '0900', 'scheduleEndHour': '1700', '__typename': 'DefaultSchedule'}]",Store
1022062804402,SPORTS STATION TRUNOJOYO BANDUNG (d/h RS03),10005085,,217887889,,,,,,,1,Indonesia,20000422,Jawa Barat,30000619,Kota Bandung,40000636,Bandung Wetan,"Riau Junction Trunojoyo, Jl. R.E. Martadinata No.17-21, Citarum, Bandung Wetan, Kota Bandung, Jawa Barat 40113",40113,-6.90533,107.61344,1,1,"[{'scheduleStartHour': '0900', 'scheduleEndHour': '1700', '__typename': 'DefaultSchedule'}, {'scheduleStartHour': '0900', 'scheduleEndHour': '1700', '__typename': 'DefaultSchedule'}, {'scheduleStartHour': '0900', 'scheduleEndHour': '1700', '__typename': 'DefaultSchedule'}]",Store
1022062804401,SPORTS STATION PALEMBANG ILIR,10005084,,217887889,,,,,,,1,Indonesia,20004548,Sumatera Selatan,30004763,Kota Palembang,40004776,Bukit Kecil,"Komplek Ilir Barat Permai, Kompleks Ramayana, Jl. Radial, 24 Ilir, Bukit Kecil, Kota Palembang, Sumatera Selatan 30134",30134,-2.98423,104.75262,1,1,"[{'scheduleStartHour': '0900', 'scheduleEndHour': '1700', '__typename': 'DefaultSchedule'}, {'scheduleStartHour': '0900', 'scheduleEndHour': '1700', '__typename': 'DefaultSchedule'}, {'scheduleStartHour': '0900', 'scheduleEndHour': '1700', '__typename': 'DefaultSchedule'}]",Store
1022062804400,SPORTS STATION PLAZA ATRIUM SENEN JAKARTA,10005083,,217887889,,,,,,,1,Indonesia,20001388,DKI Jakarta,30001406,Kota Jakarta Pusat,40001407,Senen,"Plaza Atrium, Jl. Senen Raya No.135, RT.9/RW.2, Senen, Kota Jakarta Pusat, DKI Jakarta 10410",10410,-6.17654,106.84101,1,1,"[{'scheduleStartHour': '0900', 'scheduleEndHour': '1700', '__typename': 'DefaultSchedule'}, {'scheduleStartHour': '0900', 'scheduleEndHour': '1700', '__typename': 'DefaultSchedule'}, {'scheduleStartHour': '0900', 'scheduleEndHour': '1700', '__typename': 'DefaultSchedule'}]",Store
1022062804399,SPORTS STATION RUKO KUTA SQ BALI,10005082,,217887889,,,,,,,1,Indonesia,20002217,Bali,30002217,Kab. Badung,40002220,Kuta,"Jl. Kartika, Kuta, badung, Kabupaten Badung, Bali 80361",80361,-8.73542,115.16659,1,1,"[{'scheduleStartHour': '0900', 'scheduleEndHour': '1700', '__typename': 'DefaultSchedule'}, {'scheduleStartHour': '0900', 'scheduleEndHour': '1700', '__typename': 'DefaultSchedule'}, {'scheduleStartHour': '0900', 'scheduleEndHour': '1700', '__typename': 'DefaultSchedule'}]",Store
1022062804398,SPORTS STATION D MALL DEPOK,10005081,,217887889,,,,,,,1,Indonesia,20000422,Jawa Barat,30002206,Kota Depok,40002214,Beji,"Jl. Margonda Raya Kav. 88, Kemiri Muka, Beji, Kemiri Muka, Kecamatan Beji, Depok, Jawa Barat 16423",16423,-6.38686,106.82682,1,1,"[{'scheduleStartHour': '0900', 'scheduleEndHour': '1700', '__typename': 'DefaultSchedule'}, {'scheduleStartHour': '0900', 'scheduleEndHour': '1700', '__typename': 'DefaultSchedule'}, {'scheduleStartHour': '0900', 'scheduleEndHour': '1700', '__typename': 'DefaultSchedule'}]",Store
1022062804397,SPORTS STATION BELLANOVA COUNTRY MALL BOGOR,10005080,,217887889,,,,,,,1,Indonesia,20000422,Jawa Barat,30000810,Kab. Bogor,40000826,Babakan Madang,"Citaringgul, Jl. MH. Thamrin No.8, Cipambuan, Babakan Madang, Bogor, Jawa Barat 16810",16810,-6.56664,106.84606,1,1,"[{'scheduleStartHour': '0900', 'scheduleEndHour': '1700', '__typename': 'DefaultSchedule'}, {'scheduleStartHour': '0900', 'scheduleEndHour': '1700', '__typename': 'DefaultSchedule'}, {'scheduleStartHour': '0900', 'scheduleEndHour': '1700', '__typename': 'DefaultSchedule'}]",Store
1022062804396,SPORTS STATION CILEGON CENTER,10005079,,217887889,,,,,,,1,Indonesia,20001432,Banten,30001530,Kota Cilegon,40001531,Jombang,"Jl. Raya Cilegon Jkt No.5, RT.1/RW.6, Sukmajaya, Jombang Sub-District, Cilegon City, Banten 42416",42416,-6.02473,106.698002,1,1,"[{'scheduleStartHour': '0900', 'scheduleEndHour': '1700', '__typename': 'DefaultSchedule'}, {'scheduleStartHour': '0900', 'scheduleEndHour': '1700', '__typename': 'DefaultSchedule'}, {'scheduleStartHour': '0900', 'scheduleEndHour': '1700', '__typename': 'DefaultSchedule'}]",Store
1022062804395,SPORTS STATION MALL OF INDONESIA JAKARTA,10005078,,217887889,,,,,,,1,Indonesia,20001388,DKI Jakarta,30001400,Kota Jakarta Utara,40001405,Kelapa Gading,"Mall Of Indonesia, Jalan Boulevard Barat Raya RT.18/RW.8, Kelapa Gading Barat, RT.18/RW.8, Klp. Gading Bar., Klp. Gading, Kota Jkt Utara, DKI Jakarta 14240",14240,-6.151057,106.89208,1,1,"[{'scheduleStartHour': '0900', 'scheduleEndHour': '1700', '__typename': 'DefaultSchedule'}, {'scheduleStartHour': '0900', 'scheduleEndHour': '1700', '__typename': 'DefaultSchedule'}, {'scheduleStartHour': '0900', 'scheduleEndHour': '1700', '__typename': 'DefaultSchedule'}]",Store
1022062804394,SPORTS STATION MALL CIPUTRA JAKARTA,10005077,,217887889,,,,,,,1,Indonesia,20001388,DKI Jakarta,30001424,Kota Jakarta Barat,40001431,Grogol Petamburan,"Jl. Letjen S. Parman No. 31, RT.11/RW.1, Tj. Duren Utara, Grogol, Jakarta Barat, DKI Jakarta 11470",11470,-6.16864,106.78710,1,1,"[{'scheduleStartHour': '0900', 'scheduleEndHour': '1700', '__typename': 'DefaultSchedule'}, {'scheduleStartHour': '0900', 'scheduleEndHour': '1700', '__typename': 'DefaultSchedule'}, {'scheduleStartHour': '0900', 'scheduleEndHour': '1700', '__typename': 'DefaultSchedule'}]",Store
1022062804393,SPORTS STATION LIVING WORLD PEKANBARU,10005076,,217887889,,,,,,,1,Indonesia,20004284,Riau,30004435,Kota Pekanbaru,40004443,Marpoyan Damai,"Tengkerang Bar., Marpoyan Damai, Kota Pekanbaru, Riau 28292",28292,0.499509,101.418147,1,1,"[{'scheduleStartHour': '0900', 'scheduleEndHour': '1700', '__typename': 'DefaultSchedule'}, {'scheduleStartHour': '0900', 'scheduleEndHour': '1700', '__typename': 'DefaultSchedule'}, {'scheduleStartHour': '0900', 'scheduleEndHour': '1700', '__typename': 'DefaultSchedule'}]",Store
1022062804392,SPORTS STATION OPI MALL PALEMBANG,10005075,,217887889,,,,,,,1,Indonesia,20004548,Sumatera Selatan,30004763,Kota Palembang,40004776,Bukit Kecil,"Jl. Letkol Iskandar No.18, 24 Ilir, Bukit Kecil, Kota Palembang, Sumatera Selatan 30134",30134,-2.98457,104.75356,1,1,"[{'scheduleStartHour': '0900', 'scheduleEndHour': '1700', '__typename': 'DefaultSchedule'}, {'scheduleStartHour': '0900', 'scheduleEndHour': '1700', '__typename': 'DefaultSchedule'}, {'scheduleStartHour': '0900', 'scheduleEndHour': '1700', '__typename': 'DefaultSchedule'}]",Store
1022062804391,SPORTS STATION LB.SUANA SAMARI,10005074,,217887889,,,,,,,1,Indonesia,20000856,Kalimantan Timur,30005193,Kota Samarinda,40005199,Samarinda Ulu,"Jl. S Parman, Komplek Mall Lembuswana, Gn. Kelua, Samarinda Ulu, Kota Samarinda, Kalimantan Timur 75123",75123,-0.475245,117.14678,1,1,"[{'scheduleStartHour': '0900', 'scheduleEndHour': '1700', '__typename': 'DefaultSchedule'}, {'scheduleStartHour': '0900', 'scheduleEndHour': '1700', '__typename': 'DefaultSchedule'}, {'scheduleStartHour': '0900', 'scheduleEndHour': '1700', '__typename': 'DefaultSchedule'}]",Store
1022062804390,SPORTS STATION PLAZA SURABAYA,10005073,,217887889,,,,,,,1,Indonesia,20002351,Jawa Timur,30006122,Kota Surabaya,40006126,Tegalsari,"Jalan Basuki Rahmat No.8-12, Kedungdoro, Tegalsari, Kedungdoro, Tegalsari, Kota SBY, Jawa Timur 60261",60261,-7.262803,112.738906,1,1,"[{'scheduleStartHour': '0900', 'scheduleEndHour': '1700', '__typename': 'DefaultSchedule'}, {'scheduleStartHour': '0900', 'scheduleEndHour': '1700', '__typename': 'DefaultSchedule'}, {'scheduleStartHour': '0900', 'scheduleEndHour': '1700', '__typename': 'DefaultSchedule'}]",Store
1022062804389,SPORTS STATION SERPONG,10005072,,217887889,,,,,,,1,Indonesia,20001432,Banten,30006154,Kab. Tangerang,40006184,Curug,"Jl. Boulevard Gading Serpong, Sentra Gading Serpong, Pakulonan Barat, Kelapa Dua, Tangerang, Banten 15810",15810,-6.24117,106.62836,1,1,"[{'scheduleStartHour': '0900', 'scheduleEndHour': '1700', '__typename': 'DefaultSchedule'}, {'scheduleStartHour': '0900', 'scheduleEndHour': '1700', '__typename': 'DefaultSchedule'}, {'scheduleStartHour': '0900', 'scheduleEndHour': '1700', '__typename': 'DefaultSchedule'}]",Store
1022062804388,SPORTS STATION SOLO SRIWEDARI,10005071,,217887889,,,,,,,1,Indonesia,20001538,Jawa Tengah,30005376,Kota Surakarta,40005378,Laweyan,"Jl.Kebangkitan Nasional no. 33, Kota Surakarta, Jawa Tengah 57141",57141,-7.56794,110.81282,1,1,"[{'scheduleStartHour': '0900', 'scheduleEndHour': '1700', '__typename': 'DefaultSchedule'}, {'scheduleStartHour': '0900', 'scheduleEndHour': '1700', '__typename': 'DefaultSchedule'}, {'scheduleStartHour': '0900', 'scheduleEndHour': '1700', '__typename': 'DefaultSchedule'}]",Store
1022062804387,SPORTS STATION GRAND GALAXY PARK BEKASI,10005070,,217887889,,,,,,,1,Indonesia,20000422,Jawa Barat,30000672,Kota Bekasi,40000681,Bekasi Selatan,"Jl. Grand Galaxy Boulevard No.1, Jaka Setia, Bekasi Sel., Kota Bks, Jawa Barat 17147",17147,-6.27088,106.97218,1,1,"[{'scheduleStartHour': '0900', 'scheduleEndHour': '1700', '__typename': 'DefaultSchedule'}, {'scheduleStartHour': '0900', 'scheduleEndHour': '1700', '__typename': 'DefaultSchedule'}, {'scheduleStartHour': '0900', 'scheduleEndHour': '1700', '__typename': 'DefaultSchedule'}]",Store
1022062804386,SPORTS STATION SOGO EMPORIUM PLUIT,10005069,,217887889,,,,,,,1,Indonesia,20001388,DKI Jakarta,30001400,Kota Jakarta Utara,40001402,Penjaringan,"Jl. Pluit Selatan Raya, RT.23/RW.8, Penjaringan, Kota Jkt Utara, DKI Jakarta 14440",14440,-6.12708,106.79177,1,1,"[{'scheduleStartHour': '0900', 'scheduleEndHour': '1700', '__typename': 'DefaultSchedule'}, {'scheduleStartHour': '0900', 'scheduleEndHour': '1700', '__typename': 'DefaultSchedule'}, {'scheduleStartHour': '0900', 'scheduleEndHour': '1700', '__typename': 'DefaultSchedule'}]",Store
1022062804385,SPORTS STATION SOGO TP4 SURABAYA,10005068,,217887889,,,,,,,1,Indonesia,20002351,Jawa Timur,30006122,Kota Surabaya,40006126,Tegalsari,"Jalan Basuki Rahmat No.8-12, Kedungdoro, Tegalsari, Kedungdoro, Tegalsari, Kota SBY, Jawa Timur 60261",60261,-7.262803,112.738906,1,1,"[{'scheduleStartHour': '0900', 'scheduleEndHour': '1700', '__typename': 'DefaultSchedule'}, {'scheduleStartHour': '0900', 'scheduleEndHour': '1700', '__typename': 'DefaultSchedule'}, {'scheduleStartHour': '0900', 'scheduleEndHour': '1700', '__typename': 'DefaultSchedule'}]",Store
1022062804384,SPORTS STATION SUNTER MALL JAKARTA,10005067,,217887889,,,,,,,1,Indonesia,20001388,DKI Jakarta,30001400,Kota Jakarta Utara,40001401,Tanjung Priok,"Sunter Mall Ground Floor No.11, Jakarta, RT.14/RW.13, Sunter Agung, Tj. Priok, Kota Jkt Utara, DKI Jakarta 14350",14350,-6.13808,106.87107,1,1,"[{'scheduleStartHour': '0900', 'scheduleEndHour': '1700', '__typename': 'DefaultSchedule'}, {'scheduleStartHour': '0900', 'scheduleEndHour': '1700', '__typename': 'DefaultSchedule'}, {'scheduleStartHour': '0900', 'scheduleEndHour': '1700', '__typename': 'DefaultSchedule'}]",Store
1022062804383,SPORTS STATION MALANG TOWN SQUARE,10005066,,217887889,,,,,,,1,Indonesia,20002351,Jawa Timur,30003998,Kota Malang,40004000,Klojen,"Malang Town Square, Jl. Veteran, Penanggungan, Klojen, Kota Malang, Jawa Timur 65145",65145,-7.95705,112.61805,1,1,"[{'scheduleStartHour': '0900', 'scheduleEndHour': '1700', '__typename': 'DefaultSchedule'}, {'scheduleStartHour': '0900', 'scheduleEndHour': '1700', '__typename': 'DefaultSchedule'}, {'scheduleStartHour': '0900', 'scheduleEndHour': '1700', '__typename': 'DefaultSchedule'}]",Store
1022062804382,SPORTS STATION TP1 SURABAYA,10005065,,217887889,,,,,,,1,Indonesia,20002351,Jawa Timur,30006122,Kota Surabaya,40006126,Tegalsari,"Jalan Basuki Rahmat No.8-12, Kedungdoro, Tegalsari, Kedungdoro, Tegalsari, Kota SBY, Jawa Timur 60261",60261,-7.262803,112.738906,1,1,"[{'scheduleStartHour': '0900', 'scheduleEndHour': '1700', '__typename': 'DefaultSchedule'}, {'scheduleStartHour': '0900', 'scheduleEndHour': '1700', '__typename': 'DefaultSchedule'}, {'scheduleStartHour': '0900', 'scheduleEndHour': '1700', '__typename': 'DefaultSchedule'}]",Store
1022062804381,SPORTS STATION SOGO CENTRAL PARK JAKARTA,10005064,,217887889,,,,,,,1,Indonesia,20001388,DKI Jakarta,30001424,Kota Jakarta Barat,40001431,Grogol Petamburan,"Jl. LetJend S. Parman Kav. 28, RT 12/ RW 6, Tanjung Duren Selatan, Jakarta Barat, DKI Jakarta, 11470",11470,-6.17736,106.79048,1,1,"[{'scheduleStartHour': '0900', 'scheduleEndHour': '1700', '__typename': 'DefaultSchedule'}, {'scheduleStartHour': '0900', 'scheduleEndHour': '1700', '__typename': 'DefaultSchedule'}, {'scheduleStartHour': '0900', 'scheduleEndHour': '1700', '__typename': 'DefaultSchedule'}]",Store
1022062804380,SPORTS STATION KARUNRUNG MAKASSAR,10005063,,217887889,,,,,,,1,Indonesia,20006724,Sulawesi Selatan,30006724,Kota Makassar,40006724,Ujung Pandang,"Jl. Karunrung No.1B, Sawerigading, Ujung Pandang, Kota Makassar, Sulawesi Selatan 90114",90114,-5.14469,119.47563,1,1,"[{'scheduleStartHour': '0900', 'scheduleEndHour': '1700', '__typename': 'DefaultSchedule'}, {'scheduleStartHour': '0900', 'scheduleEndHour': '1700', '__typename': 'DefaultSchedule'}, {'scheduleStartHour': '0900', 'scheduleEndHour': '1700', '__typename': 'DefaultSchedule'}]",Store
1022062804379,SPORTS STATION BG JUNCTION SURABAYA,10005062,,217887889,,,,,,,1,Indonesia,20002351,Jawa Timur,30006122,Kota Surabaya,40006150,Bubutan,"Jl. Bubutan No.1-7, Bubutan, Kota SBY, Jawa Timur 60174",60174,-7.25558,112.73390,1,1,"[{'scheduleStartHour': '0900', 'scheduleEndHour': '1700', '__typename': 'DefaultSchedule'}, {'scheduleStartHour': '0900', 'scheduleEndHour': '1700', '__typename': 'DefaultSchedule'}, {'scheduleStartHour': '0900', 'scheduleEndHour': '1700', '__typename': 'DefaultSchedule'}]",Store
1022062804378,SPORTS STATION PASARAYA BLOK M JAKARTA,10005061,,217887889,,,,,,,1,Indonesia,20001388,DKI Jakarta,30001414,Kota Jakarta Selatan,40001422,Kebayoran Baru,"Jl. Iskandarsyah II, RT.3/RW.1, Melawai, Kby. Baru",12160,-6.24388,106.80285,1,1,"[{'scheduleStartHour': '0900', 'scheduleEndHour': '1700', '__typename': 'DefaultSchedule'}, {'scheduleStartHour': '0900', 'scheduleEndHour': '1700', '__typename': 'DefaultSchedule'}, {'scheduleStartHour': '0900', 'scheduleEndHour': '1700', '__typename': 'DefaultSchedule'}]",Store
1022062804377,SPORTS STATION PLAZA BINTARO TANGSEL,10005060,,217887889,,,,,,,1,Indonesia,20001432,Banten,30006153,Kota Tangerang Selatan,40006173,Pondok Aren,"Jl. Bintaro Utama 3A No.87, Pd. Karya, Pd. Aren, Kota Tangerang Selatan, Banten 15225",15225,-6.27274,106.74183,1,1,"[{'scheduleStartHour': '0900', 'scheduleEndHour': '1700', '__typename': 'DefaultSchedule'}, {'scheduleStartHour': '0900', 'scheduleEndHour': '1700', '__typename': 'DefaultSchedule'}, {'scheduleStartHour': '0900', 'scheduleEndHour': '1700', '__typename': 'DefaultSchedule'}]",Store
1022062804376,SPORTS STATION MEGAMAL MANADO,10005059,,217887889,,,,,,,1,Indonesia,20003081,Sulawesi Utara,30003237,Kota Manado,40003239,Wenang,"Jl. Piere Tendean, Wenang Sel., Wenang, Kota Manado, Sulawesi Utara 95234",95234,1.4842332,124.83448,1,1,"[{'scheduleStartHour': '0900', 'scheduleEndHour': '1700', '__typename': 'DefaultSchedule'}, {'scheduleStartHour': '0900', 'scheduleEndHour': '1700', '__typename': 'DefaultSchedule'}, {'scheduleStartHour': '0900', 'scheduleEndHour': '1700', '__typename': 'DefaultSchedule'}]",Store
1022062804375,SPORTS STATION GALAXY SURABAYA,10005058,,217887889,,,,,,,1,Indonesia,20002351,Jawa Timur,30006122,Kota Surabaya,40006138,Mulyorejo,"Jalan Dharmahusada Indah Timur No.35-37, Mulyorejo, Kota SBY, Jawa Timur 60115",60115,-7.275066,112.782412,1,1,"[{'scheduleStartHour': '0900', 'scheduleEndHour': '1700', '__typename': 'DefaultSchedule'}, {'scheduleStartHour': '0900', 'scheduleEndHour': '1700', '__typename': 'DefaultSchedule'}, {'scheduleStartHour': '0900', 'scheduleEndHour': '1700', '__typename': 'DefaultSchedule'}]",Store
1022062804374,SPORTS STATION DP MALL SEMARANG,10005057,,217887889,,,,,,,1,Indonesia,20001538,Jawa Tengah,30005921,Kota Semarang,40005925,Semarang Tengah,"Jalan Pemuda No.150, Sekayu, Semarang Tengah, Sekayu, Semarang Tengah, Semarang, Jawa Tengah 50132",50132,-6.983153,110.412396,1,1,"[{'scheduleStartHour': '0900', 'scheduleEndHour': '1700', '__typename': 'DefaultSchedule'}, {'scheduleStartHour': '0900', 'scheduleEndHour': '1700', '__typename': 'DefaultSchedule'}, {'scheduleStartHour': '0900', 'scheduleEndHour': '1700', '__typename': 'DefaultSchedule'}]",Store
1022062804373,SPORTS STATION MALL TOP 100 TEMBESI,10005056,,217887889,,,,,,,1,Indonesia,20000913,Kepulauan Riau,30000953,Kota Batam,40000964,Batam Kota,Jalan Pembangunan Batu Selicin Kecamatan Lubuk Baja Kota Batam Kepulauan Riau 29444 Indonesia,29436,1.135221,104.811101,1,1,"[{'scheduleStartHour': '0900', 'scheduleEndHour': '1700', '__typename': 'DefaultSchedule'}, {'scheduleStartHour': '0900', 'scheduleEndHour': '1700', '__typename': 'DefaultSchedule'}, {'scheduleStartHour': '0900', 'scheduleEndHour': '1700', '__typename': 'DefaultSchedule'}]",Store
1022062804372,SPORTS STATION TRANS STUDIO MALL BALI,10005055,,217887889,,,,,,,1,Indonesia,20002217,Bali,30002270,Kota Denpasar,40002273,Denpasar Barat,Jl. Pemecutan Klod,80119,-8.702134,115.184332,1,1,"[{'scheduleStartHour': '0900', 'scheduleEndHour': '1700', '__typename': 'DefaultSchedule'}, {'scheduleStartHour': '0900', 'scheduleEndHour': '1700', '__typename': 'DefaultSchedule'}, {'scheduleStartHour': '0900', 'scheduleEndHour': '1700', '__typename': 'DefaultSchedule'}]",Store
1022062804371,SPORTS STATION MARINA LABUAN BAJO,10005054,,217887889,,,,,,,1,Indonesia,20000001,Nusa Tenggara Barat (NTB),30000111,Kota Mataram,40000116,Mataram,"Jl. Sriwijaya No.333, Punia, Kec. Mataram, Kota Mataram, Nusa Tenggara Bar. 83127",83127,-8.594321,116.10522,1,1,"[{'scheduleStartHour': '0900', 'scheduleEndHour': '1700', '__typename': 'DefaultSchedule'}, {'scheduleStartHour': '0900', 'scheduleEndHour': '1700', '__typename': 'DefaultSchedule'}, {'scheduleStartHour': '0900', 'scheduleEndHour': '1700', '__typename': 'DefaultSchedule'}]",Store
1022062804370,SPORTS STATION LIPPO PLAZA KUPANG,10005053,,217887889,,,,,,,1,Indonesia,20000001,Nusa Tenggara Barat (NTB),30000111,Kota Mataram,40000116,Mataram,"Jl. Sriwijaya No.333, Punia, Kec. Mataram, Kota Mataram, Nusa Tenggara Bar. 83127",83127,-8.594321,116.10522,1,1,"[{'scheduleStartHour': '0900', 'scheduleEndHour': '1700', '__typename': 'DefaultSchedule'}, {'scheduleStartHour': '0900', 'scheduleEndHour': '1700', '__typename': 'DefaultSchedule'}, {'scheduleStartHour': '0900', 'scheduleEndHour': '1700', '__typename': 'DefaultSchedule'}]",Store
1022062804369,SPORTS STATION SOGO PONDOK INDAH MALL2 JAKARTA,10005052,,217887889,,,,,,,1,Indonesia,20001388,DKI Jakarta,30001414,Kota Jakarta Selatan,40001421,Kebayoran Lama,"Jl. Metro Pondok Indah, RT.1/RW.16, Pd. Pinang, Kby. Lama, Kota Jakarta Selatan, DKI Jakarta 12310",12310,-6.265702,106.782839,1,1,"[{'scheduleStartHour': '0900', 'scheduleEndHour': '1700', '__typename': 'DefaultSchedule'}, {'scheduleStartHour': '0900', 'scheduleEndHour': '1700', '__typename': 'DefaultSchedule'}, {'scheduleStartHour': '0900', 'scheduleEndHour': '1700', '__typename': 'DefaultSchedule'}]",Store
1022062804368,SPORTS STATION PLAZA BLOK M JAKARTA,10005051,,217887889,,,,,,,1,Indonesia,20001388,DKI Jakarta,30001414,Kota Jakarta Selatan,40001422,Kebayoran Baru,"Jl. Bulungan No.78, RT.6/RW.6, Kramat Pela, Kby. Baru, Kota Jakarta Selatan, DKI Jakarta 12130",12130,-6.244283,106.797705,1,1,"[{'scheduleStartHour': '0900', 'scheduleEndHour': '1700', '__typename': 'DefaultSchedule'}, {'scheduleStartHour': '0900', 'scheduleEndHour': '1700', '__typename': 'DefaultSchedule'}, {'scheduleStartHour': '0900', 'scheduleEndHour': '1700', '__typename': 'DefaultSchedule'}]",Store
1022062804367,SPORTS STATION AYANI MEGAMAL PONTIANAK,10005050,,217887889,,,,,,,1,Indonesia,20004954,Kalimantan Barat,30005122,Kota Pontianak,40005125,Pontianak Selatan,"Jl. Jenderal Ahmad Yani No.4, Parit Tokaya, Pontianak Sel., Kota Pontianak, Kalimantan Barat 78113",78113,-0.051243,109.34545,1,1,"[{'scheduleStartHour': '0900', 'scheduleEndHour': '1700', '__typename': 'DefaultSchedule'}, {'scheduleStartHour': '0900', 'scheduleEndHour': '1700', '__typename': 'DefaultSchedule'}, {'scheduleStartHour': '0900', 'scheduleEndHour': '1700', '__typename': 'DefaultSchedule'}]",Store
1022062804366,SPORTS STATION AMBON CITY CENTER,10005049,,217887889,,,,,,,1,Indonesia,20000117,Maluku,30000230,Kota Ambon,40000232,Baguala,"Jl. Wolter Monginsidi, Passo, Baguala, Kota Ambon, Maluku 97232",97232,-3.632177,128.249837,1,1,"[{'scheduleStartHour': '0900', 'scheduleEndHour': '1700', '__typename': 'DefaultSchedule'}, {'scheduleStartHour': '0900', 'scheduleEndHour': '1700', '__typename': 'DefaultSchedule'}, {'scheduleStartHour': '0900', 'scheduleEndHour': '1700', '__typename': 'DefaultSchedule'}]",Store
1022062804365,SPORTS STATION RUKO HERTASNING MAKASSAR,10005048,,217887889,,,,,,,1,Indonesia,20006724,Sulawesi Selatan,30006724,Kota Makassar,40006728,Mamajang,"Jl. Dr. Sam Ratulangi No. 35, Ujung Pandang, Mamajang Luar, Mamajang, Kota Makassar, Sulawesi Selatan 90114",90114,-5.15329,119.41743,1,1,"[{'scheduleStartHour': '0900', 'scheduleEndHour': '1700', '__typename': 'DefaultSchedule'}, {'scheduleStartHour': '0900', 'scheduleEndHour': '1700', '__typename': 'DefaultSchedule'}, {'scheduleStartHour': '0900', 'scheduleEndHour': '1700', '__typename': 'DefaultSchedule'}]",Store
1022062804364,SPORTS STATION MAL SKA PEKANBARU,10005047,,217887889,,,,,,,1,Indonesia,20004284,Riau,30004435,Kota Pekanbaru,40004438,Tampan,"Jalan Soekarno - Hatta, Delima, Tampan, Kota Pekanbaru, Riau 28294",28294,0.499662,101.41818,1,1,"[{'scheduleStartHour': '0900', 'scheduleEndHour': '1700', '__typename': 'DefaultSchedule'}, {'scheduleStartHour': '0900', 'scheduleEndHour': '1700', '__typename': 'DefaultSchedule'}, {'scheduleStartHour': '0900', 'scheduleEndHour': '1700', '__typename': 'DefaultSchedule'}]",Store
1022062804363,SPORTS STATION CIPUTRA SERAYA PEKANBARU,10005046,,217887889,,,,,,,1,Indonesia,20004284,Riau,30004435,Kota Pekanbaru,40004441,Senapelan,"Jl. Riau No.58, Kp. Baru, Senapelan, Kota Pekanbaru, Riau 28154",28154,0.536121,101.43053,1,1,"[{'scheduleStartHour': '0900', 'scheduleEndHour': '1700', '__typename': 'DefaultSchedule'}, {'scheduleStartHour': '0900', 'scheduleEndHour': '1700', '__typename': 'DefaultSchedule'}, {'scheduleStartHour': '0900', 'scheduleEndHour': '1700', '__typename': 'DefaultSchedule'}]",Store
1022062804362,SPORTS STATION THAMRIN PLAZA MEDAN,10005045,,217887889,,,,,,,1,Indonesia,20001388,DKI Jakarta,30001406,Kota Jakarta Pusat,40001406,Tanah Abang,Jl. K.H. Mas Mansyur,10230,-6.19559,106.81752,1,1,"[{'scheduleStartHour': '0900', 'scheduleEndHour': '1700', '__typename': 'DefaultSchedule'}, {'scheduleStartHour': '0900', 'scheduleEndHour': '1700', '__typename': 'DefaultSchedule'}, {'scheduleStartHour': '0900', 'scheduleEndHour': '1700', '__typename': 'DefaultSchedule'}]",Store
1022062804361,SPORTS STATION PANAKUKANG MAKASSAR,10005044,,217887889,,,,,,,1,Indonesia,20006724,Sulawesi Selatan,30006724,Kota Makassar,40006731,Panakkukang,"Jalan Boulevard, Masale, Panakkukang, Kota Makassar, Sulawesi Selatan 90231",90231,-5.15768,119.44631,1,1,"[{'scheduleStartHour': '0900', 'scheduleEndHour': '1700', '__typename': 'DefaultSchedule'}, {'scheduleStartHour': '0900', 'scheduleEndHour': '1700', '__typename': 'DefaultSchedule'}, {'scheduleStartHour': '0900', 'scheduleEndHour': '1700', '__typename': 'DefaultSchedule'}]",Store
1022062804360,SPORTS STATION PLAZA AMBARUKMO YOGYAKARTA,10005043,,217887889,,,,,,,1,Indonesia,20002429,DI Yogyakarta,30002459,Kab. Sleman,40002461,Depok,"Jl. Laksda Adisucipto No.80, Ambarukmo, Caturtunggal, Kec. Depok, Kabupaten Sleman, Daerah Istimewa Yogyakarta 55281",55281,-7.782367,110.401394,1,1,"[{'scheduleStartHour': '0900', 'scheduleEndHour': '1700', '__typename': 'DefaultSchedule'}, {'scheduleStartHour': '0900', 'scheduleEndHour': '1700', '__typename': 'DefaultSchedule'}, {'scheduleStartHour': '0900', 'scheduleEndHour': '1700', '__typename': 'DefaultSchedule'}]",Store
1022062804359,SPORTS STATION GH PLAZA CITRA PEKANBARU,10005042,,217887889,,,,,,,1,Indonesia,20004284,Riau,30004435,Kota Pekanbaru,40004438,Tampan,"Jalan Soekarno - Hatta, Delima, Tampan, Kota Pekanbaru, Riau 28294",28294,0.499662,101.41818,1,1,"[{'scheduleStartHour': '0900', 'scheduleEndHour': '1700', '__typename': 'DefaultSchedule'}, {'scheduleStartHour': '0900', 'scheduleEndHour': '1700', '__typename': 'DefaultSchedule'}, {'scheduleStartHour': '0900', 'scheduleEndHour': '1700', '__typename': 'DefaultSchedule'}]",Store
1022062804358,SPORTS STATION CINERE MALL DEPOK,10005041,,217887889,,,,,,,1,Indonesia,20000422,Jawa Barat,30002206,Kota Depok,40002206,Cinere,"Jl. Cinere No.1, Pangkalan Jati, Cinere, Kota Depok, Jawa Barat 16514",16514,-6.31749,106.78241,1,1,"[{'scheduleStartHour': '0900', 'scheduleEndHour': '1700', '__typename': 'DefaultSchedule'}, {'scheduleStartHour': '0900', 'scheduleEndHour': '1700', '__typename': 'DefaultSchedule'}, {'scheduleStartHour': '0900', 'scheduleEndHour': '1700', '__typename': 'DefaultSchedule'}]",Store
1022062804357,SPORTS STATION GH PALEMBANG INDAH MALL,10005040,,217887889,,,,,,,1,Indonesia,20004548,Sumatera Selatan,30004763,Kota Palembang,40004776,Bukit Kecil,"Jl. Letkol Iskandar No.18, 24 Ilir, Bukit Kecil, Kota Palembang, Sumatera Selatan 30134",30134,-2.98457,104.75356,1,1,"[{'scheduleStartHour': '0900', 'scheduleEndHour': '1700', '__typename': 'DefaultSchedule'}, {'scheduleStartHour': '0900', 'scheduleEndHour': '1700', '__typename': 'DefaultSchedule'}, {'scheduleStartHour': '0900', 'scheduleEndHour': '1700', '__typename': 'DefaultSchedule'}]",Store
1022062804356,SPORTS STATION MAKASSAR TOWN SQUARE,10005039,,217887889,,,,,,,1,Indonesia,20006724,Sulawesi Selatan,30006724,Kota Makassar,40006728,Mamajang,"Kawasan Terpadu Trans Studio, Jl. HM. Daeng Patompo, Metro, Tanjung Bunga, Kota Makassar, Sulawesi Selatan 90134",90134,-5.16026,119.39398,1,1,"[{'scheduleStartHour': '0900', 'scheduleEndHour': '1700', '__typename': 'DefaultSchedule'}, {'scheduleStartHour': '0900', 'scheduleEndHour': '1700', '__typename': 'DefaultSchedule'}, {'scheduleStartHour': '0900', 'scheduleEndHour': '1700', '__typename': 'DefaultSchedule'}]",Store
1022062804355,SPORTS STATION MAL OLYMPIC MALANG,10005038,,217887889,,,,,,,1,Indonesia,20002351,Jawa Timur,30003998,Kota Malang,40004000,Klojen,"Jl. Kawi No. 20 - 24, Kauman, Klojen, Kota MALANG 65116",65116,-7.977212,112.62356,1,1,"[{'scheduleStartHour': '0900', 'scheduleEndHour': '1700', '__typename': 'DefaultSchedule'}, {'scheduleStartHour': '0900', 'scheduleEndHour': '1700', '__typename': 'DefaultSchedule'}, {'scheduleStartHour': '0900', 'scheduleEndHour': '1700', '__typename': 'DefaultSchedule'}]",Store
1022062804354,SPORTS STATION CIHAMPELAS WALK BANDUNG,10005037,,217887889,,,,,,,1,Indonesia,20000422,Jawa Barat,30000619,Kota Bandung,40000629,Coblong,"Jl. Cihampelas No.160, Cipaganti, Coblong, Kota Bandung, Jawa Barat 40131",40131,-6.89333,107.60543,1,1,"[{'scheduleStartHour': '0900', 'scheduleEndHour': '1700', '__typename': 'DefaultSchedule'}, {'scheduleStartHour': '0900', 'scheduleEndHour': '1700', '__typename': 'DefaultSchedule'}, {'scheduleStartHour': '0900', 'scheduleEndHour': '1700', '__typename': 'DefaultSchedule'}]",Store
1022062804353,SPORTS STATION PLAZA BUARAN JAKARTA,10005036,,217887889,,,,,,,1,Indonesia,20001388,DKI Jakarta,30001390,Kota Jakarta Timur,40001396,Duren Sawit," Jalan Radin Inten II No.1, RW.1, Klender, Duren Sawit, RT.8/RW.14, Klender, Duren Sawit, Kota Jakarta Timur, DKI Jakarta 13470",13470,-6.22051,106.91934,1,1,"[{'scheduleStartHour': '0900', 'scheduleEndHour': '1700', '__typename': 'DefaultSchedule'}, {'scheduleStartHour': '0900', 'scheduleEndHour': '1700', '__typename': 'DefaultSchedule'}, {'scheduleStartHour': '0900', 'scheduleEndHour': '1700', '__typename': 'DefaultSchedule'}]",Store
1022062804352,SPORTS STATION GH PARAGON CITY SEMARANG,10005035,,217887889,,,,,,,1,Indonesia,20001538,Jawa Tengah,30005921,Kota Semarang,40005925,Semarang Tengah,"Paragon Mall Semarang, Jl. Pemuda No.118, Sekayu, Semarang Tengah, Kota Semarang, Jawa Tengah 50132",50132,-6.97936,110.41589,1,1,"[{'scheduleStartHour': '0900', 'scheduleEndHour': '1700', '__typename': 'DefaultSchedule'}, {'scheduleStartHour': '0900', 'scheduleEndHour': '1700', '__typename': 'DefaultSchedule'}, {'scheduleStartHour': '0900', 'scheduleEndHour': '1700', '__typename': 'DefaultSchedule'}]",Store
1022062804351,SPORTS STATION DISCOVERY MALL BALI,10005034,,217887889,,,,,,,1,Indonesia,20002217,Bali,30002217,Kab. Badung,40002220,Kuta,"Jl. Kartika Plaza, Kuta, Kabupaten Badung, Bali 80361",80361,-8.72876,115.16831,1,1,"[{'scheduleStartHour': '0900', 'scheduleEndHour': '1700', '__typename': 'DefaultSchedule'}, {'scheduleStartHour': '0900', 'scheduleEndHour': '1700', '__typename': 'DefaultSchedule'}, {'scheduleStartHour': '0900', 'scheduleEndHour': '1700', '__typename': 'DefaultSchedule'}]",Store
1022062804350,SPORTS STATION HYPERMAL BEKASI,10005033,,217887889,,,,,,,1,Indonesia,20000422,Jawa Barat,30000672,Kota Bekasi,40000681,Bekasi Selatan,"Jl. Jenderal Ahmad Yani No. 1, Marga Jaya, Bekasi Selatan, Kota Bks, Jawa Barat 17141",17141,-6.249102,106.99255,1,1,"[{'scheduleStartHour': '0900', 'scheduleEndHour': '1700', '__typename': 'DefaultSchedule'}, {'scheduleStartHour': '0900', 'scheduleEndHour': '1700', '__typename': 'DefaultSchedule'}, {'scheduleStartHour': '0900', 'scheduleEndHour': '1700', '__typename': 'DefaultSchedule'}]",Store
1022062804349,SPORTS STATION BALIKPAPAN SUPERBLOCK,10005032,,217887889,,,,,,,1,Indonesia,20000856,Kalimantan Timur,30000884,Kota Balikpapan,40000884,Balikpapan Kota,"Jl. Jenderal sudirman No. 47, Gunung Bahagia, Balikpapan, Kota Balikpapan, Kalimantan Timur, 76114",76114,-1.27353,116.85898,1,1,"[{'scheduleStartHour': '0900', 'scheduleEndHour': '1700', '__typename': 'DefaultSchedule'}, {'scheduleStartHour': '0900', 'scheduleEndHour': '1700', '__typename': 'DefaultSchedule'}, {'scheduleStartHour': '0900', 'scheduleEndHour': '1700', '__typename': 'DefaultSchedule'}]",Store
1022062804347,SPORTS STATION CIPUTRA WORLD SURABAYA,10005030,,217887889,,,,,,,1,Indonesia,20002351,Jawa Timur,30006122,Kota Surabaya,40006148,Dukuh Pakis,"Jl. Mayjen Sungkono No.89, Gn. Sari, Dukuh Pakis, Kota SBY, Jawa Timur 60189",60189,-7.29291,112.71904,1,1,"[{'scheduleStartHour': '0900', 'scheduleEndHour': '1700', '__typename': 'DefaultSchedule'}, {'scheduleStartHour': '0900', 'scheduleEndHour': '1700', '__typename': 'DefaultSchedule'}, {'scheduleStartHour': '0900', 'scheduleEndHour': '1700', '__typename': 'DefaultSchedule'}]",Store
1022062804346,SPORTS STATION SOLO PARAGON,10005029,,217887889,,,,,,,1,Indonesia,20001538,Jawa Tengah,30005376,Kota Surakarta,40005380,Banjarsari,"Jl. Yosodipuro No.133, Mangkubumen, Kec. Banjarsari, Kota Surakarta, Jawa Tengah 57139",57139,-7.56251,110.80992,1,1,"[{'scheduleStartHour': '0900', 'scheduleEndHour': '1700', '__typename': 'DefaultSchedule'}, {'scheduleStartHour': '0900', 'scheduleEndHour': '1700', '__typename': 'DefaultSchedule'}, {'scheduleStartHour': '0900', 'scheduleEndHour': '1700', '__typename': 'DefaultSchedule'}]",Store
1022062804345,SPORTS STATION PASAR BARU JAKARTA,10005028,,217887889,,,,,,,1,Indonesia,20001388,DKI Jakarta,30001406,Kota Jakarta Pusat,40001408,Sawah Besar,"Jl. Ps. Baru No.117, RT.6/RW.1, Ps. Baru, Sawah Besar, Kota Jakarta Pusat, DKI Jakarta 10710",10710,-6.16394,106.83281,1,1,"[{'scheduleStartHour': '0900', 'scheduleEndHour': '1700', '__typename': 'DefaultSchedule'}, {'scheduleStartHour': '0900', 'scheduleEndHour': '1700', '__typename': 'DefaultSchedule'}, {'scheduleStartHour': '0900', 'scheduleEndHour': '1700', '__typename': 'DefaultSchedule'}]",Store
1022062804344,SPORTS STATION MALL PEKANBARU,10005027,,217887889,,,,,,,1,Indonesia,20004284,Riau,30004435,Kota Pekanbaru,40004438,Tampan,"Jalan Soekarno - Hatta, Delima, Tampan, Kota Pekanbaru, Riau 28294",28294,0.499662,101.41818,1,1,"[{'scheduleStartHour': '0900', 'scheduleEndHour': '1700', '__typename': 'DefaultSchedule'}, {'scheduleStartHour': '0900', 'scheduleEndHour': '1700', '__typename': 'DefaultSchedule'}, {'scheduleStartHour': '0900', 'scheduleEndHour': '1700', '__typename': 'DefaultSchedule'}]",Store
1022062804343,SPORTS STATION LOTTE MART BINTARO,10005026,,217887889,,,,,,,1,Indonesia,20001432,Banten,30006153,Kota Tangerang Selatan,40006173,Pondok Aren,"Jl. Moh. Husni Thamrin CBD Area Lt. 1 Unit 11, Lotte Mart Bintaro, Tangerang, Pondok Aren, South Tangerang City, Banten 15224",15224,-6.27465,106.72404,1,1,"[{'scheduleStartHour': '0900', 'scheduleEndHour': '1700', '__typename': 'DefaultSchedule'}, {'scheduleStartHour': '0900', 'scheduleEndHour': '1700', '__typename': 'DefaultSchedule'}, {'scheduleStartHour': '0900', 'scheduleEndHour': '1700', '__typename': 'DefaultSchedule'}]",Store
1022062804342,SPORTS STATION LIVING WORLD TANGSEL,10005025,,217887889,,,,,,,1,Indonesia,20001432,Banten,30006153,Kota Tangerang Selatan,40006175,Serpong,"Jl. Alam Sutera Boulevard Kav 21, Pakulonan, Living Word Mall Lt 2, Pakulonan, Serpong Utara, Kota Tangerang Selatan, Banten 15325",15325,-6.24422,106.65357,1,1,"[{'scheduleStartHour': '0900', 'scheduleEndHour': '1700', '__typename': 'DefaultSchedule'}, {'scheduleStartHour': '0900', 'scheduleEndHour': '1700', '__typename': 'DefaultSchedule'}, {'scheduleStartHour': '0900', 'scheduleEndHour': '1700', '__typename': 'DefaultSchedule'}]",Store
1022062804341,SPORTS STATION CIREBON SUPERBLOCK,10005024,,217887889,,,,,,,1,Indonesia,20000422,Jawa Barat,30001383,Kota Cirebon,40001385,Kesambi,"Jl. DR. Cipto Mangunkusumo No.26, Pekiringan, Kesambi, Kota Cirebon, Jawa Barat 45131",45131,-6.71843,108.54934,1,1,"[{'scheduleStartHour': '0900', 'scheduleEndHour': '1700', '__typename': 'DefaultSchedule'}, {'scheduleStartHour': '0900', 'scheduleEndHour': '1700', '__typename': 'DefaultSchedule'}, {'scheduleStartHour': '0900', 'scheduleEndHour': '1700', '__typename': 'DefaultSchedule'}]",Store
1022062804340,SPORTS STATION AMBON CITY CENTER,10005023,,217887889,,,,,,,1,Indonesia,20000117,Maluku,30000230,Kota Ambon,40000232,Baguala,"Jl. Wolter Monginsidi, Passo, Baguala, Kota Ambon, Maluku 97232",97232,-3.632177,128.249837,1,1,"[{'scheduleStartHour': '0900', 'scheduleEndHour': '1700', '__typename': 'DefaultSchedule'}, {'scheduleStartHour': '0900', 'scheduleEndHour': '1700', '__typename': 'DefaultSchedule'}, {'scheduleStartHour': '0900', 'scheduleEndHour': '1700', '__typename': 'DefaultSchedule'}]",Store
1022062804339,SPORTS STATION ALAM SUTERA TANGERANG,10005022,,217887889,,,,,,,1,Indonesia,20001432,Banten,30006153,Kota Tangerang Selatan,40006158,Serpong Utara,"Mall Alam Sutera, Jl Jalur Sutera Barat Kavling 16, Panunggangan Timur, Kota Tangerang, Banten 15325",15325,-6.222833,106.653819,1,1,"[{'scheduleStartHour': '0900', 'scheduleEndHour': '1700', '__typename': 'DefaultSchedule'}, {'scheduleStartHour': '0900', 'scheduleEndHour': '1700', '__typename': 'DefaultSchedule'}, {'scheduleStartHour': '0900', 'scheduleEndHour': '1700', '__typename': 'DefaultSchedule'}]",Store
1022062804338,SPORTS STATION MTC MEGAMAS MANADO,10005021,,217887889,,,,,,,1,Indonesia,20003081,Sulawesi Utara,30003237,Kota Manado,40003239,Wenang,"Jl. Piere Tendean, Wenang Sel., Wenang, Kota Manado, Sulawesi Utara 95234",95234,1.4842332,124.83448,1,1,"[{'scheduleStartHour': '0900', 'scheduleEndHour': '1700', '__typename': 'DefaultSchedule'}, {'scheduleStartHour': '0900', 'scheduleEndHour': '1700', '__typename': 'DefaultSchedule'}, {'scheduleStartHour': '0900', 'scheduleEndHour': '1700', '__typename': 'DefaultSchedule'}]",Store
1022062804337,SPORTS STATION RUKO PALOPO,10005020,,217887889,,,,,,,1,Indonesia,20006724,Sulawesi Selatan,30006864,Kota Palopo,40006867,Wara Utara,"Jl. Manennungeng No.141, Dangerakko, Wara, Kota Palopo, Sulawesi Selatan 91911",91911,-3.00277,120.19644,1,1,"[{'scheduleStartHour': '0900', 'scheduleEndHour': '1700', '__typename': 'DefaultSchedule'}, {'scheduleStartHour': '0900', 'scheduleEndHour': '1700', '__typename': 'DefaultSchedule'}, {'scheduleStartHour': '0900', 'scheduleEndHour': '1700', '__typename': 'DefaultSchedule'}]",Store
1022062804336,SPORTS STATION RUKO NANGKA PEKANBARU,10005019,,217887889,,,,,,,1,Indonesia,20004284,Riau,30004435,Kota Pekanbaru,40004438,Tampan,Jl Tuanku Tambusai Nangka 28292,28292,0.499493,101.41772,1,1,"[{'scheduleStartHour': '0900', 'scheduleEndHour': '1700', '__typename': 'DefaultSchedule'}, {'scheduleStartHour': '0900', 'scheduleEndHour': '1700', '__typename': 'DefaultSchedule'}, {'scheduleStartHour': '0900', 'scheduleEndHour': '1700', '__typename': 'DefaultSchedule'}]",Store
1022062804335,SPORTS STATION KRAMAT JATI INDAH PLAZA,10005018,,217887889,,,,,,,1,Indonesia,20001388,DKI Jakarta,30001390,Kota Jakarta Timur,40001394,Kramat Jati,"Jl.RAYA BOGOR Km.19 JAKARTA TIMUR lt.GF Unit G32-23, 13510",13510,-6.27082,106.86807,1,1,"[{'scheduleStartHour': '0900', 'scheduleEndHour': '1700', '__typename': 'DefaultSchedule'}, {'scheduleStartHour': '0900', 'scheduleEndHour': '1700', '__typename': 'DefaultSchedule'}, {'scheduleStartHour': '0900', 'scheduleEndHour': '1700', '__typename': 'DefaultSchedule'}]",Store
1022062804334,SPORTS STATION SOLO HARTONO MALL,10005017,,217887889,,,,,,,1,Indonesia,20001538,Jawa Tengah,30005282,Kab. Sukoharjo,40005283,Grogol,"Jl. Ir. Soekarno, Grogol, Madegondo, Grogol, Kabupaten Sukoharjo, Jawa Tengah 57552",57552,-7.59929,110.81647,1,1,"[{'scheduleStartHour': '0900', 'scheduleEndHour': '1700', '__typename': 'DefaultSchedule'}, {'scheduleStartHour': '0900', 'scheduleEndHour': '1700', '__typename': 'DefaultSchedule'}, {'scheduleStartHour': '0900', 'scheduleEndHour': '1700', '__typename': 'DefaultSchedule'}]",Store
1022062804333,SPORTS STATION BENCOOLEN MALL BENGKULU,10005016,,217887889,,,,,,,1,Indonesia,20000684,Bengkulu,30000801,Kota Bengkulu,40000805,Ratu Samban,"Jl. Putri Gading Cempaka, Penurunan, Ratu Samban, Kota Bengkulu, Bengkulu",38223,-3.81194,102.26826,1,1,"[{'scheduleStartHour': '0900', 'scheduleEndHour': '1700', '__typename': 'DefaultSchedule'}, {'scheduleStartHour': '0900', 'scheduleEndHour': '1700', '__typename': 'DefaultSchedule'}, {'scheduleStartHour': '0900', 'scheduleEndHour': '1700', '__typename': 'DefaultSchedule'}]",Store
1022062804332,SPORTS STATION BIG MALL SAMARINDA,10005015,,217887889,,,,,,,1,Indonesia,20000856,Kalimantan Timur,30005193,Kota Samarinda,40005197,Sungai Kunjang,"Jalan Untung Suropati No.8, Karang Asam Ulu, Sungai Kunjang, Samarinda, Kalimantan Timur 75126",75126,-0.525797,117.11573,1,1,"[{'scheduleStartHour': '0900', 'scheduleEndHour': '1700', '__typename': 'DefaultSchedule'}, {'scheduleStartHour': '0900', 'scheduleEndHour': '1700', '__typename': 'DefaultSchedule'}, {'scheduleStartHour': '0900', 'scheduleEndHour': '1700', '__typename': 'DefaultSchedule'}]",Store
1022062804331,SPORTS STATION RUKO KARUNRUNG,10005014,,217887889,,,,,,,1,Indonesia,20006724,Sulawesi Selatan,30006724,Kota Makassar,40006724,Ujung Pandang,"Jl. Karunrung No.1b, Sawerigading, Ujung Pandang, Kota Makassar, Sulawesi Selatan 90114",90114,-5.180102,119.44985,1,1,"[{'scheduleStartHour': '0900', 'scheduleEndHour': '1700', '__typename': 'DefaultSchedule'}, {'scheduleStartHour': '0900', 'scheduleEndHour': '1700', '__typename': 'DefaultSchedule'}, {'scheduleStartHour': '0900', 'scheduleEndHour': '1700', '__typename': 'DefaultSchedule'}]",Store
1022062804330,SPORTS STATION MALL KENDARI,10005013,,217887889,,,,,,,1,Indonesia,20002507,Sulawesi Tenggara,30002706,Kota Kendari,40002709,Kadia,"Jl. M.T. Haryono No.61-63, Anaiwoi, Kec. Kadia, Kota Kendari, Sulawesi Tenggara 93117",93117,-3.99211,122.51220,1,1,"[{'scheduleStartHour': '0900', 'scheduleEndHour': '1700', '__typename': 'DefaultSchedule'}, {'scheduleStartHour': '0900', 'scheduleEndHour': '1700', '__typename': 'DefaultSchedule'}, {'scheduleStartHour': '0900', 'scheduleEndHour': '1700', '__typename': 'DefaultSchedule'}]",Store
1022062804329,SPORTS STATION KALIBATA CITY SQUARE JAKARTA,10005012,,217887889,,,,,,,1,Indonesia,20001388,DKI Jakarta,30001414,Kota Jakarta Selatan,40001419,Pancoran,"Jl. Raya Kalibata No.1, Rawajati, Pancoran, Kota Jakarta Selatan, DKI Jakarta 12750",12750,-6.256911,106.85183,1,1,"[{'scheduleStartHour': '0900', 'scheduleEndHour': '1700', '__typename': 'DefaultSchedule'}, {'scheduleStartHour': '0900', 'scheduleEndHour': '1700', '__typename': 'DefaultSchedule'}, {'scheduleStartHour': '0900', 'scheduleEndHour': '1700', '__typename': 'DefaultSchedule'}]",Store
1022062804328,SPORTS STATION FOODHALL BSD CITY,10005011,,217887889,,,,,,,1,Indonesia,20001432,Banten,30006154,Kab. Tangerang,40006165,Pagedangan,"Jl. BSD Raya Utama, Pagedangan, Tangerang, Banten 15339",15339,-6.29591,106.64026,1,1,"[{'scheduleStartHour': '0900', 'scheduleEndHour': '1700', '__typename': 'DefaultSchedule'}, {'scheduleStartHour': '0900', 'scheduleEndHour': '1700', '__typename': 'DefaultSchedule'}, {'scheduleStartHour': '0900', 'scheduleEndHour': '1700', '__typename': 'DefaultSchedule'}]",Store
1022062804327,SPORTS STATION PALEMBANG ICON,10005010,,217887889,,,,,,,1,Indonesia,20004548,Sumatera Selatan,30004763,Kota Palembang,40004774,Ilir Barat I,"Jalan POM IX RT. 30 / RW. 09, Lorok Pakjo, Ilir Barat I, Lorok Pakjo, Ilir Bar. I, Kota Palembang, Sumatera Selatan 30137",30137,-2.979219,104.745743,1,1,"[{'scheduleStartHour': '0900', 'scheduleEndHour': '1700', '__typename': 'DefaultSchedule'}, {'scheduleStartHour': '0900', 'scheduleEndHour': '1700', '__typename': 'DefaultSchedule'}, {'scheduleStartHour': '0900', 'scheduleEndHour': '1700', '__typename': 'DefaultSchedule'}]",Store
1022062804326,SPORTS STATION CITRAGRAND CIBUBUR,10005009,,217887889,,,,,,,1,Indonesia,20000422,Jawa Barat,30000672,Kota Bekasi,40000677,Jati Sampurna,"Jl. Alternatif Cibubur - Cileungsi KM. 4, Jatikarya, Jatisampurna, Kota Bks, Jawa Barat 17435",17435,-6.35608,106.87979,1,1,"[{'scheduleStartHour': '0900', 'scheduleEndHour': '1700', '__typename': 'DefaultSchedule'}, {'scheduleStartHour': '0900', 'scheduleEndHour': '1700', '__typename': 'DefaultSchedule'}, {'scheduleStartHour': '0900', 'scheduleEndHour': '1700', '__typename': 'DefaultSchedule'}]",Store
1022062804325,SPORTS STATION BATAM CITY SQUARE,10005008,,217887889,,,,,,,1,Indonesia,20000913,Kepulauan Riau,30000953,Kota Batam,40000957,Lubuk Baja,"Batam City Square Mall, JL Bunga Raya, Baloi, Batu Selicin, Lubuk Baja, Kota Batam, Kep Riau 29444",29444,1.131843,104.103902,1,1,"[{'scheduleStartHour': '0900', 'scheduleEndHour': '1700', '__typename': 'DefaultSchedule'}, {'scheduleStartHour': '0900', 'scheduleEndHour': '1700', '__typename': 'DefaultSchedule'}, {'scheduleStartHour': '0900', 'scheduleEndHour': '1700', '__typename': 'DefaultSchedule'}]",Store
1022062804324,SPORTS STATION RITA SUPERMALL TEGAL,10005007,,217887889,,,,,,,1,Indonesia,20001538,Jawa Tengah,30005661,Kota Tegal,40005662,Tegal Selatan,"Jl. Kolonel Soegiono No.155, Kemandungan, Tegal Bar., Kota Tegal, Jawa Tengah 52133",52133,-6.874567,109.11956,1,1,"[{'scheduleStartHour': '0900', 'scheduleEndHour': '1700', '__typename': 'DefaultSchedule'}, {'scheduleStartHour': '0900', 'scheduleEndHour': '1700', '__typename': 'DefaultSchedule'}, {'scheduleStartHour': '0900', 'scheduleEndHour': '1700', '__typename': 'DefaultSchedule'}]",Store
1022062804323,SPORTS STATION KEPRI MALL BATAM,10005006,,217887889,,,,,,,1,Indonesia,20000913,Kepulauan Riau,30000953,Kota Batam,40000957,Lubuk Baja,"Kepri Mall, Jalan Jenderal Sudirman, Sukajadi, Kota Batam, Kepulauan Riau 29444",29444,1.1011401,104.368301,1,1,"[{'scheduleStartHour': '0900', 'scheduleEndHour': '1700', '__typename': 'DefaultSchedule'}, {'scheduleStartHour': '0900', 'scheduleEndHour': '1700', '__typename': 'DefaultSchedule'}, {'scheduleStartHour': '0900', 'scheduleEndHour': '1700', '__typename': 'DefaultSchedule'}]",Store
1022062804322,SPORTS STATION LIPPO CITY CIKARANG,10005005,,217887889,,,,,,,1,Indonesia,20000422,Jawa Barat,30000649,Kab. Bekasi,40000671,Cikarang Barat,"City Walk Lippo Cikarang, Jl. MH. Thamrin, Sukaresmi, Cikarang Sel., Bekasi, Jawa Barat 17530",17530,-6.32794,107.12778,1,1,"[{'scheduleStartHour': '0900', 'scheduleEndHour': '1700', '__typename': 'DefaultSchedule'}, {'scheduleStartHour': '0900', 'scheduleEndHour': '1700', '__typename': 'DefaultSchedule'}, {'scheduleStartHour': '0900', 'scheduleEndHour': '1700', '__typename': 'DefaultSchedule'}]",Store
1022062804321,SPORTS STATION BOTANI SQUARE BOGOR,10005004,,02518400838,,,,,,,1,Indonesia,20000422,Jawa Barat,30000850,Kota Bogor,40000853,Bogor Tengah - Kota,"BOTANI SQUARE LT.GF UNIT 86, Jl. Raya Pajajaran No. 69 - 71, Tegallega, Bogor Tengah, Kota Bogor, Jawa Barat, 16127",16127,-6.60140840060752,106.80741682917862,1,1,"[{'scheduleStartHour': '0900', 'scheduleEndHour': '1700', '__typename': 'DefaultSchedule'}, {'scheduleStartHour': '0900', 'scheduleEndHour': '1700', '__typename': 'DefaultSchedule'}, {'scheduleStartHour': '0900', 'scheduleEndHour': '1700', '__typename': 'DefaultSchedule'}]",Store
1022062804320,SPORTS STATION BALI COLLECTION,10005003,,217887889,,,,,,,1,Indonesia,20002217,Bali,30002217,Kab. Badung,40002217,Kuta Utara,"Kawasan BTDC Area Bali Collection, Nusa Dua, Benoa, Kuta Sel., Kabupaten Badung, Bali 80363",80363,-8.80148,115.23086,1,1,"[{'scheduleStartHour': '0900', 'scheduleEndHour': '1700', '__typename': 'DefaultSchedule'}, {'scheduleStartHour': '0900', 'scheduleEndHour': '1700', '__typename': 'DefaultSchedule'}, {'scheduleStartHour': '0900', 'scheduleEndHour': '1700', '__typename': 'DefaultSchedule'}]",Store
1022062804319,SPORTS STATION CILEUNGSI MALL,10005002,,217887889,,,,,,,1,Indonesia,20000422,Jawa Barat,30000810,Kab. Bogor,40000841,Cileungsi,"Jalan Taman Metro Raya No.62, Cileungsi Kidul, Cileungsi, Bogor, Jawa Barat 16820",16820,-6.39912,106.97524,1,1,"[{'scheduleStartHour': '0900', 'scheduleEndHour': '1700', '__typename': 'DefaultSchedule'}, {'scheduleStartHour': '0900', 'scheduleEndHour': '1700', '__typename': 'DefaultSchedule'}, {'scheduleStartHour': '0900', 'scheduleEndHour': '1700', '__typename': 'DefaultSchedule'}]",Store
1022062804318,SPORTS STATION RITA SUPERMALL PURWOKERTO,10005001,,217887889,,,,,,,1,Indonesia,20001538,Jawa Tengah,30005661,Kota Tegal,40005662,Tegal Selatan,"Jl. Kolonel Soegiono No.155, Kemandungan, Tegal Bar., Kota Tegal, Jawa Tengah 52133",52133,-6.874567,109.11956,1,1,"[{'scheduleStartHour': '0900', 'scheduleEndHour': '1700', '__typename': 'DefaultSchedule'}, {'scheduleStartHour': '0900', 'scheduleEndHour': '1700', '__typename': 'DefaultSchedule'}, {'scheduleStartHour': '0900', 'scheduleEndHour': '1700', '__typename': 'DefaultSchedule'}]",Store
1022062804317,SPORTS STATION CITRALAND SEMARANG,10005000,,217887889,,,,,,,1,Indonesia,20001538,Jawa Tengah,30005921,Kota Semarang,40005925,Semarang Tengah,"Jl. Simpang Lima No.1, Pekunden, Semarang Tengah, Kota Semarang, Jawa Tengah 50134",50134,-6.988611,110.42359,1,1,"[{'scheduleStartHour': '0900', 'scheduleEndHour': '1700', '__typename': 'DefaultSchedule'}, {'scheduleStartHour': '0900', 'scheduleEndHour': '1700', '__typename': 'DefaultSchedule'}, {'scheduleStartHour': '0900', 'scheduleEndHour': '1700', '__typename': 'DefaultSchedule'}]",Store
1022062804316,SPORTS STATION ICON MALL GRESIK,10004999,,217887889,,,,,,,1,Indonesia,20002351,Jawa Timur,30006104,Kab. Gresik,40006104,Kebomas,"Jl. Dr. Wahidin S.H. No.788, Kembangan, Kebomas, Kabupaten Gresik",61124,-7.165211,112.60170,1,1,"[{'scheduleStartHour': '0900', 'scheduleEndHour': '1700', '__typename': 'DefaultSchedule'}, {'scheduleStartHour': '0900', 'scheduleEndHour': '1700', '__typename': 'DefaultSchedule'}, {'scheduleStartHour': '0900', 'scheduleEndHour': '1700', '__typename': 'DefaultSchedule'}]",Store
1022062804315,SPORTS STATION Mega Mall Batam,10004998,,217887889,,,,,,,1,Indonesia,20000913,Kepulauan Riau,30000953,Kota Batam,40000957,Lubuk Baja,"Jl. Engku Putri No.1, Tlk. Tering, Batam Kota, Kota Batam, Kepulauan Riau 29444",29444,1.129209,104.558901,1,1,"[{'scheduleStartHour': '0900', 'scheduleEndHour': '1700', '__typename': 'DefaultSchedule'}, {'scheduleStartHour': '0900', 'scheduleEndHour': '1700', '__typename': 'DefaultSchedule'}, {'scheduleStartHour': '0900', 'scheduleEndHour': '1700', '__typename': 'DefaultSchedule'}]",Store
1022062804314,SPORTS STATION TANGCITY MALL - NEW,10004997,,217887889,,,,,,,1,Indonesia,20001432,Banten,30006189,Kota Tangerang,40006189,Karang Tengah,"Jl. HOS Cokroaminoto No.5, Karang Tengah, Kota Tangerang, Banten 15157",15157,-6.22254,106.709202,1,1,"[{'scheduleStartHour': '0900', 'scheduleEndHour': '1700', '__typename': 'DefaultSchedule'}, {'scheduleStartHour': '0900', 'scheduleEndHour': '1700', '__typename': 'DefaultSchedule'}, {'scheduleStartHour': '0900', 'scheduleEndHour': '1700', '__typename': 'DefaultSchedule'}]",Store
1022062804313,SPORTS STATION MALIOBORO YOGYAKARTA,10004996,,217887889,,,,,,,1,Indonesia,20002429,DI Yogyakarta,30002493,Kota Yogyakarta,40002503,Gedong Tengen,"Jl. MALIOBORO No. 52 - 58, Suryatmajan, Danurejan, Kota Yogyakarta, Daerah Istimewa Yogyakarta 55271",55271,-7.79284,110.36633,1,1,"[{'scheduleStartHour': '0900', 'scheduleEndHour': '1700', '__typename': 'DefaultSchedule'}, {'scheduleStartHour': '0900', 'scheduleEndHour': '1700', '__typename': 'DefaultSchedule'}, {'scheduleStartHour': '0900', 'scheduleEndHour': '1700', '__typename': 'DefaultSchedule'}]",Store
1022062804312,SPORTS STATION PLAZA SEMANGGI JAKARTA,10004995,,217887889,,,,,,,1,Indonesia,20001388,DKI Jakarta,30001414,Kota Jakarta Selatan,40001416,Setia Budi,"Kawasan Bisnis Granadha, Jalan Jendral Sudirman Kav. 50, Karet Semanggi, Setiabudi, RT.1/RW.4, Karet Semanggi, Kota Jakarta Selatan, DKI Jakarta 12930",12930,-6.21969,106.81445,1,1,"[{'scheduleStartHour': '0900', 'scheduleEndHour': '1700', '__typename': 'DefaultSchedule'}, {'scheduleStartHour': '0900', 'scheduleEndHour': '1700', '__typename': 'DefaultSchedule'}, {'scheduleStartHour': '0900', 'scheduleEndHour': '1700', '__typename': 'DefaultSchedule'}]",Store
1022062804311,SPORTS STATION GRES MALL GRESIK,10004994,,217887889,,,,,,,1,Indonesia,20002351,Jawa Timur,30006104,Kab. Gresik,40006104,Kebomas,"Jl. Dr. Wahidin S.H. No.788, Kembangan, Kebomas, Kabupaten Gresik",61124,-7.165211,112.60170,1,1,"[{'scheduleStartHour': '0900', 'scheduleEndHour': '1700', '__typename': 'DefaultSchedule'}, {'scheduleStartHour': '0900', 'scheduleEndHour': '1700', '__typename': 'DefaultSchedule'}, {'scheduleStartHour': '0900', 'scheduleEndHour': '1700', '__typename': 'DefaultSchedule'}]",Store
1022062804310,SPORTS STATION CITY HALL SLEMAN,10004993,,217887889,,,,,,,1,Indonesia,20002429,DI Yogyakarta,30002459,Kab. Sleman,40002475,Sleman,"Jalan Magelang KM 9,6 No.18 Pedukuhan Denggung, Desa, Tridadi, Kec. Sleman, Kabupaten Sleman, Daerah Istimewa Yogyakarta 55511",55511,-7.72012,110.36189,1,1,"[{'scheduleStartHour': '0900', 'scheduleEndHour': '1700', '__typename': 'DefaultSchedule'}, {'scheduleStartHour': '0900', 'scheduleEndHour': '1700', '__typename': 'DefaultSchedule'}, {'scheduleStartHour': '0900', 'scheduleEndHour': '1700', '__typename': 'DefaultSchedule'}]",Store
1022062804309,SPORTS STATION CITIMALL SUKABUMI,10004992,,217887889,,,,,,,1,Indonesia,20000422,Jawa Barat,30000810,Kab. Bogor,40000849,Cibinong,"Jl. Tegar Beriman No.1, Pakansari, Cibinong, Bogor, Jawa Barat 16915",16915,-6.48412,106.84231,1,1,"[{'scheduleStartHour': '0900', 'scheduleEndHour': '1700', '__typename': 'DefaultSchedule'}, {'scheduleStartHour': '0900', 'scheduleEndHour': '1700', '__typename': 'DefaultSchedule'}, {'scheduleStartHour': '0900', 'scheduleEndHour': '1700', '__typename': 'DefaultSchedule'}]",Store
1022062804308,SPORTS STATION JAVA SUPERMAL SEMARANG,10004991,,217887889,,,,,,,1,Indonesia,20001538,Jawa Tengah,30005921,Kota Semarang,40005926,Semarang Selatan,"Jalan Letjen MT. Haryono No. 992-994, Lamper Kidul, Semarang Selatan, Jawa Tengah 50249",50249,-7.00635,110.43264,1,1,"[{'scheduleStartHour': '0900', 'scheduleEndHour': '1700', '__typename': 'DefaultSchedule'}, {'scheduleStartHour': '0900', 'scheduleEndHour': '1700', '__typename': 'DefaultSchedule'}, {'scheduleStartHour': '0900', 'scheduleEndHour': '1700', '__typename': 'DefaultSchedule'}]",Store
1022062804307,SPORTS STATION CIBINONG CITY MALL,10004990,,217887889,,,,,,,1,Indonesia,20000422,Jawa Barat,30000810,Kab. Bogor,40000849,Cibinong,"Jl. Tegar Beriman No.1, Pakansari, Cibinong, Bogor, Jawa Barat 16915",16915,-6.48412,106.84231,1,1,"[{'scheduleStartHour': '0900', 'scheduleEndHour': '1700', '__typename': 'DefaultSchedule'}, {'scheduleStartHour': '0900', 'scheduleEndHour': '1700', '__typename': 'DefaultSchedule'}, {'scheduleStartHour': '0900', 'scheduleEndHour': '1700', '__typename': 'DefaultSchedule'}]",Store
1022062804306,SPORTS STATION GRAND MAL SOLO,10004989,,217887889,,,,,,,1,Indonesia,20001538,Jawa Tengah,30005376,Kota Surakarta,40005378,Laweyan,"Jl. Brigjend Slamet Riyadi No.451-455, Pajang, Laweyan, Kota Surakarta, Jawa Tengah 57146",57146,-7.56117,110.78837,1,1,"[{'scheduleStartHour': '0900', 'scheduleEndHour': '1700', '__typename': 'DefaultSchedule'}, {'scheduleStartHour': '0900', 'scheduleEndHour': '1700', '__typename': 'DefaultSchedule'}, {'scheduleStartHour': '0900', 'scheduleEndHour': '1700', '__typename': 'DefaultSchedule'}]",Store
1022062804305,SPORTS STATION WILLTOP TRADE CENTER JAMBI,10004988,,217887889,,,,,,,1,Indonesia,20001562,Jambi,30001692,Kota Jambi,40001692,Telanaipura," Jl. Raden Pamuk No.15, Kasang, Jambi Tim., Kota Jambi, Jambi 36123",36123,-1.58875,103.61555,1,1,"[{'scheduleStartHour': '0900', 'scheduleEndHour': '1700', '__typename': 'DefaultSchedule'}, {'scheduleStartHour': '0900', 'scheduleEndHour': '1700', '__typename': 'DefaultSchedule'}, {'scheduleStartHour': '0900', 'scheduleEndHour': '1700', '__typename': 'DefaultSchedule'}]",Store
1022062804304,SPORTS STATION PLAZA CIBUBUR,10004987,,217887889,,,,,,,1,Indonesia,20000422,Jawa Barat,30000672,Kota Bekasi,40000677,Jati Sampurna,"Plaza Cibubur Lt. 3, Jalan Alternatif Cibubur - Cileungsi KM. 2-3, Jatisampurna, Jatikarya, Jatisampurna, Kota Bks, Jawa Barat 17435",17435,-6.35608,106.87979,1,1,"[{'scheduleStartHour': '0900', 'scheduleEndHour': '1700', '__typename': 'DefaultSchedule'}, {'scheduleStartHour': '0900', 'scheduleEndHour': '1700', '__typename': 'DefaultSchedule'}, {'scheduleStartHour': '0900', 'scheduleEndHour': '1700', '__typename': 'DefaultSchedule'}]",Store
1022062804303,SPORTS STATION SOLO SQUARE,10004986,,217887889,,,,,,,1,Indonesia,20001538,Jawa Tengah,30005376,Kota Surakarta,40005378,Laweyan,"Jl. Brigjend Slamet Riyadi No.451-455, Pajang, Laweyan, Kota Surakarta, Jawa Tengah 57146",57146,-7.56117,110.78837,1,1,"[{'scheduleStartHour': '0900', 'scheduleEndHour': '1700', '__typename': 'DefaultSchedule'}, {'scheduleStartHour': '0900', 'scheduleEndHour': '1700', '__typename': 'DefaultSchedule'}, {'scheduleStartHour': '0900', 'scheduleEndHour': '1700', '__typename': 'DefaultSchedule'}]",Store
1022062804302,SPORTS STATION GH EKALOKASARI BOGOR,10004985,,217887889,,,,,,,1,Indonesia,20000422,Jawa Barat,30000850,Kota Bogor,40000852,Bogor Timur - Kota,"Jalan Siliwangi No. 123, Sukasari, Bogor Timur, Kota Bogor, Jawa Barat 16142",16142,-6.62192,106.81761,1,1,"[{'scheduleStartHour': '0900', 'scheduleEndHour': '1700', '__typename': 'DefaultSchedule'}, {'scheduleStartHour': '0900', 'scheduleEndHour': '1700', '__typename': 'DefaultSchedule'}, {'scheduleStartHour': '0900', 'scheduleEndHour': '1700', '__typename': 'DefaultSchedule'}]",Store
1022062804301,SPORTS STATION PALEMBANG SQUARE MALL,10004984,,217887889,,,,,,,1,Indonesia,20004548,Sumatera Selatan,30004763,Kota Palembang,40004772,Ilir Timur I,"Jalan Angkatan 45, Lorok Pakjo, Ilir Barat I, Kota Palembang, Sumatera Selatan 30121",30121,-2.97596,104.74179,1,1,"[{'scheduleStartHour': '0900', 'scheduleEndHour': '1700', '__typename': 'DefaultSchedule'}, {'scheduleStartHour': '0900', 'scheduleEndHour': '1700', '__typename': 'DefaultSchedule'}, {'scheduleStartHour': '0900', 'scheduleEndHour': '1700', '__typename': 'DefaultSchedule'}]",Store
1022062804300,SPORTS STATION BALE KOTA TANGERANG,10004983,,217887889,,,,,,,1,Indonesia,20001432,Banten,30006189,Kota Tangerang,40006201,Tangerang,"Mall Bale Kota, Jl. Jend. Sudirman Km. 10, Buaran Indah, Tangerang, Banten 15119",15119,-6.17903,106.64300,1,1,"[{'scheduleStartHour': '0900', 'scheduleEndHour': '1700', '__typename': 'DefaultSchedule'}, {'scheduleStartHour': '0900', 'scheduleEndHour': '1700', '__typename': 'DefaultSchedule'}, {'scheduleStartHour': '0900', 'scheduleEndHour': '1700', '__typename': 'DefaultSchedule'}]",Store
1022062804299,SPORTS STATION PACIFIC MALL TEGAL,10004982,,217887889,,,,,,,1,Indonesia,20001538,Jawa Tengah,30005661,Kota Tegal,40005662,Tegal Selatan,"Jl. Kolonel Soegiono No.155, Kemandungan, Tegal Bar., Kota Tegal, Jawa Tengah 52133",52133,-6.874567,109.11956,1,1,"[{'scheduleStartHour': '0900', 'scheduleEndHour': '1700', '__typename': 'DefaultSchedule'}, {'scheduleStartHour': '0900', 'scheduleEndHour': '1700', '__typename': 'DefaultSchedule'}, {'scheduleStartHour': '0900', 'scheduleEndHour': '1700', '__typename': 'DefaultSchedule'}]",Store
1022062804298,SPORTS STATION CITRA RAYA TANGERANG,10004981,,217887889,,,,,,,1,Indonesia,20001432,Banten,30006154,Kab. Tangerang,40006186,Cikupa,"Jl. Citra Raya Boulevard, Cikupa, Kec. Cikupa, Tangerang, Jawa Barat 15710",15710,-6.230911,106.522159,1,1,"[{'scheduleStartHour': '0900', 'scheduleEndHour': '1700', '__typename': 'DefaultSchedule'}, {'scheduleStartHour': '0900', 'scheduleEndHour': '1700', '__typename': 'DefaultSchedule'}, {'scheduleStartHour': '0900', 'scheduleEndHour': '1700', '__typename': 'DefaultSchedule'}]",Store
1022062804297,SPORTS STATION JATINANGOR TOWN SQ,10004980,,217887889,,,,,,,1,Indonesia,20000422,Jawa Barat,30000559,Kab. Sumedang,40000566,Jatinangor,"Jln Raya Jatinangor No.150, Jatinangor Town Square FF Blok C1 No 01-01A, Sumedang, Jawa Barat 45363",45363,-6.93481,107.77185,1,1,"[{'scheduleStartHour': '0900', 'scheduleEndHour': '1700', '__typename': 'DefaultSchedule'}, {'scheduleStartHour': '0900', 'scheduleEndHour': '1700', '__typename': 'DefaultSchedule'}, {'scheduleStartHour': '0900', 'scheduleEndHour': '1700', '__typename': 'DefaultSchedule'}]",Store
1022062804296,SPORTS STATION ROXY SQUARE JEMBER,10004979,,217887889,,,,,,,1,Indonesia,20002351,Jawa Timur,30002398,Kab. Jember,40007117,Jember,"Jalan Hayam Wuruk, Sempusari, Kaliwates, Kabupaten Jember, Jawa Timur 68131",68131,-8.183821,113.66293,1,1,"[{'scheduleStartHour': '0900', 'scheduleEndHour': '1700', '__typename': 'DefaultSchedule'}, {'scheduleStartHour': '0900', 'scheduleEndHour': '1700', '__typename': 'DefaultSchedule'}, {'scheduleStartHour': '0900', 'scheduleEndHour': '1700', '__typename': 'DefaultSchedule'}]",Store
1022062804295,SPORTS STATION CENTRO MANADO TOWN SQUARE,10004978,,217887889,,,,,,,1,Indonesia,20003081,Sulawesi Utara,30003237,Kota Manado,40007121,Manado,"Sario Tumpaan, Sario, Kota Manado, Sulawesi Utara 95114",95114,1.472462,124.83142,1,1,"[{'scheduleStartHour': '0900', 'scheduleEndHour': '1700', '__typename': 'DefaultSchedule'}, {'scheduleStartHour': '0900', 'scheduleEndHour': '1700', '__typename': 'DefaultSchedule'}, {'scheduleStartHour': '0900', 'scheduleEndHour': '1700', '__typename': 'DefaultSchedule'}]",Store
1022062804294,SPORTS STATION RUKO BLITAR,10004977,,217887889,,,,,,,1,Indonesia,20002351,Jawa Timur,30002718,Kota Kediri,40002744,Kediri Kota,"Jl. Hasanuddin No.2, Balowerti, Kec. Kota Kediri, Kota Kediri, Jawa Timur 64129",64129,-7.81236,112.157801,1,1,"[{'scheduleStartHour': '0900', 'scheduleEndHour': '1700', '__typename': 'DefaultSchedule'}, {'scheduleStartHour': '0900', 'scheduleEndHour': '1700', '__typename': 'DefaultSchedule'}, {'scheduleStartHour': '0900', 'scheduleEndHour': '1700', '__typename': 'DefaultSchedule'}]",Store
1022062804293,SPORTS STATION SIPIN UJUNG JAMBI,10004976,,217887889,,,,,,,1,Indonesia,20001562,Jambi,30001692,Kota Jambi,40001692,Telanaipura,"Murni, Telanaipura, Jambi City, Jambi 36124",36124,-6.21565,106.82155,1,1,"[{'scheduleStartHour': '0900', 'scheduleEndHour': '1700', '__typename': 'DefaultSchedule'}, {'scheduleStartHour': '0900', 'scheduleEndHour': '1700', '__typename': 'DefaultSchedule'}, {'scheduleStartHour': '0900', 'scheduleEndHour': '1700', '__typename': 'DefaultSchedule'}]",Store
1022062804292,SPORTS STATION SENTANI CITY SQUARE,10004975,,217887889,,,,,,,1,Indonesia,20001700,Papua,30002182,Kab. Jayapura,40002199,Sentani,"Jl. Raya Kemiri, Hinekombe, Sentani, Jayapura, Papua 61234",61234,-2.56362,140.50016,1,1,"[{'scheduleStartHour': '0900', 'scheduleEndHour': '1700', '__typename': 'DefaultSchedule'}, {'scheduleStartHour': '0900', 'scheduleEndHour': '1700', '__typename': 'DefaultSchedule'}, {'scheduleStartHour': '0900', 'scheduleEndHour': '1700', '__typename': 'DefaultSchedule'}]",Store
1022062804291,SPORTS STATION MANADO TOWN SQUARE,10004974,,217887889,,,,,,,1,Indonesia,20003081,Sulawesi Utara,30003237,Kota Manado,40007121,Manado,"Sario Tumpaan, Sario, Kota Manado, Sulawesi Utara 95114",95114,1.472462,124.83142,1,1,"[{'scheduleStartHour': '0900', 'scheduleEndHour': '1700', '__typename': 'DefaultSchedule'}, {'scheduleStartHour': '0900', 'scheduleEndHour': '1700', '__typename': 'DefaultSchedule'}, {'scheduleStartHour': '0900', 'scheduleEndHour': '1700', '__typename': 'DefaultSchedule'}]",Store
1022062804290,SPORTS STATION SIDOARJO TOWN SQUARE,10004973,,217887889,,,,,,,1,Indonesia,20002351,Jawa Timur,30003914,Kab. Sidoarjo,40006030,Sidoarjo,"Jl. Raya No.1, Jati, Kec. Sidoarjo, Kabupaten Sidoarjo, Jawa Timur 61226",61226,-7.44641,112.69826,1,1,"[{'scheduleStartHour': '0900', 'scheduleEndHour': '1700', '__typename': 'DefaultSchedule'}, {'scheduleStartHour': '0900', 'scheduleEndHour': '1700', '__typename': 'DefaultSchedule'}, {'scheduleStartHour': '0900', 'scheduleEndHour': '1700', '__typename': 'DefaultSchedule'}]",Store
1022062804289,SPORTS STATION BATU TOWN SQUARE MALANG,10004972,,217887889,,,,,,,1,Indonesia,20002351,Jawa Timur,30003970,Kota Batu,40003972,Batu,"Jl. Diponegoro No. 1 GF# 27-30, Sisir, Kecamatan Batu, Kota Batu, Jawa Timur, 65314",65314,-7.87869,112.53475,1,1,"[{'scheduleStartHour': '0900', 'scheduleEndHour': '1700', '__typename': 'DefaultSchedule'}, {'scheduleStartHour': '0900', 'scheduleEndHour': '1700', '__typename': 'DefaultSchedule'}, {'scheduleStartHour': '0900', 'scheduleEndHour': '1700', '__typename': 'DefaultSchedule'}]",Store
1022062804288,SPORTS STATION KEDIRI TOWN SQUARE,10004971,,217887889,,,,,,,1,Indonesia,20002351,Jawa Timur,30002718,Kota Kediri,40002744,Kediri Kota,"Jl. Hasanuddin No.2, Balowerti, Kec. Kota Kediri, Kota Kediri, Jawa Timur 64129",64129,-7.81236,112.157801,1,1,"[{'scheduleStartHour': '0900', 'scheduleEndHour': '1700', '__typename': 'DefaultSchedule'}, {'scheduleStartHour': '0900', 'scheduleEndHour': '1700', '__typename': 'DefaultSchedule'}, {'scheduleStartHour': '0900', 'scheduleEndHour': '1700', '__typename': 'DefaultSchedule'}]",Store
1022062804287,SPORTS STATION MALUKU CITY MALL,10004970,,217887889,,,,,,,1,Indonesia,20000001,Nusa Tenggara Barat (NTB),30000019,Kab. Sumbawa Barat,40000020,Maluk,Jl. Sultan Hassanuddin-Tantui 97127,97127,-3.670311,128.19802,1,1,"[{'scheduleStartHour': '0900', 'scheduleEndHour': '1700', '__typename': 'DefaultSchedule'}, {'scheduleStartHour': '0900', 'scheduleEndHour': '1700', '__typename': 'DefaultSchedule'}, {'scheduleStartHour': '0900', 'scheduleEndHour': '1700', '__typename': 'DefaultSchedule'}]",Store
1022062804286,SPORTS STATION MALL JAYAPURA,10004969,,217887889,,,,,,,1,Indonesia,20001700,Papua,30002190,Kota Jayapura,40007113,Jayapura,"Jalan Sam Ratulangi A.P.O, Bayangkara, Jayapura Utara, Kota Jayapura, Papua 99112",99112,-2.53527,140.70610,1,1,"[{'scheduleStartHour': '0900', 'scheduleEndHour': '1700', '__typename': 'DefaultSchedule'}, {'scheduleStartHour': '0900', 'scheduleEndHour': '1700', '__typename': 'DefaultSchedule'}, {'scheduleStartHour': '0900', 'scheduleEndHour': '1700', '__typename': 'DefaultSchedule'}]",Store
1022062804285,SPORTS STATION MANDAU CITY PEKANBARU,10004968,,217887889,,,,,,,1,Indonesia,20004284,Riau,30004399,Kab. Bengkalis,40004404,Mandau,"Jl. Jend. Sudirman, Komp Duri Indah, Lt dasar Blok B7-B9 28784",28784,0.499493,101.41772,1,1,"[{'scheduleStartHour': '0900', 'scheduleEndHour': '1700', '__typename': 'DefaultSchedule'}, {'scheduleStartHour': '0900', 'scheduleEndHour': '1700', '__typename': 'DefaultSchedule'}, {'scheduleStartHour': '0900', 'scheduleEndHour': '1700', '__typename': 'DefaultSchedule'}]",Store
1022062804284,SPORTS STATION GORONTALO MALL,10004967,,217887889,,,,,,,1,Indonesia,20002274,Gorontalo,30002342,Kota Gorontalo,40007116,Gorontalo,"Jl. Sultan Boututihe No. 68, Ipilo, Kota Timur, Heledulaa Sel., Kota Tim, Gorontalo 96134",96134,0.537485,123.623101,1,1,"[{'scheduleStartHour': '0900', 'scheduleEndHour': '1700', '__typename': 'DefaultSchedule'}, {'scheduleStartHour': '0900', 'scheduleEndHour': '1700', '__typename': 'DefaultSchedule'}, {'scheduleStartHour': '0900', 'scheduleEndHour': '1700', '__typename': 'DefaultSchedule'}]",Store
1022062804283,SPORTS STATION RUKO UBUD BALI,10004966,,217887889,,,,,,,1,Indonesia,20002217,Bali,30002251,Kab. Gianyar,40002251,Ubud,"Lingkar Ubud Kelod, Gianyar-Ubud 80571",80571,-8.51134,115.26112,1,1,"[{'scheduleStartHour': '0900', 'scheduleEndHour': '1700', '__typename': 'DefaultSchedule'}, {'scheduleStartHour': '0900', 'scheduleEndHour': '1700', '__typename': 'DefaultSchedule'}, {'scheduleStartHour': '0900', 'scheduleEndHour': '1700', '__typename': 'DefaultSchedule'}]",Store
1022062804282,SPORTS STATION KOTA KASABLANKA,10004965,,1500627,,,,,,,1,Indonesia,20001388,DKI Jakarta,30001414,Kota Jakarta Selatan,40001415,Tebet,"Jl. Casablanca No.Kav. 88, RT.16/RW.5, Menteng Dalam, Tebet, Kota Jakarta Selatan",12870,-6.223949,106.842691,1,1,"[{'scheduleStartHour': '0900', 'scheduleEndHour': '1700', '__typename': 'DefaultSchedule'}, {'scheduleStartHour': '0900', 'scheduleEndHour': '1700', '__typename': 'DefaultSchedule'}, {'scheduleStartHour': '0900', 'scheduleEndHour': '1700', '__typename': 'DefaultSchedule'}]",Store
1022062804281,SPORTS STATION LIPPO PLAZA LUBUK LINGGAU,10004964,,1500627,,,,,,,1,Indonesia,20004548,Sumatera Selatan,30004548,Kota Lubuk Linggau,40004555,Lubuk Linggau Barat Satu (I),"Taba Jemekeh, Lubuk Linggau Tim. I, Kota Lubuklinggau, Sumatera Selatan 31613",31613,-3.28795,102.87792,1,1,"[{'scheduleStartHour': '0900', 'scheduleEndHour': '1700', '__typename': 'DefaultSchedule'}, {'scheduleStartHour': '0900', 'scheduleEndHour': '1700', '__typename': 'DefaultSchedule'}, {'scheduleStartHour': '0900', 'scheduleEndHour': '1700', '__typename': 'DefaultSchedule'}]",Store
1022062804280,SPORTS STATION NIPAH MALL MAKASSAR,10004963,,1500627,,,,,,,1,Indonesia,20006724,Sulawesi Selatan,30006724,Kota Makassar,40006737,Makassar,"Jl. Urip Sumoharjo No.23c, Maccini, Kec. Makassar, Kota Makassar, Sulawesi Selatan 90144",90144,-5.13896,119.45001,1,1,"[{'scheduleStartHour': '0900', 'scheduleEndHour': '1700', '__typename': 'DefaultSchedule'}, {'scheduleStartHour': '0900', 'scheduleEndHour': '1700', '__typename': 'DefaultSchedule'}, {'scheduleStartHour': '0900', 'scheduleEndHour': '1700', '__typename': 'DefaultSchedule'}]",Store
1022062804279,SPORTS STATION GRAND MALL MAROS,10004962,,1500627,,,,,,,1,Indonesia,20006724,Sulawesi Selatan,30006842,Kab. Maros,40006845,Mandai,"Jalan Poros Makassar - Maros No.53, Bontoa, Mandai, Kabupaten Maros, Sulawesi Selatan 90552",90552,-5.04957,119.55280,1,1,"[{'scheduleStartHour': '0900', 'scheduleEndHour': '1700', '__typename': 'DefaultSchedule'}, {'scheduleStartHour': '0900', 'scheduleEndHour': '1700', '__typename': 'DefaultSchedule'}, {'scheduleStartHour': '0900', 'scheduleEndHour': '1700', '__typename': 'DefaultSchedule'}]",Store
1022062804278,SPORTS STATION DIANA SHOPPING CENTER MIMIKA,10004961,,1500627,,,,,,,1,Indonesia,20001700,Papua,30006202,Kab. Mimika,40006210,Mimika Timur Jauh,"Jl. Budi Utomo No.8, Kwamki, Mimika Baru, Kabupaten Mimika, Papua 99971",99971,-4.54268,136.88368,1,1,"[{'scheduleStartHour': '0900', 'scheduleEndHour': '1700', '__typename': 'DefaultSchedule'}, {'scheduleStartHour': '0900', 'scheduleEndHour': '1700', '__typename': 'DefaultSchedule'}, {'scheduleStartHour': '0900', 'scheduleEndHour': '1700', '__typename': 'DefaultSchedule'}]",Store
1022062804277,SPORTS STATION RUKO PATIMURA PADANG,10004960,,1500627,,,,,,,1,Indonesia,20002351,Jawa Timur,30006122,Kota Surabaya,40006146,Genteng,"Jl. Patimura No. 22, Kampung Jao, Padang Barat, Kp. Jao, Padang Bar., Kota Padang, Sumatera Barat",60271,-0.943495,100.35813,1,1,"[{'scheduleStartHour': '0900', 'scheduleEndHour': '1700', '__typename': 'DefaultSchedule'}, {'scheduleStartHour': '0900', 'scheduleEndHour': '1700', '__typename': 'DefaultSchedule'}, {'scheduleStartHour': '0900', 'scheduleEndHour': '1700', '__typename': 'DefaultSchedule'}]",Store
1022062804276,SPORTS STATION RUKO SUDIRMAN LAMPUNG,10004959,,1500627,,,,,,,1,Indonesia,20006232,Lampung,30006420,Kab. Lampung Selatan,40006434,Penengahan,"JL. Trans.Sumatra, Terbanggi Ilir, Bandar Mataram, Lampung Selatan, Lampung 35592",35592,-4.55858,105.40680,1,1,"[{'scheduleStartHour': '0900', 'scheduleEndHour': '1700', '__typename': 'DefaultSchedule'}, {'scheduleStartHour': '0900', 'scheduleEndHour': '1700', '__typename': 'DefaultSchedule'}, {'scheduleStartHour': '0900', 'scheduleEndHour': '1700', '__typename': 'DefaultSchedule'}]",Store
1022062804275,SPORTS STATION RUKO BUKITTINGGI PADANG,10004958,,1500627,,,,,,,1,Indonesia,20004070,Sumatera Barat,30004238,Kota Padang,40004242,Padang Barat,"Jl. Batang Arau 31, Berok Nipah, Padang Bar., Kota Padang, Sumatera Barat",25118,-0.965300,100.35264,1,1,"[{'scheduleStartHour': '0900', 'scheduleEndHour': '1700', '__typename': 'DefaultSchedule'}, {'scheduleStartHour': '0900', 'scheduleEndHour': '1700', '__typename': 'DefaultSchedule'}, {'scheduleStartHour': '0900', 'scheduleEndHour': '1700', '__typename': 'DefaultSchedule'}]",Store
1022062804274,SPORTS STATION RUKO GATOT SUBROTO DENPASAR BALI,10004957,,1500627,,,,,,,1,Indonesia,20002217,Bali,30002270,Kota Denpasar,40002270,Denpasar Utara,"Jl. Gatot Subroto Barat, Pemecutan Kaja, Denpasar Utara, Kota Denpasar, Bali 80116",80116,-8.63744,115.19854,1,1,"[{'scheduleStartHour': '0900', 'scheduleEndHour': '1700', '__typename': 'DefaultSchedule'}, {'scheduleStartHour': '0900', 'scheduleEndHour': '1700', '__typename': 'DefaultSchedule'}, {'scheduleStartHour': '0900', 'scheduleEndHour': '1700', '__typename': 'DefaultSchedule'}]",Store
1022062804273,SPORTS STATION ARMADA TOWN SQUARE,10004956,,1500627,,,,,,,1,Indonesia,20001538,Jawa Tengah,30003772,Kab. Magelang,40003785,Mertoyudan,"Jl. Mayjend Bambang Soegeng No.1, Mertoyudan, Kabupaten Magelang, Jawa Tengah, 56172",56172,-7.50365,110.22431,1,1,"[{'scheduleStartHour': '0900', 'scheduleEndHour': '1700', '__typename': 'DefaultSchedule'}, {'scheduleStartHour': '0900', 'scheduleEndHour': '1700', '__typename': 'DefaultSchedule'}, {'scheduleStartHour': '0900', 'scheduleEndHour': '1700', '__typename': 'DefaultSchedule'}]",Store
1022062804272,SPORTS STATION RUKO PALANGKARAYA,10004955,,1500627,,,,,,,1,Indonesia,20000253,Kalimantan Tengah,30004452,Kab. Pulang Pisau,40004452,Sebangau Kuala,"Pahandut, Jekan Raya, Palangka Raya City, Central Kalimantan 74874",74874,-2.20678,113.93793,1,1,"[{'scheduleStartHour': '0900', 'scheduleEndHour': '1700', '__typename': 'DefaultSchedule'}, {'scheduleStartHour': '0900', 'scheduleEndHour': '1700', '__typename': 'DefaultSchedule'}, {'scheduleStartHour': '0900', 'scheduleEndHour': '1700', '__typename': 'DefaultSchedule'}]",Store
1022062804271,SPORTS STATION MAYASARI PLAZA TASIKMALAYA,10004954,,1500627,,,,,,,1,Indonesia,20000422,Jawa Barat,30006600,Kota Tasikmalaya,40006606,Cihideung,"Jl. Pasar Wetan No. 11, Argasari, Cihideung, Argasari, TASIKMALAYA, Jawa Barat 46122",46122,-7.32737,108.21562,1,1,"[{'scheduleStartHour': '0900', 'scheduleEndHour': '1700', '__typename': 'DefaultSchedule'}, {'scheduleStartHour': '0900', 'scheduleEndHour': '1700', '__typename': 'DefaultSchedule'}, {'scheduleStartHour': '0900', 'scheduleEndHour': '1700', '__typename': 'DefaultSchedule'}]",Store
1022062804270,SPORTS STATION RUKO KOTAMOBAGU,10004953,,1500627,,,,,,,1,Indonesia,20003081,Sulawesi Utara,30003084,Kota Kotamobagu,40003087,Kotamobagu Barat,"Jl. Adampe Dolot No. 33, Mogolaing 95711",95711,0.736089,124.30670,1,1,"[{'scheduleStartHour': '0900', 'scheduleEndHour': '1700', '__typename': 'DefaultSchedule'}, {'scheduleStartHour': '0900', 'scheduleEndHour': '1700', '__typename': 'DefaultSchedule'}, {'scheduleStartHour': '0900', 'scheduleEndHour': '1700', '__typename': 'DefaultSchedule'}]",Store
1022062804269,SPORTS STATION RUKO RADEN INTEN LAMPUNG,10004952,,1500627,,,,,,,1,Indonesia,20006232,Lampung,30006420,Kab. Lampung Selatan,40006433,Natar,"Jl. Raden Inten, Desa Pelita TjKara 35362",35362,-5.42179,105.25792,1,1,"[{'scheduleStartHour': '0900', 'scheduleEndHour': '1700', '__typename': 'DefaultSchedule'}, {'scheduleStartHour': '0900', 'scheduleEndHour': '1700', '__typename': 'DefaultSchedule'}, {'scheduleStartHour': '0900', 'scheduleEndHour': '1700', '__typename': 'DefaultSchedule'}]",Store
1022062804268,SPORTS STATION RUKO HASANUDDIN PALU,10004951,,1500627,,,,,,,1,Indonesia,20004779,Sulawesi Tengah,30004857,Kota Palu,40004949,Mantikulore,"Lolu Sel., Kec. Palu Sel., Kota Palu, Sulawesi Tengah 94111",94111,-0.907760,119.87598,1,1,"[{'scheduleStartHour': '0900', 'scheduleEndHour': '1700', '__typename': 'DefaultSchedule'}, {'scheduleStartHour': '0900', 'scheduleEndHour': '1700', '__typename': 'DefaultSchedule'}, {'scheduleStartHour': '0900', 'scheduleEndHour': '1700', '__typename': 'DefaultSchedule'}]",Store
1022062804267,SPORTS STATION RUKO BANJAR JAMBI,10004950,,1500627,,,,,,,1,Indonesia,20001562,Jambi,30001692,Kota jambi,40001692,Telanaipura,"Jl. Gr. Djamin Datuk Bagindo No.1042, Talang Banjar, Jambi Tim., Kota Jambi, Jambi 36122",36122,-1.59838,103.60444,1,1,"[{'scheduleStartHour': '0900', 'scheduleEndHour': '1700', '__typename': 'DefaultSchedule'}, {'scheduleStartHour': '0900', 'scheduleEndHour': '1700', '__typename': 'DefaultSchedule'}, {'scheduleStartHour': '0900', 'scheduleEndHour': '1700', '__typename': 'DefaultSchedule'}]",Store
1022062804266,SPORTS STATION PLAZA MADIUN,10004949,,1500627,,,,,,,1,Indonesia,20002351,Jawa Timur,30003332,Kota Madiun,40003333,Manguharjo,"Jl. Pahlawan, Pangongangan, Mangu Harjo, Kota Madiun, Jawa Timur 63121",63121,-7.62581,111.51984,1,1,"[{'scheduleStartHour': '0900', 'scheduleEndHour': '1700', '__typename': 'DefaultSchedule'}, {'scheduleStartHour': '0900', 'scheduleEndHour': '1700', '__typename': 'DefaultSchedule'}, {'scheduleStartHour': '0900', 'scheduleEndHour': '1700', '__typename': 'DefaultSchedule'}]",Store
1022062804265,SPORTS STATION ROXY SITUBONDO,10004948,,1500627,,,,,,,1,Indonesia,20002351,Jawa Timur,30004003,Kab. Situbondo,40004003,Panji,"Jl. Basuki Rahmat No.11, Mimbaan Utara, Mimbaan, Kec. Panji, Kabupaten Situbondo, Jawa Timur 68323",68323,-7.699465,114.22570,1,1,"[{'scheduleStartHour': '0900', 'scheduleEndHour': '1700', '__typename': 'DefaultSchedule'}, {'scheduleStartHour': '0900', 'scheduleEndHour': '1700', '__typename': 'DefaultSchedule'}, {'scheduleStartHour': '0900', 'scheduleEndHour': '1700', '__typename': 'DefaultSchedule'}]",Store
1022062804263,SPORTS STATION KUALA NAMU AIRPORT MEDAN,10004946,,1500627,,,,,,,1,Indonesia,20003336,Sumatera Utara,30003665,Kab. Deli Serdang,40003672,Pantai Labu,"Jl. Bandara Kuala Namu, Beringin, Kabupaten Deli Serdang, Sumatera Utara 20553",20553,3.613059,98.856382,1,1,"[{'scheduleStartHour': '0900', 'scheduleEndHour': '1700', '__typename': 'DefaultSchedule'}, {'scheduleStartHour': '0900', 'scheduleEndHour': '1700', '__typename': 'DefaultSchedule'}, {'scheduleStartHour': '0900', 'scheduleEndHour': '1700', '__typename': 'DefaultSchedule'}]",Store
1022062804262,SPORTS STATION RUKO MARELAN MEDAN,10004945,,1500627,,,,,,,1,Indonesia,20003336,Sumatera Utara,30003751,Kota Medan,40003760,Medan Marelan,"Jl. Marelan Raya Ps. II, Rengas Pulau, Medan Marelan, Kota Medan, Sumatera Utara 20245",20245,3.702221,98.658257,1,1,"[{'scheduleStartHour': '0900', 'scheduleEndHour': '1700', '__typename': 'DefaultSchedule'}, {'scheduleStartHour': '0900', 'scheduleEndHour': '1700', '__typename': 'DefaultSchedule'}, {'scheduleStartHour': '0900', 'scheduleEndHour': '1700', '__typename': 'DefaultSchedule'}]",Store
1022062804261,SPORTS STATION MEDAN MALL,10004944,,1500627,,,,,,,1,Indonesia,20003336,Sumatera Utara,30003751,Kota Medan,40003759,Medan Perjuangan,"Jalan Gatot Subroto Medan, Medan Petisah, Sekip, Medan Petisah, Kota Medan, Sumatera Utara 20236",20236,3.59237,98.67057,1,1,"[{'scheduleStartHour': '0900', 'scheduleEndHour': '1700', '__typename': 'DefaultSchedule'}, {'scheduleStartHour': '0900', 'scheduleEndHour': '1700', '__typename': 'DefaultSchedule'}, {'scheduleStartHour': '0900', 'scheduleEndHour': '1700', '__typename': 'DefaultSchedule'}]",Store
1022062804260,SPORTS STATION MEDAN MAL,10004943,,1500627,,,,,,,1,Indonesia,20003336,Sumatera Utara,30003751,Kota Medan,40003759,Medan Perjuangan,"Jalan Gatot Subroto Medan, Medan Petisah, Sekip, Medan Petisah, Kota Medan, Sumatera Utara 20236",20236,3.59237,98.67057,1,1,"[{'scheduleStartHour': '0900', 'scheduleEndHour': '1700', '__typename': 'DefaultSchedule'}, {'scheduleStartHour': '0900', 'scheduleEndHour': '1700', '__typename': 'DefaultSchedule'}, {'scheduleStartHour': '0900', 'scheduleEndHour': '1700', '__typename': 'DefaultSchedule'}]",Store
1022062804259,SPORTS STATION MANHATTAN TIMES SQ MEDAN,10004942,,1500627,,,,,,,1,Indonesia,20003336,Sumatera Utara,30003751,Kota Medan,40003751,Medan Sunggal,"Jl. Gatot Subroto No.217, Sei Sikambing B, Medan Sunggal, Kota Medan, Sumatera Utara 20123",20123,3.590351,98.626345,1,1,"[{'scheduleStartHour': '0900', 'scheduleEndHour': '1700', '__typename': 'DefaultSchedule'}, {'scheduleStartHour': '0900', 'scheduleEndHour': '1700', '__typename': 'DefaultSchedule'}, {'scheduleStartHour': '0900', 'scheduleEndHour': '1700', '__typename': 'DefaultSchedule'}]",Store
1022062804258,SPORTS STATION SOGO SUN PLAZA MEDAN,10004941,,1500627,,,,,,,1,Indonesia,20003336,Sumatera Utara,30003751,Kota Medan,40003757,Medan Polonia,"Jalan Kh. Zainul Arifin No. 7, Madras Hulu, Medan Polonia, Kota Medan, Sumatera Utara 20152",20152,3.58329936250402,98.6715587365169,1,1,"[{'scheduleStartHour': '0900', 'scheduleEndHour': '1700', '__typename': 'DefaultSchedule'}, {'scheduleStartHour': '0900', 'scheduleEndHour': '1700', '__typename': 'DefaultSchedule'}, {'scheduleStartHour': '0900', 'scheduleEndHour': '1700', '__typename': 'DefaultSchedule'}]",Store
1022062804257,SPORTS STATION RUKO MALANG,10004940,,1500627,,,,,,,1,Indonesia,20002351,Jawa Timur,30003998,Kota Malang,40003999,Lowokwaru,"Jl. M.T. Haryono No.127, Dinoyo, Kec. Lowokwaru, Kota Malang, Jawa Timur 65144",65144,-7.94183,112.609612,1,1,"[{'scheduleStartHour': '0900', 'scheduleEndHour': '1700', '__typename': 'DefaultSchedule'}, {'scheduleStartHour': '0900', 'scheduleEndHour': '1700', '__typename': 'DefaultSchedule'}, {'scheduleStartHour': '0900', 'scheduleEndHour': '1700', '__typename': 'DefaultSchedule'}]",Store
1022062804256,SPORTS STATION RUKO TENTARA PELAJAR ACEH,10004939,,1500627,,,,,,,1,Indonesia,20000965,Nanggroe Aceh Darussalam (NAD),30001245,Kota Banda Aceh,40001250,Baiturrahman,Jl. Tentara Pelajar no.161 A - B,23242,5.53714,95.30738,1,1,"[{'scheduleStartHour': '0900', 'scheduleEndHour': '1700', '__typename': 'DefaultSchedule'}, {'scheduleStartHour': '0900', 'scheduleEndHour': '1700', '__typename': 'DefaultSchedule'}, {'scheduleStartHour': '0900', 'scheduleEndHour': '1700', '__typename': 'DefaultSchedule'}]",Store
1022062804255,SPORTS STATION RUKO BEURAWE ACEH,10004938,,1500627,,,,,,,1,Indonesia,20000965,Nanggroe Aceh Darussalam (NAD),30001240,Kota Langsa,40001240,Langsa Baro,"Jl. Tengku Hasan di Bakoi, Beurawe, Kuta Alam, Kabupaten Aceh Besar, Aceh",24415,5.55395,95.330658,1,1,"[{'scheduleStartHour': '0900', 'scheduleEndHour': '1700', '__typename': 'DefaultSchedule'}, {'scheduleStartHour': '0900', 'scheduleEndHour': '1700', '__typename': 'DefaultSchedule'}, {'scheduleStartHour': '0900', 'scheduleEndHour': '1700', '__typename': 'DefaultSchedule'}]",Store
1022062804254,SPORTS STATION PLAZA MEDAN FAIR,10004937,,1500627,,,,,,,1,Indonesia,20003336,Sumatera Utara,30003751,Kota Medan,40003758,Medan Petisah,"Jalan Gatot Subroto Medan, Medan Petisah, Sekip, Medan Petisah, Kota Medan, Sumatera Utara 20236",20236,3.593466602,98.66407179,1,1,"[{'scheduleStartHour': '0900', 'scheduleEndHour': '1700', '__typename': 'DefaultSchedule'}, {'scheduleStartHour': '0900', 'scheduleEndHour': '1700', '__typename': 'DefaultSchedule'}, {'scheduleStartHour': '0900', 'scheduleEndHour': '1700', '__typename': 'DefaultSchedule'}]",Store
1022062804253,SPORTS STATION BINJAI SUPERMAL,10004936,,1500627,,,,,,,1,Indonesia,20003336,Sumatera Utara,30003644,Kota Binjai,40003645,Binjai Timur,"Jl. Soekarno- Hatta No.14, Timbang Langkat, Binjai Tim., Kota Binjai, Sumatera Utara 20735",20735,3.608252,98.496553,1,1,"[{'scheduleStartHour': '0900', 'scheduleEndHour': '1700', '__typename': 'DefaultSchedule'}, {'scheduleStartHour': '0900', 'scheduleEndHour': '1700', '__typename': 'DefaultSchedule'}, {'scheduleStartHour': '0900', 'scheduleEndHour': '1700', '__typename': 'DefaultSchedule'}]",Store
1022062804252,SPORTS STATION CAMBRIDGE CITY MEDAN,10004935,,1500627,,,,,,,1,Indonesia,20003336,Sumatera Utara,30003751,Kota Medan,40003758,Medan Petisah,"Jl. Letjen S. Parman No. 250, Petisah Tengah, Medan Petisah, Kota Medan, Sumatera Utara, 20151",20151,3.593466602,98.66407179,1,1,"[{'scheduleStartHour': '0900', 'scheduleEndHour': '1700', '__typename': 'DefaultSchedule'}, {'scheduleStartHour': '0900', 'scheduleEndHour': '1700', '__typename': 'DefaultSchedule'}, {'scheduleStartHour': '0900', 'scheduleEndHour': '1700', '__typename': 'DefaultSchedule'}]",Store
1022062804251,SPORTS STATION RUKO GATOT SUBROTO MEDAN,10004934,,1500627,,,,,,,1,Indonesia,20003336,Sumatera Utara,30003751,Kota Medan,40003758,Medan Petisah,"Jl. Jend Gatot Subroto No.64, Sei Putih Tengah, Medan Petisah, Kota Medan, Sumatera Utara 20114",20114,3.593466602,98.66407179,1,1,"[{'scheduleStartHour': '0900', 'scheduleEndHour': '1700', '__typename': 'DefaultSchedule'}, {'scheduleStartHour': '0900', 'scheduleEndHour': '1700', '__typename': 'DefaultSchedule'}, {'scheduleStartHour': '0900', 'scheduleEndHour': '1700', '__typename': 'DefaultSchedule'}]",Store
1022062804250,SPORTS STATION RUKO SETIABUDI MEDAN,10004933,,1500627,,,,,,,1,Indonesia,20003336,Sumatera Utara,30003751,Kota Medan,40003751,Medan Sunggal,"Jl. Setia Budi No.203 B, Tj. Rejo, Medan Sunggal, Kota Medan, Sumatera Utara 20122",20122,3.590351,98.626345,1,1,"[{'scheduleStartHour': '0900', 'scheduleEndHour': '1700', '__typename': 'DefaultSchedule'}, {'scheduleStartHour': '0900', 'scheduleEndHour': '1700', '__typename': 'DefaultSchedule'}, {'scheduleStartHour': '0900', 'scheduleEndHour': '1700', '__typename': 'DefaultSchedule'}]",Store
1022062804249,SPORTS STATION RUKO PEMATANG SIANTAR,10004932,,1500627,,,,,,,1,Indonesia,20003336,Sumatera Utara,30003354,Kota Pematang Siantar,40003357,Siantar Timur,"Jl. Pattimura, Pahlawan, Siantar Tim., Kota Pematang Siantar, Sumatera Utara 21136",21136,2.96023,99.073349,1,1,"[{'scheduleStartHour': '0900', 'scheduleEndHour': '1700', '__typename': 'DefaultSchedule'}, {'scheduleStartHour': '0900', 'scheduleEndHour': '1700', '__typename': 'DefaultSchedule'}, {'scheduleStartHour': '0900', 'scheduleEndHour': '1700', '__typename': 'DefaultSchedule'}]",Store
1022062804248,SPORTS STATION RUKO KRAKATAU MEDAN,10004931,,1500627,,,,,,,1,Indonesia,20003336,Sumatera Utara,30003751,Kota Medan,40003754,Medan Timur,"Jl. Gunung Krakatau No.60, Glugur Darat I, Medan Tim., Kota Medan, Sumatera Utara 20239",20239,3.591958494948720,98.68109371250180,1,1,"[{'scheduleStartHour': '0900', 'scheduleEndHour': '1700', '__typename': 'DefaultSchedule'}, {'scheduleStartHour': '0900', 'scheduleEndHour': '1700', '__typename': 'DefaultSchedule'}, {'scheduleStartHour': '0900', 'scheduleEndHour': '1700', '__typename': 'DefaultSchedule'}]",Store
1022062804247,SPORTS STATION SILIWANGI BANDUNG,10004930,,1500627,,,,,,,1,Indonesia,20000422,Jawa Barat,30000619,Kota Bandung,40000623,Sumur Bandung,"Jl. Aceh No.66, Merdeka, Sumur Bandung, Kota Bandung, Jawa Barat 40113",40113,-5.13896,119.45001,1,1,"[{'scheduleStartHour': '0900', 'scheduleEndHour': '1700', '__typename': 'DefaultSchedule'}, {'scheduleStartHour': '0900', 'scheduleEndHour': '1700', '__typename': 'DefaultSchedule'}, {'scheduleStartHour': '0900', 'scheduleEndHour': '1700', '__typename': 'DefaultSchedule'}]",Store
1022062804246,SPORTS STATION Q MALL BANJARBARU,10004929,,1500627,,,,,,,1,Indonesia,20000235,Kalimantan Selatan,30000357,Kota Banjarbaru,40000358,Banjar Baru Utara,"Jln A.Yani KM. 36.8, Komet, Banjar Baru Utara, Komet, Banjar Baru Utara, Kota Banjar Baru, Kal-sel",70714,-5.13896,119.45001,1,1,"[{'scheduleStartHour': '0900', 'scheduleEndHour': '1700', '__typename': 'DefaultSchedule'}, {'scheduleStartHour': '0900', 'scheduleEndHour': '1700', '__typename': 'DefaultSchedule'}, {'scheduleStartHour': '0900', 'scheduleEndHour': '1700', '__typename': 'DefaultSchedule'}]",Store
1022062804245,SPORTS STATION MEGA SORONG,10004928,,1500627,,,,,,,1,Indonesia,20005381,Papua Barat,30005554,Kota Sorong,40005571,Sorong Barat,"Jalan Basuki Rahmat, Klabulu, Malaimsimsa, Malaingkedi, Sorong Utara, Kota Sorong, Papua Bar. 98412",98412,-5.13896,119.45001,1,1,"[{'scheduleStartHour': '0900', 'scheduleEndHour': '1700', '__typename': 'DefaultSchedule'}, {'scheduleStartHour': '0900', 'scheduleEndHour': '1700', '__typename': 'DefaultSchedule'}, {'scheduleStartHour': '0900', 'scheduleEndHour': '1700', '__typename': 'DefaultSchedule'}]",Store
1022062804244,SPORTS STATION LIPPO MALL YOGYAKARTA,10004927,,1500627,,,,,,,1,Indonesia,20002429,DI Yogyakarta,30002493,Kota Yogyakarta,40002502,Gondokusuman,"Jl. Laksda Adisucipto No. 32-34, Demangan, Gondokusuman, Demangan, Gondokusuman, Kota Yogyakarta",55221,-5.13896,119.45001,1,1,"[{'scheduleStartHour': '0900', 'scheduleEndHour': '1700', '__typename': 'DefaultSchedule'}, {'scheduleStartHour': '0900', 'scheduleEndHour': '1700', '__typename': 'DefaultSchedule'}, {'scheduleStartHour': '0900', 'scheduleEndHour': '1700', '__typename': 'DefaultSchedule'}]",Store
1022062804243,SPORTS STATION SUN EAST MALL BANYUWANGI,10004926,,1500627,,,,,,,1,Indonesia,20002351,Jawa Timur,30002374,Kab. Banyuwangi,40002393,Genteng,"Jalan Diponegoro No. 11, Genteng, Genteng Kulon, Banyuwangi, Kabupaten Banyuwangi, Jawa Timur 68465",68465,-5.13896,119.45001,1,1,"[{'scheduleStartHour': '0900', 'scheduleEndHour': '1700', '__typename': 'DefaultSchedule'}, {'scheduleStartHour': '0900', 'scheduleEndHour': '1700', '__typename': 'DefaultSchedule'}, {'scheduleStartHour': '0900', 'scheduleEndHour': '1700', '__typename': 'DefaultSchedule'}]",Store
1022062804242,SPORTS STATION PASAR ATOM MALL SURABAYA,10004925,,1500627,,,,,,,1,Indonesia,20002351,Jawa Timur,30006122,Kota Surabaya,40006137,Pabean Cantikan,"Ps. Atom Tahap III, Jl. Bunguran No.45, Bongkaran, Pabean Cantian, Kota SBY, Jawa Timur 60161",60161,-5.13896,119.45001,1,1,"[{'scheduleStartHour': '0900', 'scheduleEndHour': '1700', '__typename': 'DefaultSchedule'}, {'scheduleStartHour': '0900', 'scheduleEndHour': '1700', '__typename': 'DefaultSchedule'}, {'scheduleStartHour': '0900', 'scheduleEndHour': '1700', '__typename': 'DefaultSchedule'}]",Store
1022062804241,SPORTS STATION MAYOFIELD CILEGON,10004924,,1500627,,,,,,,1,Indonesia,20001432,Banten,30001530,Kota Cilegon,40001530,Purwakarta,"Jalan Jenderal Sudirman, Ramanuju, Purwakarta, Cilegon, Banten 42431",42431,-5.13896,119.45001,1,1,"[{'scheduleStartHour': '0900', 'scheduleEndHour': '1700', '__typename': 'DefaultSchedule'}, {'scheduleStartHour': '0900', 'scheduleEndHour': '1700', '__typename': 'DefaultSchedule'}, {'scheduleStartHour': '0900', 'scheduleEndHour': '1700', '__typename': 'DefaultSchedule'}]",Store
1022062804240,SPORTS STATION ROXY BANYUWANGI,10004923,,1500627,,,,,,,1,Indonesia,20002351,Jawa timur,30002374,Kab. Banyuwangi,40002393,Genteng,"Jalan Diponegoro No. 11, Genteng, Genteng Kulon, Banyuwangi, Kabupaten Banyuwangi, Jawa Timur 68465",68465,-8.36455,114.147568,1,1,"[{'scheduleStartHour': '0900', 'scheduleEndHour': '1700', '__typename': 'DefaultSchedule'}, {'scheduleStartHour': '0900', 'scheduleEndHour': '1700', '__typename': 'DefaultSchedule'}, {'scheduleStartHour': '0900', 'scheduleEndHour': '1700', '__typename': 'DefaultSchedule'}]",Store
1022062804239,SPORTS STATION NAGOYA HILL BATAM,10004922,,1500627,,,,,,,1,Indonesia,20000913,Kepulauan Riau,30000953,Kota Batam,40000954,Bengkong,"Jl. Teuku Umar, Lubuk Baja Kota, Batam, Kota Batam, Kepulauan Riau 29432",29432,1.1439,104.01845,1,1,"[{'scheduleStartHour': '0900', 'scheduleEndHour': '1700', '__typename': 'DefaultSchedule'}, {'scheduleStartHour': '0900', 'scheduleEndHour': '1700', '__typename': 'DefaultSchedule'}, {'scheduleStartHour': '0900', 'scheduleEndHour': '1700', '__typename': 'DefaultSchedule'}]",Store
1022062804238,SPORTS STATION 23 PASKAL BANDUNG,10004921,,1500627,,,,,,,1,Indonesia,20000422,Jawa Barat,30000619,Kota Bandung,40000642,Andir,"Paskal Hyper Square, Jl. Pasirkaliki No.25-27, Kebon Jeruk, Andir, Bandung City, West Java 40181",40181,-6.91541,107.59404,1,1,"[{'scheduleStartHour': '0900', 'scheduleEndHour': '1700', '__typename': 'DefaultSchedule'}, {'scheduleStartHour': '0900', 'scheduleEndHour': '1700', '__typename': 'DefaultSchedule'}, {'scheduleStartHour': '0900', 'scheduleEndHour': '1700', '__typename': 'DefaultSchedule'}]",Store
1022062804237,SPORTS STATION EMPORIUM MALL PLUIT,10004920,,1500627,,,,,,,1,Indonesia,20001388,DKI Jakarta,30001400,Kota Jakarta Utara,40001402,Penjaringan,"Jl. Pluit Selatan Raya, RT.23/RW.8, Penjaringan, Kota Jkt Utara, Daerah Khusus Ibukota Jakarta 14440",14440,-6.12708,106.79177,1,1,"[{'scheduleStartHour': '0900', 'scheduleEndHour': '1700', '__typename': 'DefaultSchedule'}, {'scheduleStartHour': '0900', 'scheduleEndHour': '1700', '__typename': 'DefaultSchedule'}, {'scheduleStartHour': '0900', 'scheduleEndHour': '1700', '__typename': 'DefaultSchedule'}]",Store
1022062804236,SPORTS STATION MEGA TUNJUNGAN PLAZA 3,10004919,,1500627,,,,,,,1,Indonesia,20002351,Jawa Timur,30006122,Kota Surabaya,40006126,Tegalsari,"Jalan Basuki Rahmat No.8-12, Kedungdoro, Tegalsari, Kedungdoro, Tegalsari, Kota SBY, Jawa Timur 60261",60261,-7.262803,112.738906,1,1,"[{'scheduleStartHour': '0900', 'scheduleEndHour': '1700', '__typename': 'DefaultSchedule'}, {'scheduleStartHour': '0900', 'scheduleEndHour': '1700', '__typename': 'DefaultSchedule'}, {'scheduleStartHour': '0900', 'scheduleEndHour': '1700', '__typename': 'DefaultSchedule'}]",Store
1022062804235,SPORTS STATION MARGO CITY DEPOK,10004918,,1500627,,,,,,,1,Indonesia,20000422,Jawa Barat,30002206,Kota Depok,40002214,Beji,"Jl. Margonda Raya No.358, Kemiri Muka, Beji, Kota Depok, Jawa Barat 16423",16423,-6.37299,106.8348,1,1,"[{'scheduleStartHour': '0900', 'scheduleEndHour': '1700', '__typename': 'DefaultSchedule'}, {'scheduleStartHour': '0900', 'scheduleEndHour': '1700', '__typename': 'DefaultSchedule'}, {'scheduleStartHour': '0900', 'scheduleEndHour': '1700', '__typename': 'DefaultSchedule'}]",Store
1022062104229,SPORTS STATION AEON MALL TANJUNG BARAT,10004911,,1500627,,,,,,,1,Indonesia,20001388,DKI Jakarta,30001414,Kota Jakarta Selatan,40001423,Jagakarsa,"12, Jl. Raya Tj. Barat No.163, RT.12/RW.4, Tanjung Barat, Jagakarsa, South Jakarta City, Jakarta 12530",12530,-6.305474,106.840408,1,1,"[{'scheduleStartHour': '0900', 'scheduleEndHour': '1700', '__typename': 'DefaultSchedule'}, {'scheduleStartHour': '0900', 'scheduleEndHour': '1700', '__typename': 'DefaultSchedule'}, {'scheduleStartHour': '0900', 'scheduleEndHour': '1700', '__typename': 'DefaultSchedule'}]",Store
